{"type":"FeatureCollection","name":"ngis_nalog_tashkent","source":"Кадастр агентлиги, open.ngis.uz, слой Hosted/TOSHKENT_NALOG_ZONE_MAP (18 полигонов, 5 классов), 18.09.2026","features":[{"type":"Feature","geometry":{"type":"Polygon","coordinates":[[[69.28718,41.34823],[69.2836,41.3476],[69.2815,41.34765],[69.28081,41.34677],[69.27932,41.3454],[69.27913,41.34502],[69.28077,41.34447],[69.28057,41.34442],[69.27988,41.34341],[69.27411,41.33782],[69.2771,41.33619],[69.27889,41.33664],[69.27893,41.33652],[69.2794,41.3366],[69.27944,41.33575],[69.28008,41.33598],[69.28031,41.33599],[69.28033,41.33588],[69.28073,41.33598],[69.28078,41.33588],[69.28092,41.33592],[69.28087,41.33602],[69.28165,41.33623],[69.28198,41.33543],[69.27995,41.33519],[69.27954,41.33501],[69.27798,41.3333],[69.27734,41.33202],[69.27435,41.32857],[69.27331,41.32895],[69.27228,41.32983],[69.27033,41.33111],[69.26908,41.33116],[69.26676,41.33026],[69.25608,41.32963],[69.2492,41.33323],[69.24714,41.33253],[69.24653,41.33269],[69.24562,41.33316],[69.2443,41.33296],[69.24319,41.332],[69.24269,41.33194],[69.24207,41.33883],[69.24134,41.33881],[69.24039,41.33853],[69.23962,41.33752],[69.23783,41.33716],[69.23824,41.33618],[69.23942,41.33629],[69.23941,41.33561],[69.23953,41.33532],[69.23939,41.33448],[69.23739,41.33432],[69.23393,41.33471],[69.23462,41.3309],[69.23498,41.32954],[69.23272,41.33042],[69.2296,41.333],[69.22906,41.33259],[69.22815,41.33226],[69.22818,41.33186],[69.22787,41.33134],[69.22731,41.3297],[69.22721,41.32765],[69.22239,41.33037],[69.22168,41.3297],[69.22159,41.32947],[69.22168,41.32913],[69.22209,41.32862],[69.22193,41.32815],[69.2242,41.327],[69.22482,41.32643],[69.22567,41.32486],[69.22558,41.32414],[69.22013,41.32364],[69.21731,41.32264],[69.21627,41.32219],[69.21624,41.32206],[69.22107,41.32202],[69.2226,41.32168],[69.22509,41.3204],[69.2296,41.31772],[69.2284,41.31718],[69.2282,41.31697],[69.22808,41.31655],[69.2287,41.31588],[69.22946,41.31412],[69.23014,41.31316],[69.2304,41.31219],[69.23136,41.31265],[69.23447,41.3133],[69.23479,41.31372],[69.23596,41.31409],[69.23701,41.31368],[69.23957,41.31184],[69.24043,41.3118],[69.24017,41.31044],[69.23977,41.3097],[69.23373,41.30209],[69.23142,41.29961],[69.23585,41.29824],[69.23924,41.29753],[69.24197,41.29728],[69.24387,41.29787],[69.24812,41.29996],[69.24886,41.30049],[69.24905,41.29995],[69.25009,41.30046],[69.25175,41.30104],[69.25237,41.30113],[69.25299,41.30143],[69.25537,41.30069],[69.25735,41.29919],[69.25693,41.29877],[69.25759,41.29826],[69.25831,41.29774],[69.25881,41.29812],[69.26209,41.29569],[69.26064,41.29458],[69.26303,41.29277],[69.26639,41.29449],[69.26866,41.29583],[69.26879,41.29537],[69.26994,41.2939],[69.2747,41.28944],[69.27704,41.2911],[69.28218,41.28902],[69.2824,41.28847],[69.28282,41.28799],[69.283,41.28817],[69.28415,41.28862],[69.28546,41.2887],[69.28545,41.28884],[69.29129,41.29273],[69.29103,41.29297],[69.29161,41.29345],[69.29442,41.29522],[69.29428,41.29532],[69.29519,41.29593],[69.29425,41.29697],[69.29527,41.29757],[69.29608,41.29832],[69.29676,41.29933],[69.29706,41.30004],[69.29807,41.29998],[69.2987,41.29934],[69.29933,41.29897],[69.30033,41.29871],[69.30313,41.29887],[69.30314,41.29905],[69.30279,41.29912],[69.30287,41.29926],[69.30467,41.29875],[69.30465,41.29931],[69.30968,41.29831],[69.30982,41.29851],[69.30925,41.29883],[69.30902,41.29915],[69.30907,41.2993],[69.30852,41.2999],[69.30867,41.30086],[69.31,41.30079],[69.31016,41.30129],[69.31011,41.30141],[69.30892,41.30158],[69.30911,41.30291],[69.30964,41.30284],[69.30984,41.30364],[69.30999,41.30378],[69.31017,41.3037],[69.31032,41.30412],[69.3111,41.30415],[69.31108,41.30427],[69.31185,41.30447],[69.31219,41.3047],[69.31185,41.30557],[69.31016,41.30545],[69.30725,41.30573],[69.30664,41.30538],[69.30337,41.30689],[69.30231,41.30723],[69.30161,41.3073],[69.30583,41.31001],[69.30768,41.31245],[69.30669,41.31284],[69.30604,41.31258],[69.30562,41.31261],[69.30558,41.3132],[69.30503,41.31447],[69.30494,41.31558],[69.30473,41.31611],[69.30522,41.31656],[69.30628,41.31706],[69.30661,41.31732],[69.30664,41.3176],[69.30656,41.31795],[69.30538,41.31898],[69.30528,41.31926],[69.30549,41.3209],[69.30309,41.32107],[69.3041,41.32493],[69.30311,41.32504],[69.29849,41.3249],[69.29624,41.32506],[69.29537,41.32523],[69.29213,41.32661],[69.28323,41.32764],[69.2844,41.33329],[69.28718,41.34823]]]},"properties":{"zone":"ez_tashkent_1"}},{"type":"Feature","geometry":{"type":"Polygon","coordinates":[[[69.20424,41.35675],[69.203,41.35654],[69.19858,41.35662],[69.19799,41.35483],[69.198,41.34798],[69.19413,41.34868],[69.19288,41.34604],[69.18966,41.34156],[69.19043,41.33754],[69.18927,41.33772],[69.18882,41.33751],[69.18772,41.3346],[69.19124,41.33451],[69.19347,41.33387],[69.19433,41.33337],[69.19527,41.33205],[69.19819,41.33032],[69.19384,41.32618],[69.19328,41.32551],[69.193,41.32485],[69.193,41.32312],[69.19314,41.32236],[69.19959,41.32221],[69.20052,41.32139],[69.19912,41.32075],[69.19931,41.32033],[69.19944,41.31751],[69.20248,41.31531],[69.20087,41.31416],[69.2023,41.31254],[69.20235,41.31178],[69.20305,41.31172],[69.20302,41.31115],[69.20326,41.31022],[69.20316,41.31021],[69.20321,41.30915],[69.20351,41.30904],[69.2039,41.30908],[69.20401,41.30888],[69.20518,41.30883],[69.20642,41.30953],[69.20689,41.30954],[69.20812,41.31017],[69.20923,41.31008],[69.2095,41.31024],[69.21025,41.31117],[69.21086,41.31149],[69.21142,41.31161],[69.21192,41.31107],[69.21288,41.31051],[69.21292,41.31016],[69.21336,41.31003],[69.21334,41.30977],[69.21373,41.30961],[69.21385,41.30938],[69.21446,41.309],[69.21497,41.30826],[69.21581,41.30783],[69.21603,41.30775],[69.2162,41.30783],[69.21639,41.30766],[69.21791,41.30709],[69.21724,41.30647],[69.21771,41.30608],[69.21896,41.30555],[69.221,41.30436],[69.22025,41.30345],[69.22227,41.30177],[69.2226,41.30177],[69.22269,41.29732],[69.22343,41.29733],[69.22292,41.29646],[69.22234,41.29673],[69.22124,41.29668],[69.22122,41.29633],[69.22008,41.29536],[69.22019,41.29516],[69.21945,41.29447],[69.21643,41.29633],[69.2112,41.29154],[69.21017,41.29213],[69.20309,41.29274],[69.20097,41.29528],[69.19781,41.29376],[69.20155,41.28919],[69.20553,41.28641],[69.20888,41.28426],[69.21033,41.28553],[69.2109,41.2867],[69.21154,41.28646],[69.21229,41.28644],[69.21226,41.2871],[69.21395,41.28762],[69.21431,41.28705],[69.21526,41.28616],[69.21544,41.28628],[69.21632,41.28569],[69.21483,41.2843],[69.2166,41.28341],[69.21866,41.28314],[69.21905,41.28252],[69.21916,41.28226],[69.21902,41.28194],[69.21917,41.2817],[69.219,41.2813],[69.21905,41.281],[69.21815,41.28073],[69.21831,41.28045],[69.21781,41.2798],[69.21775,41.27953],[69.21707,41.27906],[69.21757,41.27878],[69.22404,41.28344],[69.22809,41.2808],[69.22776,41.2805],[69.22874,41.27995],[69.22939,41.27995],[69.22968,41.27978],[69.23003,41.27914],[69.23126,41.27947],[69.23197,41.28004],[69.23274,41.28004],[69.23393,41.2792],[69.23012,41.27574],[69.23394,41.27339],[69.24159,41.28045],[69.24537,41.27801],[69.25355,41.28528],[69.25566,41.28066],[69.25948,41.28169],[69.26597,41.28428],[69.26901,41.28011],[69.27306,41.27756],[69.2749,41.27581],[69.27787,41.27337],[69.27938,41.27191],[69.28389,41.27281],[69.28424,41.27271],[69.28762,41.27044],[69.28791,41.27065],[69.2895,41.27113],[69.29307,41.27397],[69.28773,41.27727],[69.2921,41.28102],[69.29722,41.27733],[69.30333,41.28189],[69.30622,41.27945],[69.30591,41.28218],[69.30317,41.28722],[69.30609,41.28806],[69.30945,41.2895],[69.30959,41.28869],[69.30982,41.28873],[69.31051,41.28753],[69.30866,41.28657],[69.31142,41.28506],[69.3126,41.28529],[69.31238,41.28598],[69.31345,41.28645],[69.31358,41.28725],[69.31345,41.28843],[69.31279,41.29054],[69.31283,41.2914],[69.31303,41.29189],[69.31393,41.29296],[69.31155,41.29467],[69.3119,41.29501],[69.31233,41.29468],[69.31318,41.29452],[69.31406,41.29467],[69.31617,41.29454],[69.32258,41.29278],[69.32265,41.29293],[69.32343,41.29269],[69.32358,41.29296],[69.32091,41.29381],[69.32114,41.29437],[69.31999,41.29462],[69.3182,41.29536],[69.31808,41.29522],[69.31339,41.29736],[69.31109,41.29813],[69.31338,41.30243],[69.31382,41.30229],[69.3139,41.30242],[69.31833,41.30108],[69.3188,41.3012],[69.31878,41.30386],[69.31959,41.30384],[69.31956,41.30398],[69.32131,41.30409],[69.32365,41.30443],[69.32355,41.30525],[69.32332,41.30528],[69.32348,41.30607],[69.32363,41.30607],[69.32381,41.30639],[69.32369,41.30653],[69.32381,41.3067],[69.32333,41.30704],[69.32417,41.30834],[69.32398,41.30883],[69.32431,41.30955],[69.32536,41.30996],[69.32632,41.31054],[69.33465,41.31446],[69.34137,41.31936],[69.33937,41.321],[69.34528,41.32525],[69.34729,41.32364],[69.35039,41.3286],[69.35056,41.3295],[69.35107,41.33043],[69.351,41.33119],[69.34982,41.33192],[69.3512,41.33325],[69.34894,41.3346],[69.34753,41.33338],[69.33596,41.34026],[69.34189,41.34575],[69.3333,41.35096],[69.33127,41.34894],[69.33115,41.349],[69.33101,41.34886],[69.33091,41.34895],[69.32978,41.34813],[69.32934,41.34761],[69.32954,41.34749],[69.32879,41.34679],[69.32837,41.34691],[69.32756,41.34558],[69.32727,41.34575],[69.32743,41.3459],[69.32711,41.3461],[69.3269,41.34592],[69.32738,41.34561],[69.32724,41.34543],[69.32669,41.34576],[69.32635,41.34545],[69.32673,41.34522],[69.32528,41.3439],[69.3255,41.34369],[69.3214,41.33998],[69.32108,41.33954],[69.32124,41.33951],[69.32108,41.3389],[69.31833,41.339],[69.31786,41.3388],[69.31775,41.33895],[69.3192,41.34049],[69.31995,41.34298],[69.32025,41.34353],[69.3232,41.34654],[69.3237,41.34667],[69.32368,41.3471],[69.32475,41.3473],[69.32069,41.34968],[69.32027,41.34956],[69.31921,41.35047],[69.31524,41.35274],[69.31503,41.3528],[69.31392,41.34926],[69.31349,41.34864],[69.3107,41.34733],[69.30948,41.34752],[69.30916,41.34742],[69.30696,41.34618],[69.30625,41.34505],[69.30597,41.34499],[69.30527,41.34529],[69.30506,41.34585],[69.30459,41.34612],[69.30243,41.34695],[69.30298,41.34745],[69.30369,41.34771],[69.30354,41.34804],[69.30277,41.34866],[69.30384,41.34955],[69.30292,41.35004],[69.30112,41.35495],[69.30368,41.35554],[69.30336,41.35643],[69.30264,41.35629],[69.30256,41.35601],[69.30193,41.35634],[69.30151,41.35639],[69.29949,41.35591],[69.29785,41.35576],[69.29742,41.35548],[69.29628,41.35536],[69.29631,41.35518],[69.29612,41.35491],[69.29538,41.35471],[69.29458,41.35487],[69.29395,41.35459],[69.29325,41.35459],[69.2927,41.35436],[69.29229,41.35483],[69.29113,41.35398],[69.28983,41.35275],[69.28934,41.35309],[69.28855,41.35566],[69.28894,41.35788],[69.28688,41.35817],[69.28647,41.35854],[69.28577,41.3579],[69.28416,41.35847],[69.28324,41.35787],[69.28243,41.35701],[69.27889,41.3589],[69.27581,41.36273],[69.27452,41.36386],[69.27354,41.36243],[69.27177,41.36345],[69.27146,41.36323],[69.26786,41.36549],[69.26779,41.36564],[69.26473,41.3669],[69.26353,41.36519],[69.26253,41.36426],[69.26173,41.36316],[69.26951,41.35563],[69.26133,41.3479],[69.25883,41.34931],[69.25377,41.34833],[69.25066,41.3479],[69.25049,41.34812],[69.24961,41.34824],[69.2487,41.34857],[69.24803,41.34852],[69.24704,41.34815],[69.24608,41.34836],[69.2456,41.34827],[69.24469,41.34835],[69.2423,41.34904],[69.24166,41.34908],[69.24158,41.34837],[69.22783,41.34951],[69.22801,41.35293],[69.22714,41.35573],[69.22063,41.3551],[69.21987,41.3552],[69.21822,41.35587],[69.21471,41.35799],[69.21471,41.35835],[69.20783,41.35862],[69.206,41.35835],[69.20661,41.35765],[69.20424,41.35675]],[[69.28718,41.34823],[69.2844,41.33329],[69.28323,41.32764],[69.29213,41.32661],[69.29537,41.32523],[69.29624,41.32506],[69.29849,41.3249],[69.30311,41.32504],[69.3041,41.32493],[69.30309,41.32107],[69.30549,41.3209],[69.30528,41.31926],[69.30538,41.31898],[69.30656,41.31795],[69.30664,41.3176],[69.30661,41.31732],[69.30628,41.31706],[69.30522,41.31656],[69.30473,41.31611],[69.30494,41.31558],[69.30503,41.31447],[69.30558,41.3132],[69.30562,41.31261],[69.30604,41.31258],[69.30669,41.31284],[69.30768,41.31245],[69.30583,41.31001],[69.30161,41.3073],[69.30231,41.30723],[69.30337,41.30689],[69.30664,41.30538],[69.30725,41.30573],[69.31016,41.30545],[69.31185,41.30557],[69.31219,41.3047],[69.31185,41.30447],[69.31108,41.30427],[69.3111,41.30415],[69.31032,41.30412],[69.31017,41.3037],[69.30999,41.30378],[69.30984,41.30364],[69.30964,41.30284],[69.30911,41.30291],[69.30892,41.30158],[69.31011,41.30141],[69.31016,41.30129],[69.31,41.30079],[69.30867,41.30086],[69.30852,41.2999],[69.30907,41.2993],[69.30902,41.29915],[69.30925,41.29883],[69.30982,41.29851],[69.30968,41.29831],[69.30465,41.29931],[69.30467,41.29875],[69.30287,41.29926],[69.30279,41.29912],[69.30314,41.29905],[69.30313,41.29887],[69.30033,41.29871],[69.29933,41.29897],[69.2987,41.29934],[69.29807,41.29998],[69.29706,41.30004],[69.29676,41.29933],[69.29608,41.29832],[69.29527,41.29757],[69.29425,41.29697],[69.29519,41.29593],[69.29428,41.29532],[69.29442,41.29522],[69.29161,41.29345],[69.29103,41.29297],[69.29129,41.29273],[69.28545,41.28884],[69.28546,41.2887],[69.28415,41.28862],[69.283,41.28817],[69.28282,41.28799],[69.2824,41.28847],[69.28218,41.28902],[69.27704,41.2911],[69.2747,41.28944],[69.26994,41.2939],[69.26879,41.29537],[69.26866,41.29583],[69.26639,41.29449],[69.26303,41.29277],[69.26064,41.29458],[69.26209,41.29569],[69.25881,41.29812],[69.25831,41.29774],[69.25759,41.29826],[69.25693,41.29877],[69.25735,41.29919],[69.25537,41.30069],[69.25299,41.30143],[69.25237,41.30113],[69.25175,41.30104],[69.25009,41.30046],[69.24905,41.29995],[69.24886,41.30049],[69.24812,41.29996],[69.24387,41.29787],[69.24197,41.29728],[69.23924,41.29753],[69.23585,41.29824],[69.23142,41.29961],[69.23373,41.30209],[69.23977,41.3097],[69.24017,41.31044],[69.24043,41.3118],[69.23957,41.31184],[69.23701,41.31368],[69.23596,41.31409],[69.23479,41.31372],[69.23447,41.3133],[69.23136,41.31265],[69.2304,41.31219],[69.23014,41.31316],[69.22946,41.31412],[69.2287,41.31588],[69.22808,41.31655],[69.2282,41.31697],[69.2284,41.31718],[69.2296,41.31772],[69.22509,41.3204],[69.2226,41.32168],[69.22107,41.32202],[69.21624,41.32206],[69.21627,41.32219],[69.21731,41.32264],[69.22013,41.32364],[69.22558,41.32414],[69.22567,41.32486],[69.22482,41.32643],[69.2242,41.327],[69.22193,41.32815],[69.22209,41.32862],[69.22168,41.32913],[69.22159,41.32947],[69.22168,41.3297],[69.22239,41.33037],[69.22721,41.32765],[69.22731,41.3297],[69.22787,41.33134],[69.22818,41.33186],[69.22815,41.33226],[69.22906,41.33259],[69.2296,41.333],[69.23272,41.33042],[69.23498,41.32954],[69.23462,41.3309],[69.23393,41.33471],[69.23739,41.33432],[69.23939,41.33448],[69.23953,41.33532],[69.23941,41.33561],[69.23942,41.33629],[69.23824,41.33618],[69.23783,41.33716],[69.23962,41.33752],[69.24039,41.33853],[69.24134,41.33881],[69.24207,41.33883],[69.24269,41.33194],[69.24319,41.332],[69.2443,41.33296],[69.24562,41.33316],[69.24653,41.33269],[69.24714,41.33253],[69.2492,41.33323],[69.25608,41.32963],[69.26676,41.33026],[69.26908,41.33116],[69.27033,41.33111],[69.27228,41.32983],[69.27331,41.32895],[69.27435,41.32857],[69.27734,41.33202],[69.27798,41.3333],[69.27954,41.33501],[69.27995,41.33519],[69.28198,41.33543],[69.28165,41.33623],[69.28087,41.33602],[69.28092,41.33592],[69.28078,41.33588],[69.28073,41.33598],[69.28033,41.33588],[69.28031,41.33599],[69.28008,41.33598],[69.27944,41.33575],[69.2794,41.3366],[69.27893,41.33652],[69.27889,41.33664],[69.2771,41.33619],[69.27411,41.33782],[69.27988,41.34341],[69.28057,41.34442],[69.28077,41.34447],[69.27913,41.34502],[69.27932,41.3454],[69.28081,41.34677],[69.2815,41.34765],[69.2836,41.3476],[69.28718,41.34823]],[[69.30591,41.343],[69.30612,41.34307],[69.30674,41.34267],[69.30775,41.34176],[69.30992,41.3392],[69.31147,41.33545],[69.31348,41.33199],[69.30685,41.33067],[69.30581,41.33402],[69.30451,41.33384],[69.3027,41.33772],[69.30289,41.33779],[69.3026,41.33802],[69.30261,41.33855],[69.3021,41.33849],[69.30215,41.33892],[69.30225,41.33896],[69.30183,41.33927],[69.30121,41.33936],[69.30117,41.33915],[69.3007,41.33914],[69.30173,41.34009],[69.30107,41.34068],[69.30064,41.34153],[69.3038,41.3426],[69.30402,41.3425],[69.30591,41.343]]]},"properties":{"zone":"ez_tashkent_2"}},{"type":"Feature","geometry":{"type":"Polygon","coordinates":[[[69.29465,41.37302],[69.28747,41.3742],[69.28621,41.36972],[69.28549,41.36985],[69.28461,41.37043],[69.28405,41.37199],[69.28261,41.37224],[69.28251,41.3719],[69.28212,41.372],[69.28219,41.37292],[69.28119,41.37306],[69.28164,41.37456],[69.28039,41.37563],[69.27505,41.37197],[69.27618,41.37113],[69.27822,41.37015],[69.27791,41.36978],[69.27672,41.36712],[69.27606,41.36594],[69.27452,41.36386],[69.27581,41.36273],[69.27889,41.3589],[69.28243,41.35701],[69.28324,41.35787],[69.28416,41.35847],[69.28577,41.3579],[69.28647,41.35854],[69.28688,41.35817],[69.28894,41.35788],[69.28855,41.35566],[69.28934,41.35309],[69.28983,41.35275],[69.29113,41.35398],[69.29229,41.35483],[69.2927,41.35436],[69.29325,41.35459],[69.29395,41.35459],[69.29458,41.35487],[69.29538,41.35471],[69.29612,41.35491],[69.29631,41.35518],[69.29628,41.35536],[69.29742,41.35548],[69.29785,41.35576],[69.29949,41.35591],[69.30151,41.35639],[69.30193,41.35634],[69.30256,41.35601],[69.30264,41.35629],[69.30336,41.35643],[69.30371,41.35677],[69.30545,41.35715],[69.30642,41.35803],[69.30503,41.35887],[69.30741,41.36117],[69.30599,41.36208],[69.3067,41.36266],[69.31047,41.36385],[69.31412,41.36552],[69.31144,41.36982],[69.30526,41.36808],[69.30478,41.369],[69.30436,41.36935],[69.30315,41.36898],[69.30221,41.36945],[69.30008,41.37102],[69.30123,41.37174],[69.30102,41.37186],[69.29465,41.37302]]]},"properties":{"zone":"ez_tashkent_3"}},{"type":"Feature","geometry":{"type":"Polygon","coordinates":[[[69.33759,41.30473],[69.33638,41.30381],[69.33609,41.30101],[69.336,41.29846],[69.3352,41.29818],[69.33528,41.29805],[69.33333,41.29727],[69.33228,41.29669],[69.32412,41.29487],[69.32259,41.29442],[69.32114,41.29437],[69.32091,41.29381],[69.32358,41.29296],[69.32343,41.29269],[69.32265,41.29293],[69.32258,41.29278],[69.31617,41.29454],[69.31406,41.29467],[69.31318,41.29452],[69.31233,41.29468],[69.3119,41.29501],[69.31155,41.29467],[69.31393,41.29296],[69.31303,41.29189],[69.31283,41.2914],[69.31279,41.29054],[69.31345,41.28843],[69.31358,41.28725],[69.31345,41.28645],[69.31238,41.28598],[69.3126,41.28529],[69.31142,41.28506],[69.30866,41.28657],[69.31051,41.28753],[69.30982,41.28873],[69.30959,41.28869],[69.30945,41.2895],[69.30609,41.28806],[69.30317,41.28722],[69.30591,41.28218],[69.30622,41.27945],[69.30789,41.27811],[69.30824,41.27765],[69.31095,41.27291],[69.31604,41.27524],[69.31406,41.27876],[69.31568,41.27928],[69.31608,41.27956],[69.31525,41.28068],[69.31542,41.28076],[69.31536,41.28095],[69.31513,41.28093],[69.31485,41.28163],[69.31465,41.28163],[69.31433,41.2814],[69.31426,41.28148],[69.31457,41.28172],[69.31423,41.2819],[69.31373,41.2828],[69.31511,41.28321],[69.31751,41.28479],[69.31824,41.28587],[69.32094,41.28906],[69.32165,41.28955],[69.32226,41.29123],[69.32376,41.29262],[69.32545,41.29187],[69.3266,41.29113],[69.33059,41.2881],[69.33197,41.28687],[69.33277,41.28562],[69.33307,41.28466],[69.33312,41.28383],[69.33289,41.28257],[69.33642,41.28408],[69.33756,41.28682],[69.33832,41.28656],[69.33975,41.28317],[69.34074,41.2835],[69.35091,41.28817],[69.35416,41.28902],[69.35781,41.29098],[69.35608,41.29281],[69.36056,41.29467],[69.36334,41.29611],[69.36921,41.29885],[69.37465,41.30064],[69.37736,41.30249],[69.3794,41.3034],[69.38455,41.30602],[69.38804,41.30632],[69.39007,41.30621],[69.39604,41.30416],[69.39729,41.30385],[69.39831,41.3034],[69.40026,41.30306],[69.40837,41.3107],[69.40868,41.31094],[69.40958,41.31129],[69.41077,41.31052],[69.41188,41.30935],[69.41299,41.30849],[69.41417,41.30768],[69.41456,41.30764],[69.4198,41.31006],[69.42005,41.31028],[69.42144,41.31245],[69.42202,41.31303],[69.42682,41.31591],[69.4392,41.32421],[69.43654,41.32507],[69.43382,41.32569],[69.43103,41.32607],[69.4286,41.3262],[69.43461,41.33392],[69.42447,41.33185],[69.42354,41.33181],[69.38867,41.33809],[69.38593,41.33843],[69.38457,41.3383],[69.38144,41.33759],[69.38014,41.33695],[69.37929,41.33598],[69.37875,41.33445],[69.37814,41.33348],[69.37552,41.33052],[69.36487,41.32279],[69.35472,41.32894],[69.35597,41.33036],[69.35124,41.33326],[69.36291,41.34419],[69.35663,41.34802],[69.35725,41.34846],[69.35873,41.34916],[69.36046,41.35017],[69.36026,41.35028],[69.35798,41.35048],[69.35424,41.35273],[69.34497,41.34395],[69.34189,41.34575],[69.33596,41.34026],[69.34753,41.33338],[69.34894,41.3346],[69.3512,41.33325],[69.34982,41.33192],[69.351,41.33119],[69.35105,41.33091],[69.35107,41.33043],[69.35056,41.3295],[69.35039,41.3286],[69.34729,41.32364],[69.34528,41.32525],[69.33937,41.321],[69.34137,41.31936],[69.33465,41.31446],[69.32632,41.31054],[69.32536,41.30996],[69.32431,41.30955],[69.32398,41.30883],[69.32417,41.30834],[69.32333,41.30704],[69.32381,41.3067],[69.32369,41.30653],[69.32381,41.30639],[69.32363,41.30607],[69.32348,41.30607],[69.32332,41.30528],[69.32355,41.30525],[69.32363,41.30461],[69.33155,41.30526],[69.33152,41.30598],[69.33498,41.30627],[69.3374,41.30777],[69.33963,41.30568],[69.33803,41.30507],[69.33759,41.30473]]]},"properties":{"zone":"ez_tashkent_3"}},{"type":"Feature","geometry":{"type":"Polygon","coordinates":[[[69.35388,41.25004],[69.35545,41.25167],[69.35524,41.25198],[69.35392,41.25266],[69.35376,41.25343],[69.35328,41.25417],[69.3524,41.25505],[69.34701,41.26159],[69.34422,41.2604],[69.33189,41.25583],[69.33514,41.25127],[69.33804,41.25282],[69.33902,41.25164],[69.3422,41.25331],[69.34411,41.25093],[69.34296,41.25044],[69.3412,41.24936],[69.34222,41.24812],[69.34387,41.24535],[69.34741,41.24633],[69.34834,41.24671],[69.35268,41.24915],[69.35388,41.25004]]]},"properties":{"zone":"ez_tashkent_5"}},{"type":"Feature","geometry":{"type":"Polygon","coordinates":[[[69.36901,41.29877],[69.36907,41.29854],[69.36847,41.29827],[69.36914,41.29726],[69.37238,41.29321],[69.36993,41.29181],[69.36978,41.29157],[69.36992,41.29053],[69.37035,41.2903],[69.37098,41.29026],[69.37133,41.2904],[69.37215,41.29043],[69.37366,41.29028],[69.37545,41.28964],[69.37676,41.28953],[69.37696,41.28705],[69.37745,41.28645],[69.37731,41.28613],[69.37795,41.28514],[69.37761,41.2846],[69.37595,41.28305],[69.37411,41.28208],[69.3743,41.28156],[69.37366,41.28092],[69.37358,41.28028],[69.37405,41.27941],[69.37201,41.27763],[69.37286,41.27716],[69.37355,41.27758],[69.37486,41.27731],[69.37512,41.27714],[69.37573,41.27656],[69.37552,41.27648],[69.37561,41.27631],[69.37754,41.2736],[69.37832,41.27405],[69.37853,41.27384],[69.37955,41.27413],[69.37966,41.27439],[69.37996,41.27171],[69.3797,41.26938],[69.3803,41.27001],[69.38076,41.27015],[69.38146,41.27007],[69.38193,41.27019],[69.38245,41.27061],[69.38368,41.27112],[69.38396,41.27138],[69.38431,41.27256],[69.38453,41.27294],[69.38496,41.27332],[69.3876,41.275],[69.38936,41.27565],[69.39028,41.27646],[69.39138,41.27787],[69.3939,41.2794],[69.39471,41.28045],[69.39571,41.28118],[69.39956,41.28491],[69.40321,41.28779],[69.4046,41.28865],[69.40504,41.28941],[69.40698,41.29105],[69.4084,41.29262],[69.41017,41.2943],[69.41138,41.29508],[69.41175,41.29545],[69.41537,41.29768],[69.41734,41.29918],[69.41827,41.29967],[69.41932,41.30119],[69.42028,41.3021],[69.42063,41.30273],[69.42189,41.30349],[69.42412,41.30595],[69.42514,41.30645],[69.42609,41.30722],[69.42715,41.30769],[69.42877,41.30891],[69.42887,41.30918],[69.42875,41.30938],[69.42931,41.31041],[69.43022,41.31102],[69.43074,41.31119],[69.43415,41.31168],[69.43479,41.3123],[69.43487,41.31293],[69.43727,41.31495],[69.43852,41.3156],[69.4409,41.31649],[69.44177,41.31737],[69.44285,41.31793],[69.44423,41.31821],[69.44685,41.31959],[69.45164,41.32335],[69.45249,41.32469],[69.45274,41.3258],[69.45528,41.32815],[69.45819,41.32948],[69.45937,41.32989],[69.46131,41.33086],[69.46277,41.33179],[69.4645,41.33314],[69.46548,41.33361],[69.46784,41.33518],[69.46903,41.33628],[69.46546,41.33852],[69.46503,41.33812],[69.46341,41.33958],[69.46307,41.33933],[69.46214,41.33996],[69.4626,41.34061],[69.46251,41.34179],[69.46291,41.34186],[69.46283,41.34445],[69.46253,41.34556],[69.45811,41.34511],[69.43618,41.34444],[69.43599,41.34467],[69.43577,41.34462],[69.43285,41.34588],[69.43261,41.34554],[69.43011,41.34645],[69.42889,41.34487],[69.42808,41.3452],[69.42779,41.34533],[69.42786,41.34547],[69.4271,41.34578],[69.42716,41.34586],[69.42552,41.34655],[69.42708,41.34862],[69.42484,41.34955],[69.4263,41.35144],[69.42852,41.35262],[69.42682,41.35492],[69.42766,41.35528],[69.42695,41.35627],[69.42584,41.35578],[69.42549,41.35575],[69.42513,41.3567],[69.42632,41.35724],[69.4273,41.35808],[69.42395,41.35938],[69.42289,41.36104],[69.42069,41.36263],[69.41776,41.36172],[69.41797,41.36139],[69.4159,41.36069],[69.415,41.36054],[69.41422,41.36098],[69.41405,41.36078],[69.41377,41.36104],[69.41345,41.36094],[69.41262,41.36014],[69.41286,41.35953],[69.4122,41.35939],[69.41162,41.35906],[69.41123,41.35842],[69.41068,41.35801],[69.4095,41.35767],[69.40887,41.35801],[69.40775,41.36007],[69.40785,41.3601],[69.4077,41.3604],[69.40759,41.36036],[69.40699,41.36151],[69.40579,41.36272],[69.40711,41.36348],[69.40553,41.36504],[69.40449,41.36397],[69.40438,41.36402],[69.40202,41.36327],[69.40137,41.36291],[69.40118,41.36302],[69.40138,41.36329],[69.40096,41.36488],[69.40058,41.3648],[69.40049,41.36506],[69.3998,41.36479],[69.39886,41.36596],[69.3962,41.36442],[69.39642,41.36352],[69.39631,41.36249],[69.39519,41.35845],[69.39541,41.3564],[69.38715,41.35294],[69.39495,41.34266],[69.3871,41.33974],[69.38689,41.33978],[69.38577,41.34082],[69.38051,41.34163],[69.38051,41.3401],[69.38016,41.33947],[69.37907,41.33836],[69.37896,41.33785],[69.37874,41.33768],[69.37903,41.33707],[69.37912,41.33561],[69.37993,41.33677],[69.38104,41.33746],[69.38457,41.3383],[69.38632,41.33842],[69.39004,41.33785],[69.42354,41.33181],[69.42447,41.33185],[69.43461,41.33392],[69.4286,41.3262],[69.43103,41.32607],[69.43382,41.32569],[69.43654,41.32507],[69.4392,41.32421],[69.42682,41.31591],[69.42202,41.31303],[69.42144,41.31245],[69.42005,41.31028],[69.4198,41.31006],[69.41456,41.30764],[69.41421,41.30766],[69.41328,41.30828],[69.41188,41.30935],[69.4106,41.31065],[69.40971,41.31126],[69.40949,41.31128],[69.40837,41.3107],[69.40032,41.30308],[69.39831,41.3034],[69.39729,41.30385],[69.39604,41.30416],[69.39007,41.30621],[69.38838,41.30633],[69.38488,41.30611],[69.38424,41.3059],[69.3794,41.3034],[69.37736,41.30249],[69.37465,41.30064],[69.36901,41.29877]]]},"properties":{"zone":"ez_tashkent_5"}},{"type":"Feature","geometry":{"type":"Polygon","coordinates":[[[69.20376,41.36054],[69.20369,41.3616],[69.20401,41.36396],[69.21473,41.36395],[69.2147,41.36116],[69.21716,41.36089],[69.21868,41.36101],[69.22137,41.3605],[69.22436,41.35949],[69.2267,41.35985],[69.22734,41.36001],[69.22826,41.36059],[69.22966,41.3608],[69.23301,41.35959],[69.23319,41.3594],[69.2333,41.35895],[69.23311,41.35824],[69.23324,41.35817],[69.2363,41.35787],[69.23607,41.35399],[69.23689,41.35395],[69.23751,41.3534],[69.23878,41.35338],[69.23827,41.34865],[69.24158,41.34837],[69.24166,41.34908],[69.2423,41.34904],[69.24469,41.34835],[69.2456,41.34827],[69.24608,41.34836],[69.24704,41.34815],[69.24803,41.34852],[69.2487,41.34857],[69.24961,41.34824],[69.25049,41.34812],[69.25066,41.3479],[69.25377,41.34833],[69.25883,41.34931],[69.26133,41.3479],[69.26951,41.35563],[69.26173,41.36316],[69.26253,41.36426],[69.26353,41.36519],[69.26473,41.3669],[69.26779,41.36564],[69.26786,41.36549],[69.27146,41.36323],[69.27177,41.36345],[69.27354,41.36243],[69.27606,41.36594],[69.27672,41.36712],[69.27791,41.36978],[69.27822,41.37015],[69.27618,41.37113],[69.27505,41.37197],[69.28039,41.37563],[69.28164,41.37456],[69.28119,41.37306],[69.28219,41.37292],[69.28212,41.372],[69.28251,41.3719],[69.28261,41.37224],[69.28405,41.37199],[69.28461,41.37043],[69.28549,41.36985],[69.28621,41.36972],[69.28747,41.3742],[69.30102,41.37186],[69.30123,41.37174],[69.30008,41.37102],[69.30221,41.36945],[69.30315,41.36898],[69.30436,41.36935],[69.30478,41.369],[69.30526,41.36808],[69.31144,41.36982],[69.31412,41.36552],[69.31047,41.36385],[69.3067,41.36266],[69.30599,41.36208],[69.30741,41.36117],[69.30503,41.35887],[69.30642,41.35803],[69.30545,41.35715],[69.30371,41.35677],[69.30336,41.35643],[69.30368,41.35554],[69.30112,41.35495],[69.30292,41.35004],[69.30384,41.34955],[69.30277,41.34866],[69.30354,41.34804],[69.30369,41.34771],[69.30298,41.34745],[69.30243,41.34695],[69.30506,41.34585],[69.30527,41.34529],[69.30597,41.34499],[69.30625,41.34505],[69.30696,41.34618],[69.30916,41.34742],[69.30948,41.34752],[69.3107,41.34733],[69.31349,41.34864],[69.31392,41.34926],[69.31503,41.3528],[69.31524,41.35274],[69.31921,41.35047],[69.32027,41.34956],[69.32069,41.34968],[69.32475,41.3473],[69.32368,41.3471],[69.3237,41.34667],[69.3232,41.34654],[69.32025,41.34353],[69.31995,41.34298],[69.3192,41.34049],[69.31775,41.33895],[69.31786,41.3388],[69.31833,41.339],[69.32108,41.3389],[69.32124,41.33951],[69.32108,41.33954],[69.3214,41.33998],[69.3255,41.34369],[69.32528,41.3439],[69.32673,41.34522],[69.32635,41.34545],[69.32669,41.34576],[69.32724,41.34543],[69.32738,41.34561],[69.3269,41.34592],[69.32711,41.3461],[69.32743,41.3459],[69.32727,41.34575],[69.32756,41.34558],[69.32837,41.34691],[69.32879,41.34679],[69.32954,41.34749],[69.32934,41.34761],[69.32978,41.34813],[69.33091,41.34895],[69.33101,41.34886],[69.33115,41.349],[69.33127,41.34894],[69.3333,41.35096],[69.34497,41.34395],[69.35424,41.35273],[69.35798,41.35048],[69.36026,41.35028],[69.36046,41.35017],[69.35873,41.34916],[69.35725,41.34846],[69.35663,41.34802],[69.36291,41.34419],[69.35124,41.33326],[69.35597,41.33036],[69.35472,41.32894],[69.36487,41.32279],[69.37552,41.33052],[69.37814,41.33348],[69.37875,41.33445],[69.37903,41.33512],[69.37916,41.33587],[69.37903,41.33707],[69.37874,41.33768],[69.37896,41.33785],[69.37907,41.33836],[69.38016,41.33947],[69.38051,41.3401],[69.38051,41.34163],[69.38577,41.34082],[69.38689,41.33978],[69.3871,41.33974],[69.39495,41.34266],[69.38715,41.35294],[69.39541,41.3564],[69.39519,41.35845],[69.39631,41.36249],[69.39642,41.36352],[69.3962,41.36442],[69.39584,41.36421],[69.39492,41.36504],[69.39343,41.36564],[69.39294,41.36596],[69.39247,41.36661],[69.39236,41.36722],[69.39158,41.36646],[69.3903,41.36579],[69.37791,41.36162],[69.37656,41.36127],[69.37426,41.36116],[69.36617,41.36222],[69.36384,41.36229],[69.36285,41.36197],[69.36201,41.36141],[69.35824,41.35682],[69.35693,41.35576],[69.3556,41.35511],[69.35419,41.3547],[69.35249,41.35451],[69.35114,41.35457],[69.34988,41.35481],[69.34646,41.35578],[69.34431,41.35592],[69.33828,41.35959],[69.32538,41.36948],[69.32479,41.37007],[69.3241,41.37108],[69.32041,41.37923],[69.31898,41.38275],[69.31854,41.38336],[69.31763,41.38418],[69.31583,41.38491],[69.31492,41.38506],[69.31124,41.38516],[69.30602,41.38467],[69.30132,41.38402],[69.28732,41.38372],[69.28564,41.38384],[69.28424,41.38409],[69.28238,41.38469],[69.28088,41.38537],[69.27956,41.38439],[69.27741,41.38175],[69.27461,41.38009],[69.26931,41.37751],[69.27132,41.37547],[69.26477,41.37168],[69.26031,41.37014],[69.25975,41.37043],[69.25787,41.37195],[69.25689,41.37149],[69.2554,41.37108],[69.2537,41.37081],[69.24407,41.37902],[69.24213,41.38082],[69.24178,41.38054],[69.2414,41.38049],[69.23945,41.38098],[69.23855,41.38076],[69.23773,41.3822],[69.23681,41.38515],[69.23595,41.3863],[69.22802,41.39504],[69.21523,41.38702],[69.21269,41.38671],[69.2121,41.38678],[69.2115,41.38703],[69.21125,41.38689],[69.21143,41.38634],[69.21137,41.38592],[69.21047,41.38403],[69.17291,41.36025],[69.17053,41.35837],[69.16865,41.35636],[69.16683,41.35361],[69.16566,41.35065],[69.16464,41.34555],[69.16401,41.33749],[69.16363,41.33564],[69.16272,41.3335],[69.16065,41.3301],[69.15977,41.32819],[69.16008,41.32815],[69.15229,41.30965],[69.15174,41.30556],[69.14891,41.30574],[69.14879,41.30527],[69.14777,41.30394],[69.14663,41.30365],[69.14609,41.30298],[69.14549,41.30269],[69.14486,41.30161],[69.14516,41.30095],[69.14494,41.30052],[69.14407,41.30004],[69.14335,41.30002],[69.14311,41.29985],[69.14302,41.29972],[69.14319,41.29927],[69.14312,41.29889],[69.14207,41.2981],[69.14133,41.29678],[69.14078,41.2965],[69.14036,41.29651],[69.14042,41.29602],[69.14032,41.29579],[69.13994,41.29564],[69.13939,41.29505],[69.13869,41.29491],[69.13855,41.2945],[69.13892,41.2941],[69.13893,41.29386],[69.13839,41.29241],[69.13793,41.29204],[69.13691,41.29156],[69.13628,41.29078],[69.13523,41.29065],[69.13485,41.28994],[69.1339,41.28966],[69.1343,41.28908],[69.13404,41.28863],[69.13329,41.28855],[69.13259,41.28814],[69.1437,41.2796],[69.14458,41.28062],[69.14533,41.28091],[69.14616,41.28144],[69.14715,41.28153],[69.14744,41.28138],[69.14641,41.27803],[69.14631,41.27733],[69.15084,41.27865],[69.1555,41.28166],[69.16089,41.28262],[69.16447,41.28294],[69.16427,41.28211],[69.16421,41.28068],[69.16492,41.27881],[69.16455,41.27861],[69.16505,41.27774],[69.16561,41.27615],[69.16602,41.27548],[69.16623,41.27436],[69.17299,41.26799],[69.17118,41.2669],[69.17157,41.26616],[69.17302,41.26559],[69.16883,41.26134],[69.16856,41.26058],[69.17985,41.25995],[69.18459,41.25918],[69.18535,41.25947],[69.18801,41.25986],[69.18776,41.26059],[69.18938,41.26094],[69.18968,41.26113],[69.18963,41.26125],[69.1904,41.26148],[69.19089,41.26147],[69.19122,41.26168],[69.19116,41.26187],[69.19189,41.26204],[69.19249,41.26233],[69.19317,41.26293],[69.19374,41.26294],[69.19449,41.26256],[69.19461,41.26302],[69.19447,41.26997],[69.19019,41.27124],[69.18751,41.2738],[69.18477,41.27733],[69.19291,41.28189],[69.19467,41.28079],[69.19352,41.30824],[69.19202,41.30808],[69.1894,41.30744],[69.1874,41.31299],[69.18663,41.31457],[69.18722,41.31495],[69.18177,41.32275],[69.18454,41.32263],[69.18299,41.32529],[69.18325,41.32718],[69.16926,41.3281],[69.16957,41.33052],[69.17,41.33059],[69.1724,41.33037],[69.17242,41.33141],[69.17155,41.33154],[69.17156,41.33578],[69.1749,41.33568],[69.17531,41.33953],[69.17573,41.34017],[69.17688,41.34126],[69.17731,41.34215],[69.17688,41.3437],[69.17624,41.34878],[69.17845,41.3492],[69.1785,41.35392],[69.17884,41.35453],[69.18079,41.35646],[69.18581,41.35529],[69.18528,41.354],[69.18717,41.35354],[69.18773,41.3548],[69.19533,41.35301],[69.19532,41.35468],[69.19629,41.35571],[69.19243,41.35791],[69.19336,41.35879],[69.19366,41.3587],[69.19445,41.35941],[69.19459,41.35917],[69.19511,41.35913],[69.1957,41.35869],[69.19662,41.35836],[69.1969,41.35805],[69.19825,41.35765],[69.19862,41.35776],[69.19939,41.35767],[69.20011,41.35748],[69.20034,41.35726],[69.20127,41.35741],[69.20148,41.35725],[69.20234,41.35721],[69.20214,41.35715],[69.20241,41.35712],[69.20441,41.35778],[69.20618,41.35785],[69.20376,41.36054]]]},"properties":{"zone":"ez_tashkent_4"}},{"type":"Feature","geometry":{"type":"Polygon","coordinates":[[[69.17168,41.26922],[69.16623,41.27436],[69.16602,41.27548],[69.16561,41.27615],[69.16505,41.27774],[69.16455,41.27861],[69.16492,41.27881],[69.16421,41.28068],[69.16427,41.28211],[69.16447,41.28294],[69.16089,41.28262],[69.1555,41.28166],[69.15084,41.27865],[69.14631,41.27733],[69.14624,41.27622],[69.14689,41.26495],[69.14714,41.26384],[69.14755,41.26275],[69.14814,41.26171],[69.14879,41.26089],[69.15675,41.26375],[69.15711,41.26329],[69.15784,41.2629],[69.15796,41.26235],[69.15904,41.26179],[69.15932,41.26178],[69.16196,41.26012],[69.16409,41.26201],[69.16623,41.26071],[69.16856,41.26058],[69.16883,41.26134],[69.17302,41.26559],[69.17157,41.26616],[69.17118,41.2669],[69.17299,41.26799],[69.17168,41.26922]]]},"properties":{"zone":"ez_tashkent_5"}},{"type":"Feature","geometry":{"type":"Polygon","coordinates":[[[69.20376,41.36054],[69.20618,41.35785],[69.20441,41.35778],[69.20241,41.35712],[69.20214,41.35715],[69.20234,41.35721],[69.20148,41.35725],[69.20127,41.35741],[69.20034,41.35726],[69.20011,41.35748],[69.19939,41.35767],[69.19862,41.35776],[69.19825,41.35765],[69.1969,41.35805],[69.19662,41.35836],[69.1957,41.35869],[69.19511,41.35913],[69.19459,41.35917],[69.19445,41.35941],[69.19366,41.3587],[69.19336,41.35879],[69.19243,41.35791],[69.19629,41.35571],[69.19532,41.35468],[69.19533,41.35301],[69.18773,41.3548],[69.18717,41.35354],[69.18528,41.354],[69.18581,41.35529],[69.18079,41.35646],[69.17884,41.35453],[69.1785,41.35392],[69.17845,41.3492],[69.17624,41.34878],[69.17688,41.3437],[69.17731,41.34215],[69.17688,41.34126],[69.17573,41.34017],[69.17531,41.33953],[69.1749,41.33568],[69.17156,41.33578],[69.17155,41.33154],[69.17242,41.33141],[69.1724,41.33037],[69.17,41.33059],[69.16957,41.33052],[69.16926,41.3281],[69.18325,41.32718],[69.18299,41.32529],[69.18454,41.32263],[69.18177,41.32275],[69.18722,41.31495],[69.18663,41.31457],[69.1874,41.31299],[69.1894,41.30744],[69.19202,41.30808],[69.19352,41.30824],[69.19467,41.28079],[69.19291,41.28189],[69.18477,41.27733],[69.18751,41.2738],[69.19019,41.27124],[69.19447,41.26997],[69.19461,41.26302],[69.19449,41.26256],[69.19374,41.26294],[69.19317,41.26293],[69.19249,41.26233],[69.19189,41.26204],[69.19116,41.26187],[69.19122,41.26168],[69.19089,41.26147],[69.1904,41.26148],[69.18963,41.26125],[69.18968,41.26113],[69.18938,41.26094],[69.18776,41.26059],[69.18801,41.25986],[69.18535,41.25947],[69.18459,41.25918],[69.17985,41.25995],[69.16623,41.26071],[69.16409,41.26201],[69.16196,41.26012],[69.15932,41.26178],[69.15904,41.26179],[69.15796,41.26235],[69.15784,41.2629],[69.15711,41.26329],[69.15675,41.26375],[69.14879,41.26089],[69.15016,41.25955],[69.15447,41.25637],[69.16103,41.25236],[69.16212,41.25147],[69.16324,41.25022],[69.16409,41.24868],[69.16666,41.24091],[69.16674,41.23988],[69.16651,41.23947],[69.16576,41.23869],[69.16557,41.23778],[69.16762,41.23859],[69.17366,41.24442],[69.17445,41.24501],[69.18871,41.25374],[69.19158,41.25418],[69.20364,41.25423],[69.20379,41.25412],[69.20343,41.25054],[69.20372,41.2494],[69.20357,41.2481],[69.2038,41.24732],[69.20433,41.24657],[69.21017,41.25024],[69.21795,41.25462],[69.22786,41.2592],[69.23578,41.26259],[69.23571,41.26269],[69.23448,41.26289],[69.23388,41.26318],[69.23128,41.26182],[69.22875,41.26078],[69.22693,41.26062],[69.22623,41.26079],[69.22491,41.25978],[69.22093,41.25885],[69.21604,41.25941],[69.21421,41.25927],[69.21341,41.25909],[69.21185,41.25844],[69.20567,41.25486],[69.20427,41.25434],[69.20381,41.25494],[69.20527,41.26025],[69.20762,41.26456],[69.21131,41.27009],[69.21902,41.26531],[69.22055,41.26662],[69.22087,41.26712],[69.22116,41.26826],[69.22176,41.269],[69.22171,41.26963],[69.22186,41.26971],[69.22319,41.26901],[69.22586,41.26829],[69.22656,41.26978],[69.22873,41.27164],[69.23444,41.26809],[69.24456,41.27731],[69.24535,41.27271],[69.24616,41.26662],[69.2465,41.26532],[69.24653,41.26509],[69.24625,41.26498],[69.24631,41.26455],[69.25885,41.26679],[69.26238,41.26753],[69.26443,41.26507],[69.26474,41.26352],[69.26487,41.26346],[69.26586,41.26395],[69.26598,41.26427],[69.26718,41.2648],[69.26798,41.26501],[69.26695,41.26821],[69.2773,41.27012],[69.27766,41.27024],[69.27938,41.27191],[69.27787,41.27337],[69.2749,41.27581],[69.27306,41.27756],[69.26901,41.28011],[69.26597,41.28428],[69.25948,41.28169],[69.25566,41.28066],[69.25355,41.28528],[69.24537,41.27801],[69.24159,41.28045],[69.23394,41.27339],[69.23012,41.27574],[69.23393,41.2792],[69.23274,41.28004],[69.23197,41.28004],[69.23126,41.27947],[69.23003,41.27914],[69.22968,41.27978],[69.22939,41.27995],[69.22874,41.27995],[69.22776,41.2805],[69.22809,41.2808],[69.22404,41.28344],[69.21757,41.27878],[69.21707,41.27906],[69.21775,41.27953],[69.21781,41.2798],[69.21831,41.28045],[69.21815,41.28073],[69.21905,41.281],[69.219,41.2813],[69.21917,41.2817],[69.21902,41.28194],[69.21916,41.28226],[69.21905,41.28252],[69.21866,41.28314],[69.2166,41.28341],[69.21483,41.2843],[69.21632,41.28569],[69.21544,41.28628],[69.21526,41.28616],[69.21431,41.28705],[69.21395,41.28762],[69.21226,41.2871],[69.21229,41.28644],[69.21154,41.28646],[69.2109,41.2867],[69.21033,41.28553],[69.20888,41.28426],[69.20553,41.28641],[69.20155,41.28919],[69.19781,41.29376],[69.20097,41.29528],[69.20309,41.29274],[69.21017,41.29213],[69.2112,41.29154],[69.21643,41.29633],[69.21945,41.29447],[69.22019,41.29516],[69.22008,41.29536],[69.22122,41.29633],[69.22124,41.29668],[69.22234,41.29673],[69.22292,41.29646],[69.22343,41.29733],[69.22269,41.29732],[69.2226,41.30177],[69.22227,41.30177],[69.22025,41.30345],[69.221,41.30436],[69.21896,41.30555],[69.21771,41.30608],[69.21724,41.30647],[69.21791,41.30709],[69.21639,41.30766],[69.2162,41.30783],[69.21603,41.30775],[69.21581,41.30783],[69.21497,41.30826],[69.21446,41.309],[69.21385,41.30938],[69.21373,41.30961],[69.21334,41.30977],[69.21336,41.31003],[69.21292,41.31016],[69.21288,41.31051],[69.21192,41.31107],[69.21142,41.31161],[69.21086,41.31149],[69.21025,41.31117],[69.2095,41.31024],[69.20923,41.31008],[69.20812,41.31017],[69.20689,41.30954],[69.20642,41.30953],[69.20518,41.30883],[69.20401,41.30888],[69.2039,41.30908],[69.20351,41.30904],[69.20321,41.30915],[69.20316,41.31021],[69.20326,41.31022],[69.20302,41.31115],[69.20305,41.31172],[69.20235,41.31178],[69.2023,41.31254],[69.20087,41.31416],[69.20248,41.31531],[69.19944,41.31751],[69.19931,41.32033],[69.19912,41.32075],[69.20052,41.32139],[69.19959,41.32221],[69.19314,41.32236],[69.193,41.32312],[69.193,41.32485],[69.19328,41.32551],[69.19384,41.32618],[69.19819,41.33032],[69.19527,41.33205],[69.19433,41.33337],[69.19347,41.33387],[69.19124,41.33451],[69.18772,41.3346],[69.18882,41.33751],[69.18927,41.33772],[69.19043,41.33754],[69.18966,41.34156],[69.19288,41.34604],[69.19413,41.34868],[69.198,41.34798],[69.19799,41.35483],[69.19858,41.35662],[69.203,41.35654],[69.20424,41.35675],[69.20661,41.35765],[69.206,41.35835],[69.20783,41.35862],[69.21471,41.35835],[69.21471,41.35799],[69.21822,41.35587],[69.21987,41.3552],[69.22063,41.3551],[69.22714,41.35573],[69.22801,41.35293],[69.22783,41.34951],[69.23827,41.34865],[69.23878,41.35338],[69.23751,41.3534],[69.23689,41.35395],[69.23607,41.35399],[69.2363,41.35787],[69.23324,41.35817],[69.23311,41.35824],[69.2333,41.35895],[69.23319,41.3594],[69.23277,41.35974],[69.23006,41.3607],[69.22946,41.3608],[69.22826,41.36059],[69.22734,41.36001],[69.2267,41.35985],[69.22436,41.35949],[69.22137,41.3605],[69.21868,41.36101],[69.21716,41.36089],[69.2147,41.36116],[69.21473,41.36395],[69.20401,41.36396],[69.20369,41.3616],[69.20376,41.36054]]]},"properties":{"zone":"ez_tashkent_3"}},{"type":"Feature","geometry":{"type":"Polygon","coordinates":[[[69.22189,41.26968],[69.22164,41.26954],[69.22176,41.269],[69.22122,41.2684],[69.22087,41.26712],[69.22055,41.26662],[69.21902,41.26531],[69.21131,41.27009],[69.20762,41.26456],[69.20527,41.26025],[69.20381,41.25494],[69.20427,41.25434],[69.20567,41.25486],[69.21185,41.25844],[69.21341,41.25909],[69.21421,41.25927],[69.21604,41.25941],[69.22093,41.25885],[69.22491,41.25978],[69.22623,41.26079],[69.22693,41.26062],[69.22875,41.26078],[69.23128,41.26182],[69.23388,41.26318],[69.23448,41.26289],[69.23571,41.26269],[69.23578,41.26259],[69.22786,41.2592],[69.21795,41.25462],[69.21017,41.25024],[69.20433,41.24657],[69.2038,41.24732],[69.20357,41.2481],[69.20372,41.2494],[69.20343,41.25054],[69.20379,41.25412],[69.20364,41.25423],[69.19158,41.25418],[69.18871,41.25374],[69.17445,41.24501],[69.17366,41.24442],[69.16762,41.23859],[69.16557,41.23778],[69.16546,41.23679],[69.16473,41.236],[69.1651,41.23566],[69.16566,41.23567],[69.16697,41.23529],[69.16805,41.23515],[69.16886,41.23479],[69.17415,41.22832],[69.17387,41.22736],[69.17392,41.22717],[69.17224,41.22637],[69.17299,41.22578],[69.17193,41.22518],[69.17227,41.22499],[69.17393,41.2231],[69.1747,41.22255],[69.17404,41.22131],[69.17292,41.21867],[69.17324,41.21889],[69.1735,41.21942],[69.17406,41.21981],[69.17468,41.21982],[69.17485,41.21969],[69.17477,41.21946],[69.17568,41.21938],[69.17604,41.21981],[69.17731,41.21943],[69.17821,41.21875],[69.17833,41.21887],[69.1799,41.21808],[69.18065,41.21902],[69.18401,41.21683],[69.18144,41.21455],[69.18532,41.21173],[69.18518,41.21146],[69.18519,41.21116],[69.1848,41.21078],[69.18487,41.21049],[69.1841,41.21015],[69.18339,41.20875],[69.18275,41.20836],[69.18291,41.20742],[69.18281,41.20721],[69.18143,41.20665],[69.18372,41.20561],[69.18566,41.20498],[69.18499,41.20311],[69.18475,41.20117],[69.18496,41.19928],[69.18569,41.19724],[69.18685,41.19543],[69.19462,41.18669],[69.19668,41.18681],[69.19832,41.1889],[69.23235,41.1905],[69.2347,41.19506],[69.2349,41.19425],[69.23557,41.19337],[69.23738,41.19197],[69.23813,41.19152],[69.23849,41.19152],[69.24052,41.19241],[69.24008,41.19306],[69.24073,41.19348],[69.24044,41.19374],[69.24053,41.19389],[69.24194,41.19503],[69.24214,41.19551],[69.24518,41.19803],[69.2445,41.19883],[69.24497,41.19944],[69.24457,41.19995],[69.24498,41.20025],[69.24531,41.20101],[69.24449,41.21063],[69.24521,41.21079],[69.24521,41.21564],[69.2438,41.22461],[69.24284,41.23209],[69.24081,41.24401],[69.23953,41.25422],[69.24114,41.25398],[69.24109,41.25374],[69.24164,41.2535],[69.24409,41.25402],[69.24895,41.25468],[69.25161,41.25297],[69.25491,41.25333],[69.25565,41.25295],[69.2574,41.25313],[69.25887,41.25264],[69.2598,41.25269],[69.26157,41.25215],[69.26157,41.25085],[69.26344,41.25084],[69.26344,41.2506],[69.26394,41.25057],[69.26394,41.25032],[69.26436,41.25032],[69.26436,41.25004],[69.26555,41.25003],[69.26555,41.25031],[69.266,41.25031],[69.266,41.2506],[69.26648,41.2506],[69.26648,41.25077],[69.26838,41.25077],[69.26839,41.25178],[69.27081,41.2532],[69.27081,41.25367],[69.27145,41.25405],[69.27301,41.25426],[69.27448,41.25473],[69.27676,41.25492],[69.27738,41.25466],[69.27833,41.25477],[69.27849,41.25468],[69.28,41.25491],[69.27995,41.25535],[69.28098,41.25549],[69.28521,41.2558],[69.28571,41.25569],[69.30076,41.25715],[69.30124,41.25634],[69.30062,41.25606],[69.30099,41.25559],[69.30082,41.25529],[69.30085,41.25482],[69.30064,41.25436],[69.30158,41.25281],[69.30169,41.25218],[69.30159,41.24402],[69.31162,41.244],[69.31412,41.2434],[69.31561,41.24255],[69.32015,41.23873],[69.32183,41.2375],[69.31757,41.23715],[69.31731,41.23702],[69.31975,41.23577],[69.32054,41.23492],[69.3178,41.23306],[69.31838,41.23256],[69.319,41.23175],[69.31981,41.23039],[69.32933,41.23381],[69.33313,41.23476],[69.33556,41.23551],[69.34081,41.23781],[69.34242,41.23889],[69.34543,41.24215],[69.34677,41.2431],[69.34796,41.24348],[69.35669,41.24812],[69.35388,41.25004],[69.35268,41.24915],[69.34834,41.24671],[69.34741,41.24633],[69.34387,41.24535],[69.34222,41.24812],[69.3412,41.24936],[69.34296,41.25044],[69.34411,41.25093],[69.3422,41.25331],[69.33902,41.25164],[69.33804,41.25282],[69.33514,41.25127],[69.33338,41.25361],[69.33189,41.25583],[69.34422,41.2604],[69.34701,41.26159],[69.33975,41.28317],[69.33832,41.28656],[69.33756,41.28682],[69.33642,41.28408],[69.33289,41.28257],[69.33312,41.28383],[69.33307,41.28466],[69.33277,41.28562],[69.33197,41.28687],[69.33059,41.2881],[69.3266,41.29113],[69.32545,41.29187],[69.32376,41.29262],[69.32226,41.29123],[69.32165,41.28955],[69.32094,41.28906],[69.31824,41.28587],[69.31751,41.28479],[69.31511,41.28321],[69.31373,41.2828],[69.31423,41.2819],[69.31457,41.28172],[69.31426,41.28148],[69.31433,41.2814],[69.31465,41.28163],[69.31485,41.28163],[69.31513,41.28093],[69.31536,41.28095],[69.31542,41.28076],[69.31525,41.28068],[69.31608,41.27956],[69.31568,41.27928],[69.31406,41.27876],[69.31604,41.27524],[69.31095,41.27291],[69.30789,41.27811],[69.30333,41.28189],[69.29722,41.27733],[69.2921,41.28102],[69.28773,41.27727],[69.29307,41.27397],[69.28987,41.27134],[69.28762,41.27044],[69.28424,41.27271],[69.28353,41.2728],[69.27951,41.27201],[69.27766,41.27024],[69.2773,41.27012],[69.26695,41.26821],[69.26798,41.26501],[69.26718,41.2648],[69.26598,41.26427],[69.26586,41.26395],[69.26487,41.26346],[69.26474,41.26352],[69.26443,41.26507],[69.26238,41.26753],[69.25885,41.26679],[69.24631,41.26455],[69.24625,41.26498],[69.24653,41.26509],[69.2465,41.26532],[69.24616,41.26662],[69.24535,41.27271],[69.24456,41.27731],[69.23444,41.26809],[69.22873,41.27164],[69.22656,41.26978],[69.22586,41.26829],[69.22319,41.26901],[69.22189,41.26968]]]},"properties":{"zone":"ez_tashkent_4"}},{"type":"Feature","geometry":{"type":"Polygon","coordinates":[[[69.3842,41.25442],[69.38117,41.25246],[69.37764,41.24995],[69.3757,41.25143],[69.37545,41.25148],[69.37487,41.25202],[69.37508,41.25218],[69.37491,41.25313],[69.37918,41.25634],[69.3789,41.25657],[69.37937,41.25692],[69.37883,41.25735],[69.37947,41.2578],[69.37772,41.25915],[69.36608,41.25651],[69.36458,41.25551],[69.35943,41.24958],[69.34796,41.24348],[69.34677,41.2431],[69.34543,41.24215],[69.34242,41.23889],[69.34081,41.23781],[69.33556,41.23551],[69.33313,41.23476],[69.32933,41.23381],[69.31981,41.23039],[69.319,41.23175],[69.31838,41.23256],[69.3178,41.23306],[69.32054,41.23492],[69.31975,41.23577],[69.31731,41.23702],[69.31757,41.23715],[69.32183,41.2375],[69.32015,41.23873],[69.31561,41.24255],[69.31412,41.2434],[69.31162,41.244],[69.30159,41.24402],[69.30169,41.25218],[69.30158,41.25281],[69.30064,41.25436],[69.30085,41.25482],[69.30082,41.25529],[69.30099,41.25559],[69.30062,41.25606],[69.30124,41.25634],[69.30076,41.25715],[69.28571,41.25569],[69.28521,41.2558],[69.28098,41.25549],[69.27995,41.25535],[69.28,41.25491],[69.27849,41.25468],[69.27833,41.25477],[69.27738,41.25466],[69.27676,41.25492],[69.27448,41.25473],[69.27301,41.25426],[69.27145,41.25405],[69.27081,41.25367],[69.27081,41.2532],[69.26839,41.25178],[69.26838,41.25077],[69.26648,41.25077],[69.26648,41.2506],[69.266,41.2506],[69.266,41.25031],[69.26555,41.25031],[69.26555,41.25003],[69.26436,41.25004],[69.26436,41.25032],[69.26394,41.25032],[69.26394,41.25057],[69.26344,41.2506],[69.26344,41.25084],[69.26157,41.25085],[69.26157,41.25215],[69.2598,41.25269],[69.25887,41.25264],[69.2574,41.25313],[69.25565,41.25295],[69.25491,41.25333],[69.25161,41.25297],[69.24895,41.25468],[69.24409,41.25402],[69.24164,41.2535],[69.24109,41.25374],[69.24114,41.25398],[69.23953,41.25422],[69.24081,41.24401],[69.24284,41.23209],[69.2438,41.22461],[69.24521,41.21564],[69.24521,41.21079],[69.24449,41.21063],[69.24531,41.20101],[69.24498,41.20025],[69.24457,41.19995],[69.24497,41.19944],[69.2445,41.19883],[69.24518,41.19803],[69.24214,41.19551],[69.24194,41.19503],[69.24053,41.19389],[69.24044,41.19374],[69.24073,41.19348],[69.24008,41.19306],[69.24052,41.19241],[69.23849,41.19152],[69.23813,41.19152],[69.23738,41.19197],[69.23557,41.19337],[69.2349,41.19425],[69.2347,41.19506],[69.23235,41.1905],[69.19832,41.1889],[69.19668,41.18681],[69.19462,41.18669],[69.20239,41.17808],[69.20421,41.17663],[69.20635,41.17533],[69.20789,41.17462],[69.21034,41.17374],[69.2284,41.16813],[69.23368,41.16663],[69.23621,41.16617],[69.23806,41.16599],[69.24495,41.16603],[69.24714,41.16593],[69.27054,41.16347],[69.27264,41.16348],[69.27513,41.16371],[69.27696,41.16405],[69.27952,41.16477],[69.28163,41.16561],[69.28396,41.16688],[69.30314,41.17936],[69.333,41.20201],[69.3522,41.21623],[69.37727,41.2324],[69.39307,41.24243],[69.39268,41.24274],[69.39329,41.24368],[69.39344,41.24471],[69.39307,41.2462],[69.39235,41.24733],[69.39278,41.24766],[69.3842,41.25442]]]},"properties":{"zone":"ez_tashkent_5"}},{"type":"Feature","geometry":{"type":"Polygon","coordinates":[[[69.33743,41.30461],[69.33803,41.30507],[69.33963,41.30568],[69.3374,41.30777],[69.33498,41.30627],[69.33152,41.30598],[69.33155,41.30526],[69.32363,41.30461],[69.32365,41.30443],[69.32131,41.30409],[69.31956,41.30398],[69.31959,41.30384],[69.31878,41.30386],[69.3188,41.3012],[69.31818,41.30108],[69.3139,41.30242],[69.31382,41.30229],[69.31338,41.30243],[69.31109,41.29813],[69.31339,41.29736],[69.31808,41.29522],[69.3182,41.29536],[69.31999,41.29462],[69.32114,41.29437],[69.32259,41.29442],[69.32412,41.29487],[69.33228,41.29669],[69.33333,41.29727],[69.33528,41.29805],[69.3352,41.29818],[69.336,41.29846],[69.33609,41.30101],[69.33638,41.30381],[69.33743,41.30461]]]},"properties":{"zone":"ez_tashkent_4"}},{"type":"Feature","geometry":{"type":"Polygon","coordinates":[[[69.30674,41.34267],[69.30612,41.34307],[69.30402,41.3425],[69.3038,41.3426],[69.30064,41.34153],[69.30107,41.34068],[69.30173,41.34009],[69.3007,41.33914],[69.30117,41.33915],[69.30121,41.33936],[69.30183,41.33927],[69.30225,41.33896],[69.30215,41.33892],[69.3021,41.33849],[69.30261,41.33855],[69.3026,41.33802],[69.30289,41.33779],[69.3027,41.33772],[69.30451,41.33384],[69.30581,41.33402],[69.30685,41.33067],[69.31348,41.33199],[69.31147,41.33545],[69.30992,41.3392],[69.30775,41.34176],[69.30674,41.34267]]]},"properties":{"zone":"ez_tashkent_4"}},{"type":"Feature","geometry":{"type":"Polygon","coordinates":[[[69.1437,41.2796],[69.13259,41.28814],[69.13245,41.28807],[69.13221,41.28777],[69.13219,41.28735],[69.1335,41.28588],[69.13412,41.28499],[69.13496,41.28435],[69.13511,41.28408],[69.13509,41.28361],[69.13465,41.28314],[69.13441,41.28264],[69.13455,41.28212],[69.13432,41.28125],[69.13402,41.28093],[69.13313,41.28045],[69.13317,41.27992],[69.1336,41.27909],[69.13355,41.27886],[69.133,41.27868],[69.13205,41.27897],[69.13163,41.27888],[69.13093,41.27802],[69.13055,41.27713],[69.12871,41.27581],[69.12848,41.27542],[69.1285,41.27439],[69.12837,41.27408],[69.12738,41.27345],[69.12687,41.27283],[69.12576,41.27197],[69.12584,41.27081],[69.12545,41.27005],[69.12507,41.26988],[69.12295,41.26981],[69.12304,41.26809],[69.12278,41.26744],[69.12236,41.26706],[69.12237,41.2669],[69.1233,41.26755],[69.12452,41.26744],[69.12509,41.26716],[69.12734,41.2682],[69.13103,41.26912],[69.13144,41.26934],[69.13212,41.27016],[69.13355,41.27138],[69.13403,41.27194],[69.13515,41.27266],[69.13625,41.27297],[69.13676,41.27329],[69.1398,41.27571],[69.14032,41.27647],[69.14069,41.27735],[69.14055,41.27769],[69.1407,41.27812],[69.14112,41.27824],[69.14153,41.27818],[69.14255,41.27858],[69.1437,41.2796]]]},"properties":{"zone":"ez_tashkent_5"}},{"type":"Feature","geometry":{"type":"Polygon","coordinates":[[[69.15977,41.32819],[69.15886,41.32831],[69.15844,41.32811],[69.15796,41.32809],[69.15688,41.32712],[69.15629,41.32704],[69.15527,41.3273],[69.15506,41.32715],[69.15463,41.32644],[69.15493,41.32603],[69.15486,41.32579],[69.15378,41.32515],[69.1541,41.32473],[69.15421,41.32434],[69.15374,41.32349],[69.15452,41.32286],[69.15474,41.32246],[69.1544,41.3215],[69.15377,41.32114],[69.15344,41.32074],[69.15268,41.32026],[69.15236,41.31991],[69.15198,41.31899],[69.14998,41.3161],[69.1498,41.31555],[69.14845,41.31478],[69.14823,41.31435],[69.14825,41.31388],[69.14837,41.31374],[69.14738,41.31284],[69.1477,41.31191],[69.1482,41.3119],[69.14834,41.31156],[69.14817,41.31125],[69.14766,41.311],[69.14751,41.31022],[69.14763,41.31009],[69.14859,41.31],[69.14866,41.30948],[69.14924,41.30834],[69.14906,41.30748],[69.14912,41.30712],[69.14887,41.30673],[69.14899,41.30608],[69.14891,41.30574],[69.15174,41.30556],[69.15229,41.30965],[69.16008,41.32815],[69.15977,41.32819]]]},"properties":{"zone":"ez_tashkent_5"}},{"type":"Feature","geometry":{"type":"Polygon","coordinates":[[[69.45382,41.42245],[69.4499,41.42242],[69.44908,41.42203],[69.44717,41.42144],[69.44577,41.42079],[69.44376,41.41944],[69.44241,41.41803],[69.44141,41.41627],[69.44087,41.41447],[69.4408,41.41366],[69.44101,41.41174],[69.44177,41.4099],[69.44246,41.40889],[69.44426,41.40712],[69.44357,41.40679],[69.44472,41.40554],[69.44497,41.40543],[69.44615,41.40392],[69.44601,41.40384],[69.44846,41.40207],[69.44898,41.40104],[69.45086,41.40142],[69.4527,41.40213],[69.45437,41.40206],[69.45465,41.4018],[69.45487,41.40125],[69.45597,41.40172],[69.45627,41.40172],[69.45649,41.40192],[69.4574,41.40212],[69.45859,41.40274],[69.45919,41.40277],[69.46063,41.40358],[69.46166,41.40387],[69.46328,41.40499],[69.46343,41.40535],[69.46378,41.4053],[69.46408,41.40548],[69.46599,41.40552],[69.4667,41.40625],[69.46756,41.40639],[69.46817,41.40666],[69.46806,41.4069],[69.46716,41.4077],[69.46651,41.40744],[69.46636,41.4076],[69.4662,41.40751],[69.46426,41.40935],[69.46989,41.41262],[69.46898,41.41373],[69.46839,41.41422],[69.4672,41.41352],[69.46706,41.41354],[69.46456,41.41189],[69.46481,41.41291],[69.4647,41.41429],[69.46444,41.41547],[69.46421,41.41622],[69.46288,41.41829],[69.46092,41.42002],[69.45986,41.42076],[69.45826,41.42151],[69.45542,41.42225],[69.45382,41.42245]]]},"properties":{"zone":"ez_tashkent_5"}},{"type":"Feature","geometry":{"type":"Polygon","coordinates":[[[69.28088,41.38537],[69.26394,41.39611],[69.26224,41.39691],[69.25904,41.39777],[69.25702,41.39797],[69.25253,41.39814],[69.23889,41.39856],[69.23666,41.39852],[69.2341,41.39808],[69.23134,41.39708],[69.22802,41.39504],[69.23595,41.3863],[69.23681,41.38515],[69.23773,41.3822],[69.23855,41.38076],[69.23945,41.38098],[69.2414,41.38049],[69.24178,41.38054],[69.24213,41.38082],[69.24407,41.37902],[69.2537,41.37081],[69.2554,41.37108],[69.25689,41.37149],[69.25787,41.37195],[69.25975,41.37043],[69.26031,41.37014],[69.26477,41.37168],[69.27132,41.37547],[69.26931,41.37751],[69.27461,41.38009],[69.27741,41.38175],[69.27956,41.38439],[69.28088,41.38537]]]},"properties":{"zone":"ez_tashkent_5"}},{"type":"Feature","geometry":{"type":"Polygon","coordinates":[[[69.35749,41.29081],[69.35416,41.28902],[69.35091,41.28817],[69.34074,41.2835],[69.33975,41.28317],[69.34701,41.26159],[69.3524,41.25505],[69.35328,41.25417],[69.35376,41.25343],[69.35392,41.25266],[69.35524,41.25198],[69.35545,41.25167],[69.35388,41.25004],[69.35669,41.24812],[69.35943,41.24958],[69.36458,41.25551],[69.36608,41.25651],[69.37772,41.25915],[69.37947,41.2578],[69.37883,41.25735],[69.37937,41.25692],[69.3789,41.25657],[69.37918,41.25634],[69.37491,41.25313],[69.37508,41.25218],[69.37487,41.25202],[69.37545,41.25148],[69.3757,41.25143],[69.37764,41.24995],[69.38117,41.25246],[69.3842,41.25442],[69.37423,41.26228],[69.37478,41.26228],[69.3757,41.26288],[69.37703,41.26418],[69.37797,41.26536],[69.3789,41.26704],[69.37939,41.26823],[69.37992,41.27081],[69.37994,41.27232],[69.37966,41.2744],[69.37955,41.27413],[69.37853,41.27384],[69.37832,41.27405],[69.37754,41.2736],[69.37561,41.27631],[69.37552,41.27648],[69.37573,41.27656],[69.37512,41.27714],[69.37486,41.27731],[69.37355,41.27758],[69.37286,41.27716],[69.37201,41.27763],[69.37405,41.27941],[69.37358,41.28028],[69.37366,41.28092],[69.3743,41.28156],[69.37411,41.28208],[69.37589,41.283],[69.37792,41.28494],[69.37794,41.28517],[69.37731,41.28613],[69.37745,41.28645],[69.37696,41.28705],[69.37676,41.28953],[69.37545,41.28964],[69.37366,41.29028],[69.37215,41.29043],[69.37133,41.2904],[69.37098,41.29026],[69.37035,41.2903],[69.36992,41.29053],[69.36978,41.29157],[69.36993,41.29181],[69.37238,41.29321],[69.36914,41.29726],[69.36847,41.29827],[69.36907,41.29854],[69.36901,41.29877],[69.36334,41.29611],[69.36056,41.29467],[69.35608,41.29281],[69.35781,41.29098],[69.35749,41.29081]]]},"properties":{"zone":"ez_tashkent_4"}}]}