{"type": "FeatureCollection", "name": "tashkent_districts", "crs": {"type": "name", "properties": {"name": "urn:ogc:def:crs:OGC:1.3:CRS84"}}, "features": [{"type": "Feature", "properties": {"district_id": "1726262", "soato_code": "1726262", "cadastre_prefix": "1001", "district_name_uz_latin": "Uchtepa tumani", "district_name_uz_cyrillic": "Учтепа тумани", "district_name_ru": "Учтепинский район", "district_name_en": "Uchtepa District", "official_name": "Uchtepa tumani", "former_names": "Akmal Ikromov tumani (1977-2005)", "parent_city": "Toshkent shahri (Tashkent City)", "parent_soato": "1726", "area_km2_geodesic": 28.18, "population_latest": 306400, "population_latest_reference_date": "2026-01-01", "population_prev": 303300, "population_prev_reference_date": "2025-10-01", "number_of_mahallas_official": 60, "mahallas_with_official_polygon": 43, "district_center": "Farhod koʻchasi 21, 100126", "latitude_centroid": 41.29575, "longitude_centroid": 69.16664, "official_boundary_available": "YES", "boundary_source": "Kadastr agentligi / Davlat kadastr palatasi - Milliy geoaxborot portali (open.ngis.uz), service Hosted/TUMAN_BORDER", "boundary_source_url": "https://db.ngis.uz/db/rest/services/Hosted/TUMAN_BORDER/FeatureServer/2", "geometry_status": "OFFICIAL", "geometry_source_crs": "EPSG:32642 (WGS84 / UTM 42N)", "geometry_crs": "EPSG:4326", "geometry_simplification": "maxAllowableOffset 0.00003 deg (~3 m)", "legal_document_defining_name": "Senate of Oliy Majlis Resolution No. 39-I", "legal_document_date": "2005-05-06", "legal_document_url": "https://www.lex.uz/docs/1154885", "last_verified_date": "2026-09-18", "confidence": "A", "notes": "Area recomputed geodesically. The service attribute st_area_sh is a Web-Mercator area and overstates true area by ~1.772x (1/cos^2(41.3deg)) - do not use it."}, "geometry": {"type": "Polygon", "coordinates": [[[69.16802, 41.3282], [69.16804, 41.32921], [69.16732, 41.32923], [69.16736, 41.32977], [69.16743, 41.33002], [69.16767, 41.3303], [69.16759, 41.33106], [69.1668, 41.33097], [69.16652, 41.33103], [69.16607, 41.33127], [69.16576, 41.33133], [69.1648, 41.33137], [69.16453, 41.33133], [69.16405, 41.33112], [69.16301, 41.33042], [69.16263, 41.33001], [69.16256, 41.32984], [69.16245, 41.32971], [69.16165, 41.32923], [69.16149, 41.32895], [69.1613, 41.32882], [69.16099, 41.3287], [69.16066, 41.3284], [69.16057, 41.32819], [69.16044, 41.32815], [69.15984, 41.32834], [69.15974, 41.32812], [69.15886, 41.32831], [69.15844, 41.32811], [69.15792, 41.32807], [69.15711, 41.32726], [69.15688, 41.32712], [69.15629, 41.32704], [69.15564, 41.32716], [69.15527, 41.3273], [69.15516, 41.32727], [69.15506, 41.32715], [69.15463, 41.32644], [69.15467, 41.32631], [69.15493, 41.32603], [69.15493, 41.32592], [69.15486, 41.32579], [69.15447, 41.32565], [69.15412, 41.32529], [69.15381, 41.3252], [69.15378, 41.32515], [69.15391, 41.32505], [69.15411, 41.32473], [69.15421, 41.32434], [69.15413, 41.3241], [69.15379, 41.32366], [69.15375, 41.32349], [69.15388, 41.32329], [69.15452, 41.32286], [69.15474, 41.32246], [69.15449, 41.3219], [69.15442, 41.32155], [69.15429, 41.32143], [69.15379, 41.32119], [69.1533, 41.32071], [69.15264, 41.32029], [69.15264, 41.32023], [69.15216, 41.31961], [69.15194, 41.31893], [69.15169, 41.31866], [69.15047, 41.31682], [69.15032, 41.3165], [69.14998, 41.3161], [69.14991, 41.31593], [69.14991, 41.31577], [69.1498, 41.31555], [69.14962, 41.31539], [69.14916, 41.31517], [69.14896, 41.31501], [69.14883, 41.31499], [69.14847, 41.31475], [69.1483, 41.31453], [69.14832, 41.31419], [69.14825, 41.31388], [69.14837, 41.31374], [69.14815, 41.31356], [69.14787, 41.31321], [69.14738, 41.31284], [69.14765, 41.3122], [69.14767, 41.31197], [69.1483, 41.31177], [69.14834, 41.31156], [69.14817, 41.31125], [69.1479, 41.31116], [69.14766, 41.311], [69.1475, 41.3105], [69.14751, 41.31022], [69.14763, 41.31009], [69.14806, 41.31012], [69.14845, 41.31007], [69.14859, 41.31], [69.14866, 41.30948], [69.14885, 41.30921], [69.14894, 41.30886], [69.14913, 41.3086], [69.14924, 41.30834], [69.14924, 41.30803], [69.14906, 41.30748], [69.14912, 41.30712], [69.1489, 41.30689], [69.14888, 41.30679], [69.14899, 41.30607], [69.14879, 41.30528], [69.1484, 41.30479], [69.14836, 41.30464], [69.14823, 41.30445], [69.14777, 41.30394], [69.14734, 41.30378], [69.14663, 41.30365], [69.14651, 41.30349], [69.14638, 41.3034], [69.14627, 41.30316], [69.14609, 41.30298], [69.14582, 41.3028], [69.14546, 41.30266], [69.14532, 41.30241], [69.14502, 41.30201], [69.14486, 41.30161], [69.14509, 41.3012], [69.14516, 41.30095], [69.14512, 41.30079], [69.14494, 41.30052], [69.14475, 41.30036], [69.1445, 41.30028], [69.14407, 41.30004], [69.14383, 41.3], [69.14336, 41.30002], [69.14307, 41.29982], [69.14303, 41.29967], [69.1432, 41.29927], [69.14308, 41.29883], [69.14283, 41.29859], [69.14259, 41.29852], [69.14203, 41.29822], [69.14174, 41.29777], [69.14139, 41.29686], [69.14126, 41.29671], [69.14077, 41.2965], [69.14036, 41.29651], [69.14038, 41.29638], [69.14032, 41.29625], [69.14041, 41.2961], [69.14042, 41.29602], [69.14032, 41.29579], [69.13994, 41.29564], [69.13978, 41.29537], [69.13939, 41.29505], [69.13868, 41.29491], [69.13858, 41.29471], [69.13855, 41.2945], [69.1389, 41.29414], [69.13878, 41.29369], [69.1386, 41.29329], [69.13855, 41.29288], [69.13838, 41.2924], [69.13764, 41.29192], [69.13691, 41.29156], [69.13683, 41.29149], [69.13677, 41.2913], [69.13628, 41.29078], [69.13612, 41.29071], [69.13581, 41.29069], [69.13552, 41.29073], [69.13523, 41.29065], [69.13508, 41.29037], [69.13503, 41.29017], [69.13485, 41.28994], [69.13475, 41.28989], [69.13394, 41.28975], [69.13384, 41.28967], [69.13419, 41.28911], [69.13421, 41.28892], [69.13399, 41.28866], [69.13316, 41.28855], [69.13222, 41.288], [69.132, 41.28762], [69.13199, 41.28737], [69.13215, 41.28729], [69.13393, 41.28503], [69.13427, 41.2847], [69.13489, 41.28431], [69.13501, 41.28416], [69.13503, 41.28382], [69.13491, 41.28341], [69.13465, 41.28322], [69.13447, 41.28297], [69.13428, 41.28255], [69.13441, 41.28226], [69.1344, 41.28187], [69.13426, 41.28141], [69.13395, 41.28097], [69.1331, 41.28063], [69.13301, 41.28045], [69.133, 41.28013], [69.13328, 41.27956], [69.13346, 41.27908], [69.13343, 41.2789], [69.13311, 41.27879], [69.13276, 41.27882], [69.13235, 41.27899], [69.13205, 41.27905], [69.13184, 41.27904], [69.1315, 41.27887], [69.13074, 41.27794], [69.13062, 41.27743], [69.13028, 41.27699], [69.12874, 41.27604], [69.1284, 41.27568], [69.12828, 41.27526], [69.12834, 41.27476], [69.12829, 41.2742], [69.1281, 41.27404], [69.12754, 41.27372], [69.12709, 41.27335], [69.12672, 41.27288], [69.1259, 41.27236], [69.12556, 41.27196], [69.12556, 41.27165], [69.12571, 41.27094], [69.12536, 41.27014], [69.12516, 41.27002], [69.12491, 41.27], [69.12447, 41.27005], [69.12338, 41.27], [69.12291, 41.26991], [69.12278, 41.26961], [69.12298, 41.26867], [69.12294, 41.2682], [69.12258, 41.2674], [69.1223, 41.26717], [69.12223, 41.26695], [69.1225, 41.26692], [69.12299, 41.2673], [69.12361, 41.2675], [69.12446, 41.2673], [69.12517, 41.26702], [69.12753, 41.26805], [69.12968, 41.26871], [69.13074, 41.2689], [69.13153, 41.26925], [69.13185, 41.26955], [69.13206, 41.2699], [69.13271, 41.27035], [69.13309, 41.27077], [69.13369, 41.27126], [69.13387, 41.27134], [69.13392, 41.27155], [69.13427, 41.27199], [69.13462, 41.27218], [69.13454, 41.27226], [69.13516, 41.27259], [69.1365, 41.27302], [69.13704, 41.27336], [69.1383, 41.27436], [69.13919, 41.27496], [69.13979, 41.27548], [69.1402, 41.27589], [69.14085, 41.2774], [69.14074, 41.27766], [69.14077, 41.27808], [69.14092, 41.27813], [69.14137, 41.27807], [69.14178, 41.27814], [69.14233, 41.27837], [69.14263, 41.27857], [69.14277, 41.27876], [69.14329, 41.27899], [69.14366, 41.27936], [69.14416, 41.28007], [69.14449, 41.28046], [69.1448, 41.28065], [69.14523, 41.28076], [69.14597, 41.28124], [69.1467, 41.28148], [69.1472, 41.28152], [69.14744, 41.28138], [69.14748, 41.28128], [69.14641, 41.27803], [69.14624, 41.2766], [69.14685, 41.26532], [69.14704, 41.2642], [69.1474, 41.26311], [69.14793, 41.26205], [69.14834, 41.26143], [69.14869, 41.26101], [69.15449, 41.26297], [69.15791, 41.26423], [69.16031, 41.26547], [69.16154, 41.26613], [69.1619, 41.26637], [69.16262, 41.26701], [69.16382, 41.26856], [69.16404, 41.26872], [69.16579, 41.2682], [69.16651, 41.26807], [69.16714, 41.26789], [69.16787, 41.26778], [69.16804, 41.26802], [69.17117, 41.26983], [69.17223, 41.26887], [69.17562, 41.27097], [69.17611, 41.27119], [69.17727, 41.2715], [69.18293, 41.27277], [69.18944, 41.2743], [69.1929, 41.27514], [69.1936, 41.27535], [69.19596, 41.27663], [69.19799, 41.2787], [69.19473, 41.28085], [69.19422, 41.29233], [69.19395, 41.3009], [69.19343, 41.31308], [69.19306, 41.32476], [69.19309, 41.32506], [69.19321, 41.32537], [69.1939, 41.32624], [69.19419, 41.3265], [69.19114, 41.32676], [69.16985, 41.32817], [69.16892, 41.32818], [69.16802, 41.32812], [69.16802, 41.3282]]]}}, {"type": "Feature", "properties": {"district_id": "1726264", "soato_code": "1726264", "cadastre_prefix": "1002", "district_name_uz_latin": "Bektemir tumani", "district_name_uz_cyrillic": "Бектемир тумани", "district_name_ru": "Бектемирский район", "district_name_en": "Bektemir District", "official_name": "Bektemir tumani", "former_names": "Norimon Norimonov tumani (1981-1990); Bektemir shahri (1973-1990)", "parent_city": "Toshkent shahri (Tashkent City)", "parent_soato": "1726", "area_km2_geodesic": 32.482, "population_latest": 72500, "population_latest_reference_date": "2026-01-01", "population_prev": 70400, "population_prev_reference_date": "2025-10-01", "number_of_mahallas_official": 18, "mahallas_with_official_polygon": 13, "district_center": "Boyqaro koʻchasi 2, 100158", "latitude_centroid": 41.22603, "longitude_centroid": 69.33689, "official_boundary_available": "YES", "boundary_source": "Kadastr agentligi / Davlat kadastr palatasi - Milliy geoaxborot portali (open.ngis.uz), service Hosted/TUMAN_BORDER", "boundary_source_url": "https://db.ngis.uz/db/rest/services/Hosted/TUMAN_BORDER/FeatureServer/2", "geometry_status": "OFFICIAL", "geometry_source_crs": "EPSG:32642 (WGS84 / UTM 42N)", "geometry_crs": "EPSG:4326", "geometry_simplification": "maxAllowableOffset 0.00003 deg (~3 m)", "legal_document_defining_name": "NULL", "legal_document_date": "NULL", "legal_document_url": "NULL", "last_verified_date": "2026-09-18", "confidence": "A", "notes": "Area recomputed geodesically. The service attribute st_area_sh is a Web-Mercator area and overstates true area by ~1.772x (1/cos^2(41.3deg)) - do not use it."}, "geometry": {"type": "Polygon", "coordinates": [[[69.29033, 41.21956], [69.28993, 41.21879], [69.2888, 41.21715], [69.28816, 41.21649], [69.28723, 41.21531], [69.28642, 41.21447], [69.28598, 41.21413], [69.28501, 41.2135], [69.28453, 41.21297], [69.28421, 41.21247], [69.28409, 41.21119], [69.28396, 41.21056], [69.28322, 41.20942], [69.28259, 41.20884], [69.28161, 41.20772], [69.27935, 41.20614], [69.28062, 41.20483], [69.28101, 41.20478], [69.28112, 41.20473], [69.28134, 41.20451], [69.28244, 41.20467], [69.28309, 41.20481], [69.28605, 41.20499], [69.28679, 41.20498], [69.28849, 41.20576], [69.31422, 41.18776], [69.333, 41.20201], [69.35041, 41.21498], [69.35219, 41.21623], [69.37727, 41.2324], [69.38827, 41.23934], [69.39307, 41.24243], [69.39268, 41.24274], [69.39299, 41.24312], [69.39329, 41.24368], [69.39342, 41.24419], [69.39344, 41.24471], [69.3933, 41.24555], [69.39307, 41.2462], [69.39276, 41.24677], [69.39235, 41.24733], [69.39278, 41.24766], [69.37424, 41.26227], [69.3741, 41.26226], [69.37345, 41.26273], [69.36774, 41.26726], [69.36763, 41.26732], [69.36699, 41.26723], [69.36653, 41.26699], [69.35657, 41.25242], [69.35562, 41.25131], [69.35494, 41.25063], [69.35334, 41.24936], [69.35239, 41.24872], [69.34849, 41.24658], [69.34763, 41.24623], [69.34694, 41.246], [69.34045, 41.24427], [69.33954, 41.24396], [69.33888, 41.24365], [69.33827, 41.2433], [69.33772, 41.24289], [69.3343, 41.23951], [69.33383, 41.23911], [69.33315, 41.23869], [69.33204, 41.23827], [69.33159, 41.23813], [69.33055, 41.23901], [69.3294, 41.24103], [69.3289, 41.24088], [69.32692, 41.23991], [69.32517, 41.23912], [69.32462, 41.23844], [69.32415, 41.23794], [69.32373, 41.23776], [69.32333, 41.23767], [69.32192, 41.23751], [69.32172, 41.23761], [69.31809, 41.2373], [69.31751, 41.23718], [69.31225, 41.23282], [69.31152, 41.23251], [69.30926, 41.23215], [69.30856, 41.23198], [69.30833, 41.23188], [69.30839, 41.23156], [69.30713, 41.23057], [69.30046, 41.22812], [69.29945, 41.22796], [69.29884, 41.22777], [69.29814, 41.22743], [69.29707, 41.22661], [69.29616, 41.22617], [69.29563, 41.2255], [69.29538, 41.22526], [69.2951, 41.22514], [69.29473, 41.22511], [69.29426, 41.22492], [69.29376, 41.22456], [69.29317, 41.22344], [69.29421, 41.22279], [69.29236, 41.22187], [69.29166, 41.22148], [69.29139, 41.22128], [69.2907, 41.22056], [69.29033, 41.21956]]]}}, {"type": "Feature", "properties": {"district_id": "1726266", "soato_code": "1726266", "cadastre_prefix": "1007", "district_name_uz_latin": "Yunusobod tumani", "district_name_uz_cyrillic": "Юнусобод тумани", "district_name_ru": "Юнусабадский район", "district_name_en": "Yunusabad District", "official_name": "Yunusobod tumani", "former_names": "Kirov tumani (-1992)", "parent_city": "Toshkent shahri (Tashkent City)", "parent_soato": "1726", "area_km2_geodesic": 41.066, "population_latest": 395000, "population_latest_reference_date": "2026-01-01", "population_prev": 391100, "population_prev_reference_date": "2025-10-01", "number_of_mahallas_official": 64, "mahallas_with_official_polygon": 40, "district_center": "Amir Temur shoh koʻchasi 72, 100084", "latitude_centroid": 41.36061, "longitude_centroid": 69.28573, "official_boundary_available": "YES", "boundary_source": "Kadastr agentligi / Davlat kadastr palatasi - Milliy geoaxborot portali (open.ngis.uz), service Hosted/TUMAN_BORDER", "boundary_source_url": "https://db.ngis.uz/db/rest/services/Hosted/TUMAN_BORDER/FeatureServer/2", "geometry_status": "OFFICIAL", "geometry_source_crs": "EPSG:32642 (WGS84 / UTM 42N)", "geometry_crs": "EPSG:4326", "geometry_simplification": "maxAllowableOffset 0.00003 deg (~3 m)", "legal_document_defining_name": "Presidium of Supreme Soviet Decree No. 579-XII", "legal_document_date": "1992-05-08", "legal_document_url": "https://lex.uz/ru/docs/281121", "last_verified_date": "2026-09-18", "confidence": "A", "notes": "Area recomputed geodesically. The service attribute st_area_sh is a Web-Mercator area and overstates true area by ~1.772x (1/cos^2(41.3deg)) - do not use it."}, "geometry": {"type": "Polygon", "coordinates": [[[69.28732, 41.38372], [69.28564, 41.38384], [69.28425, 41.38409], [69.28283, 41.38452], [69.28127, 41.38517], [69.28001, 41.38587], [69.26938, 41.39268], [69.26394, 41.39611], [69.26324, 41.39649], [69.26224, 41.39691], [69.26035, 41.39748], [69.25904, 41.39777], [69.25703, 41.39797], [69.25253, 41.39814], [69.23889, 41.39856], [69.23756, 41.39857], [69.23666, 41.39852], [69.23521, 41.39832], [69.2341, 41.39808], [69.23284, 41.39767], [69.23135, 41.39708], [69.22812, 41.3951], [69.23631, 41.38591], [69.23685, 41.38508], [69.23698, 41.38478], [69.23757, 41.38284], [69.23779, 41.38221], [69.23799, 41.38181], [69.23858, 41.38095], [69.24072, 41.3787], [69.24154, 41.37807], [69.24353, 41.37695], [69.24428, 41.37644], [69.24733, 41.37418], [69.24819, 41.37349], [69.25246, 41.36959], [69.25479, 41.36781], [69.25686, 41.36658], [69.2614, 41.36346], [69.26208, 41.36289], [69.26438, 41.36075], [69.26676, 41.35838], [69.26971, 41.35568], [69.26734, 41.35352], [69.26534, 41.35155], [69.26434, 41.35041], [69.26308, 41.34921], [69.266, 41.34747], [69.26477, 41.34651], [69.26432, 41.34599], [69.26414, 41.3454], [69.26372, 41.34488], [69.26301, 41.34414], [69.26729, 41.34169], [69.27491, 41.33743], [69.27457, 41.33706], [69.27426, 41.33633], [69.2738, 41.33478], [69.27301, 41.33374], [69.27287, 41.33282], [69.27293, 41.33259], [69.2732, 41.33203], [69.27301, 41.33144], [69.27295, 41.33021], [69.27276, 41.32995], [69.27238, 41.32969], [69.27126, 41.32914], [69.27105, 41.32894], [69.27046, 41.32797], [69.27048, 41.32748], [69.2709, 41.32755], [69.27092, 41.32761], [69.27113, 41.32704], [69.27083, 41.327], [69.27084, 41.32696], [69.27065, 41.32693], [69.27084, 41.32631], [69.27085, 41.32604], [69.27081, 41.32588], [69.26995, 41.32506], [69.26978, 41.32467], [69.26934, 41.32305], [69.26923, 41.32289], [69.26834, 41.32211], [69.26806, 41.3218], [69.26659, 41.31816], [69.26579, 41.3174], [69.26547, 41.31691], [69.26475, 41.31503], [69.26442, 41.31399], [69.26425, 41.31361], [69.26399, 41.31328], [69.26348, 41.31293], [69.26337, 41.31275], [69.26333, 41.31245], [69.26323, 41.31234], [69.26306, 41.31228], [69.26086, 41.31213], [69.26057, 41.31201], [69.26033, 41.31184], [69.26009, 41.31148], [69.25999, 41.31109], [69.26344, 41.31085], [69.26401, 41.31075], [69.26493, 41.31047], [69.26761, 41.3094], [69.26903, 41.30906], [69.27053, 41.31242], [69.2795, 41.30998], [69.28015, 41.30991], [69.28072, 41.30996], [69.28085, 41.30985], [69.28126, 41.31009], [69.28163, 41.3105], [69.28177, 41.31071], [69.28182, 41.31118], [69.28171, 41.31173], [69.28142, 41.31202], [69.28036, 41.31258], [69.28028, 41.31266], [69.28033, 41.31305], [69.28073, 41.31482], [69.28084, 41.31496], [69.2809, 41.31497], [69.28269, 41.31425], [69.28402, 41.31567], [69.28525, 41.31707], [69.2855, 41.31746], [69.28612, 41.31815], [69.29073, 41.31775], [69.29078, 41.3177], [69.29141, 41.31803], [69.29186, 41.31853], [69.2911, 41.31923], [69.29168, 41.32261], [69.293, 41.32248], [69.293, 41.32277], [69.29269, 41.32323], [69.29283, 41.3233], [69.29313, 41.32331], [69.29327, 41.32379], [69.29325, 41.32399], [69.29387, 41.32502], [69.29395, 41.32507], [69.29435, 41.3251], [69.29475, 41.32569], [69.2955, 41.32543], [69.29641, 41.32526], [69.2978, 41.32609], [69.29786, 41.32616], [69.29812, 41.32735], [69.29811, 41.3278], [69.29738, 41.32851], [69.29655, 41.32864], [69.29648, 41.32934], [69.29651, 41.32941], [69.29707, 41.32992], [69.2971, 41.33008], [69.29746, 41.33035], [69.29779, 41.33049], [69.29813, 41.33034], [69.29839, 41.33012], [69.29855, 41.33004], [69.29885, 41.32998], [69.29913, 41.33003], [69.29935, 41.33022], [69.30056, 41.33076], [69.30068, 41.33091], [69.30075, 41.33133], [69.30089, 41.33154], [69.30144, 41.33164], [69.30148, 41.3317], [69.30141, 41.33194], [69.30142, 41.33214], [69.30136, 41.33222], [69.30022, 41.33287], [69.30013, 41.33324], [69.30466, 41.33404], [69.30362, 41.33605], [69.30355, 41.33624], [69.30355, 41.33637], [69.3034, 41.33647], [69.3032, 41.33706], [69.30288, 41.33768], [69.30295, 41.33777], [69.30417, 41.33816], [69.30408, 41.33833], [69.30776, 41.33943], [69.30793, 41.33943], [69.30819, 41.33933], [69.30896, 41.33953], [69.30936, 41.33921], [69.31, 41.33949], [69.3103, 41.33905], [69.31066, 41.33835], [69.31163, 41.33548], [69.31302, 41.33325], [69.31384, 41.3323], [69.31548, 41.33291], [69.31597, 41.33317], [69.31637, 41.33346], [69.31689, 41.33442], [69.31694, 41.33523], [69.31691, 41.3355], [69.31676, 41.33599], [69.31658, 41.33602], [69.31595, 41.33637], [69.31575, 41.33657], [69.31545, 41.33724], [69.31545, 41.3378], [69.31554, 41.33861], [69.316, 41.33919], [69.31683, 41.33943], [69.31705, 41.34034], [69.31791, 41.34066], [69.3185, 41.34099], [69.31885, 41.34153], [69.31886, 41.3432], [69.31917, 41.34366], [69.32071, 41.34481], [69.32131, 41.34536], [69.32215, 41.34703], [69.3224, 41.34728], [69.32291, 41.3475], [69.32437, 41.34752], [69.32462, 41.34757], [69.32518, 41.34811], [69.32526, 41.34822], [69.32534, 41.3485], [69.32536, 41.34918], [69.3255, 41.34978], [69.32573, 41.35024], [69.32548, 41.35106], [69.33258, 41.35098], [69.33316, 41.35088], [69.3336, 41.35064], [69.33541, 41.35228], [69.33609, 41.35274], [69.33672, 41.35308], [69.34176, 41.3554], [69.34309, 41.35577], [69.34431, 41.35592], [69.33828, 41.35959], [69.32645, 41.36865], [69.32538, 41.36948], [69.32493, 41.36991], [69.32446, 41.37048], [69.32423, 41.37084], [69.32377, 41.3718], [69.32019, 41.37972], [69.31898, 41.38275], [69.31854, 41.38336], [69.31816, 41.38376], [69.31763, 41.38418], [69.31722, 41.38442], [69.3163, 41.38477], [69.31539, 41.38499], [69.31492, 41.38506], [69.31172, 41.38518], [69.31077, 41.38512], [69.30858, 41.38484], [69.30602, 41.38467], [69.30132, 41.38402], [69.28732, 41.38372]]]}}, {"type": "Feature", "properties": {"district_id": "1726269", "soato_code": "1726269", "cadastre_prefix": "1009", "district_name_uz_latin": "Mirzo Ulugʻbek tumani", "district_name_uz_cyrillic": "Мирзо Улуғбек тумани", "district_name_ru": "Мирзо-Улугбекский район", "district_name_en": "Mirzo Ulugbek District", "official_name": "Mirzo Ulugʻbek tumani", "former_names": "Proletarskiy (1929-1935); Kuybishev tumani (1935-1992)", "parent_city": "Toshkent shahri (Tashkent City)", "parent_soato": "1726", "area_km2_geodesic": 59.532, "population_latest": 343900, "population_latest_reference_date": "2026-01-01", "population_prev": 340900, "population_prev_reference_date": "2025-10-01", "number_of_mahallas_official": 70, "mahallas_with_official_polygon": 53, "district_center": "Mustaqillik shoh koʻchasi 122, 100052", "latitude_centroid": 41.3405, "longitude_centroid": 69.37908, "official_boundary_available": "YES", "boundary_source": "Kadastr agentligi / Davlat kadastr palatasi - Milliy geoaxborot portali (open.ngis.uz), service Hosted/TUMAN_BORDER", "boundary_source_url": "https://db.ngis.uz/db/rest/services/Hosted/TUMAN_BORDER/FeatureServer/2", "geometry_status": "OFFICIAL", "geometry_source_crs": "EPSG:32642 (WGS84 / UTM 42N)", "geometry_crs": "EPSG:4326", "geometry_simplification": "maxAllowableOffset 0.00003 deg (~3 m)", "legal_document_defining_name": "Presidium of Supreme Soviet Decree No. 580-XII", "legal_document_date": "1992-05-08", "legal_document_url": "https://lex.uz/ru/docs/281541", "last_verified_date": "2026-09-18", "confidence": "A", "notes": "Area recomputed geodesically. The service attribute st_area_sh is a Web-Mercator area and overstates true area by ~1.772x (1/cos^2(41.3deg)) - do not use it."}, "geometry": {"type": "MultiPolygon", "coordinates": [[[[69.39584, 41.36421], [69.39547, 41.36464], [69.39495, 41.36502], [69.39444, 41.36528], [69.39344, 41.36563], [69.39301, 41.36589], [69.39273, 41.36618], [69.39252, 41.36651], [69.39238, 41.36689], [69.39236, 41.36722], [69.39197, 41.3668], [69.39158, 41.36646], [69.39099, 41.3661], [69.3903, 41.36579], [69.3869, 41.36463], [69.38455, 41.3639], [69.37791, 41.36162], [69.37656, 41.36127], [69.37541, 41.36115], [69.37428, 41.36116], [69.36619, 41.36222], [69.36441, 41.36236], [69.36387, 41.36229], [69.36329, 41.36214], [69.3628, 41.36194], [69.36236, 41.36167], [69.36197, 41.36134], [69.35853, 41.35712], [69.35766, 41.35625], [69.35718, 41.35591], [69.35655, 41.35553], [69.35592, 41.35523], [69.35508, 41.35492], [69.35422, 41.3547], [69.35331, 41.35456], [69.35252, 41.35451], [69.35155, 41.35454], [69.35075, 41.35463], [69.3499, 41.35481], [69.34734, 41.35559], [69.34648, 41.35578], [69.34516, 41.35592], [69.34411, 41.35591], [69.34352, 41.35584], [69.34246, 41.35562], [69.34122, 41.35518], [69.3364, 41.35292], [69.33541, 41.35228], [69.3336, 41.35064], [69.33316, 41.35088], [69.33258, 41.35098], [69.32548, 41.35106], [69.32573, 41.35024], [69.3255, 41.34978], [69.32536, 41.34918], [69.32534, 41.3485], [69.32526, 41.34822], [69.32518, 41.34811], [69.32462, 41.34757], [69.32437, 41.34752], [69.32291, 41.3475], [69.3224, 41.34728], [69.32215, 41.34703], [69.32131, 41.34536], [69.32071, 41.34481], [69.31917, 41.34366], [69.31886, 41.3432], [69.31885, 41.34153], [69.3185, 41.34099], [69.31791, 41.34066], [69.31705, 41.34034], [69.31683, 41.33943], [69.316, 41.33919], [69.31554, 41.33861], [69.31545, 41.3378], [69.31545, 41.33724], [69.31575, 41.33657], [69.31605, 41.33631], [69.31658, 41.33602], [69.31676, 41.33599], [69.31691, 41.3355], [69.31694, 41.33523], [69.31689, 41.33442], [69.31632, 41.33341], [69.31548, 41.33291], [69.31384, 41.3323], [69.31302, 41.33325], [69.3117, 41.33533], [69.31152, 41.33572], [69.31094, 41.33762], [69.31066, 41.33835], [69.3103, 41.33905], [69.31, 41.33949], [69.30936, 41.33921], [69.30896, 41.33953], [69.30819, 41.33933], [69.30793, 41.33943], [69.30776, 41.33943], [69.30408, 41.33833], [69.30417, 41.33816], [69.30295, 41.33777], [69.30288, 41.33768], [69.3032, 41.33706], [69.3034, 41.33647], [69.30355, 41.33637], [69.30355, 41.33624], [69.30362, 41.33605], [69.30466, 41.33404], [69.30013, 41.33324], [69.30022, 41.33287], [69.30136, 41.33222], [69.30142, 41.33214], [69.30141, 41.33194], [69.30148, 41.3317], [69.30144, 41.33164], [69.30089, 41.33154], [69.30075, 41.33133], [69.30068, 41.33091], [69.30056, 41.33076], [69.29935, 41.33022], [69.29913, 41.33003], [69.29885, 41.32998], [69.29855, 41.33004], [69.29839, 41.33012], [69.29813, 41.33034], [69.29779, 41.33049], [69.29746, 41.33035], [69.2971, 41.33008], [69.29707, 41.32992], [69.29651, 41.32941], [69.29648, 41.32934], [69.29655, 41.32864], [69.29738, 41.32851], [69.29811, 41.3278], [69.29812, 41.32735], [69.29786, 41.32616], [69.2978, 41.32609], [69.29641, 41.32526], [69.2955, 41.32543], [69.29475, 41.32569], [69.29435, 41.3251], [69.29395, 41.32507], [69.29387, 41.32502], [69.29325, 41.32399], [69.29327, 41.32379], [69.29313, 41.32331], [69.29283, 41.3233], [69.29269, 41.32323], [69.293, 41.32277], [69.293, 41.32248], [69.29168, 41.32261], [69.2911, 41.31923], [69.29186, 41.31853], [69.29149, 41.31809], [69.29078, 41.3177], [69.29073, 41.31775], [69.28612, 41.31815], [69.2855, 41.31746], [69.28525, 41.31707], [69.28402, 41.31567], [69.28269, 41.31425], [69.2809, 41.31497], [69.28084, 41.31496], [69.28073, 41.31482], [69.2807, 41.31468], [69.28033, 41.31305], [69.28029, 41.31262], [69.28142, 41.31202], [69.28171, 41.31173], [69.28182, 41.31118], [69.28177, 41.31071], [69.28834, 41.3089], [69.29202, 41.30783], [69.29249, 41.30765], [69.29324, 41.3075], [69.2934, 41.30741], [69.29401, 41.30724], [69.29451, 41.30714], [69.29516, 41.30709], [69.29634, 41.30713], [69.29837, 41.30757], [69.29822, 41.30839], [69.29835, 41.30913], [69.29774, 41.30999], [69.2977, 41.31045], [69.2984, 41.31043], [69.299, 41.31065], [69.29938, 41.31094], [69.29984, 41.31165], [69.30015, 41.31201], [69.30036, 41.31208], [69.3006, 41.31203], [69.30098, 41.31174], [69.30122, 41.31173], [69.30137, 41.31178], [69.30151, 41.3119], [69.3018, 41.31244], [69.30227, 41.31258], [69.30236, 41.31232], [69.30248, 41.31216], [69.30281, 41.31191], [69.30306, 41.31182], [69.30378, 41.31179], [69.30485, 41.31199], [69.30572, 41.31242], [69.30587, 41.31271], [69.30585, 41.31317], [69.30555, 41.31369], [69.3052, 41.31471], [69.30516, 41.31556], [69.3056, 41.31545], [69.30629, 41.31519], [69.30694, 41.31476], [69.30808, 41.31426], [69.30782, 41.31395], [69.30774, 41.31299], [69.30847, 41.31269], [69.31005, 41.31486], [69.31176, 41.31735], [69.31209, 41.31796], [69.31238, 41.31879], [69.31372, 41.31836], [69.31624, 41.31729], [69.3196, 41.31606], [69.3205, 41.31579], [69.32142, 41.31564], [69.32836, 41.31492], [69.3289, 41.3148], [69.32947, 41.31448], [69.33215, 41.31247], [69.33319, 41.31181], [69.33561, 41.31001], [69.33636, 41.30941], [69.33873, 41.30724], [69.33931, 41.30697], [69.33983, 41.30695], [69.34006, 41.307], [69.34039, 41.30717], [69.3407, 41.30742], [69.34106, 41.30718], [69.34097, 41.30694], [69.34106, 41.30679], [69.34118, 41.30669], [69.34148, 41.30661], [69.34298, 41.30675], [69.34296, 41.30629], [69.35001, 41.30708], [69.35283, 41.30752], [69.35469, 41.30791], [69.35666, 41.30841], [69.35918, 41.3092], [69.3715, 41.31347], [69.37485, 41.3148], [69.38228, 41.31805], [69.38446, 41.31885], [69.38723, 41.31967], [69.38954, 41.32021], [69.39197, 41.32064], [69.4144, 41.32437], [69.4216, 41.3254], [69.42542, 41.32589], [69.42823, 41.32601], [69.43075, 41.3259], [69.43212, 41.32576], [69.43353, 41.32555], [69.4357, 41.32509], [69.43734, 41.32463], [69.4483, 41.32077], [69.44953, 41.32179], [69.4502, 41.32216], [69.45065, 41.32258], [69.45164, 41.32335], [69.45219, 41.32416], [69.45249, 41.32469], [69.45274, 41.3258], [69.45528, 41.32815], [69.45819, 41.32948], [69.45937, 41.32989], [69.46132, 41.33086], [69.46218, 41.33138], [69.46277, 41.33179], [69.4645, 41.33314], [69.46548, 41.33361], [69.46642, 41.33428], [69.46784, 41.33518], [69.46903, 41.33628], [69.46546, 41.33852], [69.46503, 41.33812], [69.46464, 41.33837], [69.46341, 41.33958], [69.46307, 41.33933], [69.4627, 41.33962], [69.46214, 41.33996], [69.4626, 41.34061], [69.46251, 41.34179], [69.46291, 41.34187], [69.46283, 41.34445], [69.46253, 41.34556], [69.46023, 41.34527], [69.45811, 41.34511], [69.43894, 41.3446], [69.43618, 41.34444], [69.4361, 41.34462], [69.43599, 41.34467], [69.43585, 41.34468], [69.43577, 41.34462], [69.43285, 41.34588], [69.43261, 41.34554], [69.43012, 41.34645], [69.42889, 41.34487], [69.42779, 41.34533], [69.42786, 41.34547], [69.4271, 41.34578], [69.42716, 41.34586], [69.42552, 41.34656], [69.42709, 41.34862], [69.42532, 41.34938], [69.42484, 41.34955], [69.42504, 41.34974], [69.4263, 41.35144], [69.42842, 41.35253], [69.42852, 41.35262], [69.4276, 41.35395], [69.42682, 41.35492], [69.42766, 41.35528], [69.42695, 41.35627], [69.42584, 41.35578], [69.42549, 41.35575], [69.42513, 41.3567], [69.42632, 41.35724], [69.42694, 41.35772], [69.42728, 41.35809], [69.42395, 41.35938], [69.42382, 41.35948], [69.42364, 41.35973], [69.42289, 41.36104], [69.42157, 41.36205], [69.42069, 41.36263], [69.41992, 41.36233], [69.41957, 41.36234], [69.41776, 41.36172], [69.41797, 41.36139], [69.4159, 41.36069], [69.41587, 41.36073], [69.415, 41.36054], [69.41452, 41.36076], [69.41422, 41.36098], [69.41405, 41.36078], [69.41377, 41.36104], [69.41345, 41.36094], [69.41334, 41.36088], [69.41262, 41.36014], [69.41264, 41.35994], [69.41285, 41.35973], [69.41286, 41.35953], [69.41262, 41.35942], [69.4122, 41.35939], [69.41162, 41.35906], [69.41123, 41.35842], [69.41068, 41.35801], [69.41011, 41.35777], [69.41004, 41.35788], [69.40954, 41.35774], [69.4095, 41.35767], [69.40887, 41.35801], [69.40775, 41.36007], [69.40785, 41.3601], [69.4077, 41.3604], [69.40759, 41.36036], [69.40699, 41.36151], [69.40579, 41.36272], [69.40711, 41.36348], [69.40554, 41.36504], [69.4045, 41.36407], [69.40449, 41.36397], [69.40438, 41.36403], [69.40427, 41.36392], [69.40202, 41.36327], [69.40161, 41.36309], [69.40137, 41.36291], [69.40119, 41.36302], [69.40137, 41.36314], [69.40138, 41.36329], [69.40096, 41.36488], [69.40058, 41.3648], [69.40049, 41.36506], [69.40005, 41.36492], [69.3998, 41.36479], [69.39951, 41.36509], [69.39886, 41.36596], [69.3973, 41.365], [69.39724, 41.36506], [69.39584, 41.36421]]], [[[69.45242, 41.42248], [69.45189, 41.42248], [69.45099, 41.42239], [69.45018, 41.42246], [69.4499, 41.42242], [69.44907, 41.42203], [69.44847, 41.42189], [69.44717, 41.42144], [69.44576, 41.42079], [69.4448, 41.42018], [69.44376, 41.41945], [69.44241, 41.41803], [69.44187, 41.41721], [69.44141, 41.41627], [69.44115, 41.41556], [69.44087, 41.41447], [69.4408, 41.41366], [69.44089, 41.41254], [69.44101, 41.41174], [69.44136, 41.41082], [69.44177, 41.4099], [69.44243, 41.40894], [69.44274, 41.40854], [69.44425, 41.40713], [69.44357, 41.40679], [69.44472, 41.40554], [69.44497, 41.40543], [69.44612, 41.40395], [69.44601, 41.40384], [69.44846, 41.40207], [69.44899, 41.40103], [69.45033, 41.40133], [69.45038, 41.40057], [69.45088, 41.4006], [69.45138, 41.40057], [69.45224, 41.40041], [69.45378, 41.4009], [69.45463, 41.40126], [69.45489, 41.40129], [69.45597, 41.40164], [69.45628, 41.40166], [69.45696, 41.40138], [69.45796, 41.40147], [69.45833, 41.40162], [69.45978, 41.40256], [69.4617, 41.40339], [69.46237, 41.40399], [69.4633, 41.40468], [69.46365, 41.40486], [69.46581, 41.40523], [69.46884, 41.4064], [69.4688, 41.40667], [69.46839, 41.4066], [69.46839, 41.40666], [69.4687, 41.40681], [69.46872, 41.4069], [69.4686, 41.40703], [69.46819, 41.407], [69.46791, 41.40704], [69.46754, 41.40731], [69.46716, 41.4077], [69.46695, 41.40768], [69.46637, 41.40735], [69.46426, 41.40935], [69.46876, 41.41201], [69.46989, 41.41262], [69.46902, 41.41372], [69.46858, 41.41415], [69.46839, 41.41422], [69.4672, 41.41352], [69.46706, 41.41354], [69.46693, 41.41346], [69.4669, 41.41336], [69.46457, 41.41194], [69.46481, 41.41291], [69.4647, 41.4143], [69.46444, 41.41547], [69.46421, 41.41622], [69.46372, 41.41709], [69.46359, 41.41723], [69.46303, 41.41814], [69.46205, 41.41902], [69.46201, 41.41915], [69.46092, 41.42002], [69.45986, 41.42076], [69.45826, 41.42151], [69.45552, 41.42222], [69.45359, 41.42247], [69.45242, 41.42248]]]]}}, {"type": "Feature", "properties": {"district_id": "1726273", "soato_code": "1726273", "cadastre_prefix": "1011", "district_name_uz_latin": "Mirobod tumani", "district_name_uz_cyrillic": "Миробод тумани", "district_name_ru": "Мирабадский район", "district_name_en": "Mirabad District", "official_name": "Mirobod tumani", "former_names": "Temiryoʻlchilar (1929); Lenin tumani (1929-1992)", "parent_city": "Toshkent shahri (Tashkent City)", "parent_soato": "1726", "area_km2_geodesic": 16.475, "population_latest": 156900, "population_latest_reference_date": "2026-01-01", "population_prev": 156100, "population_prev_reference_date": "2025-10-01", "number_of_mahallas_official": 39, "mahallas_with_official_polygon": 30, "district_center": "Nukus koʻchasi 18, 100060", "latitude_centroid": 41.27689, "longitude_centroid": 69.29279, "official_boundary_available": "YES", "boundary_source": "Kadastr agentligi / Davlat kadastr palatasi - Milliy geoaxborot portali (open.ngis.uz), service Hosted/TUMAN_BORDER", "boundary_source_url": "https://db.ngis.uz/db/rest/services/Hosted/TUMAN_BORDER/FeatureServer/2", "geometry_status": "OFFICIAL", "geometry_source_crs": "EPSG:32642 (WGS84 / UTM 42N)", "geometry_crs": "EPSG:4326", "geometry_simplification": "maxAllowableOffset 0.00003 deg (~3 m)", "legal_document_defining_name": "Presidium of Supreme Soviet Decree No. 579-XII", "legal_document_date": "1992-05-08", "legal_document_url": "https://lex.uz/ru/docs/281121", "last_verified_date": "2026-09-18", "confidence": "A", "notes": "Area recomputed geodesically. The service attribute st_area_sh is a Web-Mercator area and overstates true area by ~1.772x (1/cos^2(41.3deg)) - do not use it."}, "geometry": {"type": "Polygon", "coordinates": [[[69.30105, 41.25556], [69.30085, 41.25532], [69.30095, 41.25503], [69.30095, 41.25487], [69.30077, 41.25444], [69.30077, 41.25426], [69.30107, 41.25372], [69.30183, 41.25266], [69.30174, 41.24416], [69.31136, 41.24412], [69.31234, 41.24402], [69.31337, 41.24375], [69.31483, 41.24318], [69.31567, 41.24262], [69.31925, 41.2395], [69.32144, 41.23775], [69.32192, 41.23751], [69.32354, 41.23771], [69.32396, 41.23784], [69.32415, 41.23794], [69.3243, 41.23809], [69.32517, 41.23912], [69.32692, 41.23991], [69.32893, 41.24089], [69.32832, 41.24168], [69.32785, 41.24243], [69.32307, 41.25093], [69.32191, 41.25313], [69.32101, 41.25461], [69.31708, 41.26162], [69.31464, 41.26572], [69.30795, 41.27769], [69.30747, 41.27822], [69.30621, 41.27928], [69.30607, 41.27951], [69.30579, 41.28197], [69.30573, 41.2822], [69.3055, 41.28268], [69.30446, 41.28453], [69.30334, 41.28633], [69.30215, 41.28802], [69.30101, 41.28948], [69.29885, 41.29194], [69.29642, 41.29443], [69.29467, 41.29632], [69.29441, 41.29649], [69.29413, 41.29659], [69.29314, 41.29667], [69.29279, 41.29674], [69.29236, 41.29692], [69.29206, 41.29715], [69.2919, 41.29736], [69.29175, 41.29768], [69.29177, 41.29881], [69.29168, 41.2991], [69.2915, 41.29935], [69.29019, 41.3004], [69.28803, 41.3027], [69.28094, 41.30979], [69.28072, 41.30996], [69.28015, 41.30991], [69.2795, 41.30998], [69.27053, 41.31242], [69.26903, 41.30906], [69.26733, 41.30493], [69.2671, 41.30423], [69.26653, 41.30187], [69.26716, 41.30108], [69.26742, 41.30061], [69.26881, 41.29561], [69.27, 41.29409], [69.27148, 41.29265], [69.27002, 41.29176], [69.26997, 41.29165], [69.27002, 41.29147], [69.26953, 41.29093], [69.26914, 41.29065], [69.26915, 41.28949], [69.26859, 41.28923], [69.26765, 41.28866], [69.2664, 41.28754], [69.26575, 41.28738], [69.2661, 41.28647], [69.2664, 41.28553], [69.26521, 41.28521], [69.26562, 41.28479], [69.2678, 41.28178], [69.269, 41.28023], [69.273, 41.27775], [69.26735, 41.27143], [69.26584, 41.26988], [69.26487, 41.26902], [69.26413, 41.26848], [69.26352, 41.26812], [69.26235, 41.26761], [69.2626, 41.26732], [69.26328, 41.26755], [69.26476, 41.26783], [69.26581, 41.26794], [69.26672, 41.26815], [69.27723, 41.27009], [69.28064, 41.27111], [69.28151, 41.27131], [69.28238, 41.27143], [69.28339, 41.27144], [69.28438, 41.27131], [69.28536, 41.27106], [69.28603, 41.27079], [69.28678, 41.2704], [69.28765, 41.26977], [69.29238, 41.26585], [69.29296, 41.26544], [69.2936, 41.2651], [69.29456, 41.26473], [69.2956, 41.2645], [69.29659, 41.26441], [69.29763, 41.26443], [69.29758, 41.26433], [69.29767, 41.26338], [69.29771, 41.26329], [69.29805, 41.2631], [69.30039, 41.26313], [69.30074, 41.2631], [69.3025, 41.26214], [69.3027, 41.2621], [69.30379, 41.26267], [69.30485, 41.26314], [69.30671, 41.26419], [69.30763, 41.26466], [69.30794, 41.26472], [69.30821, 41.26466], [69.30847, 41.26452], [69.31125, 41.26057], [69.30079, 41.25619], [69.30076, 41.25613], [69.30086, 41.25595], [69.3011, 41.25562], [69.30105, 41.25556]]]}}, {"type": "Feature", "properties": {"district_id": "1726277", "soato_code": "1726277", "cadastre_prefix": "1010", "district_name_uz_latin": "Shayxontohur tumani", "district_name_uz_cyrillic": "Шайхонтоҳур тумани", "district_name_ru": "Шайхантахурский район", "district_name_en": "Shaykhantahur District", "official_name": "Shayxontohur tumani", "former_names": "Oktyabr tumani (1929-1992)", "parent_city": "Toshkent shahri (Tashkent City)", "parent_soato": "1726", "area_km2_geodesic": 27.065, "population_latest": 374600, "population_latest_reference_date": "2026-01-01", "population_prev": 372700, "population_prev_reference_date": "2025-10-01", "number_of_mahallas_official": 51, "mahallas_with_official_polygon": 20, "district_center": "A.Qodiriy koʻchasi 7A, 100011", "latitude_centroid": 41.32505, "longitude_centroid": 69.2166, "official_boundary_available": "YES", "boundary_source": "Kadastr agentligi / Davlat kadastr palatasi - Milliy geoaxborot portali (open.ngis.uz), service Hosted/TUMAN_BORDER", "boundary_source_url": "https://db.ngis.uz/db/rest/services/Hosted/TUMAN_BORDER/FeatureServer/2", "geometry_status": "OFFICIAL", "geometry_source_crs": "EPSG:32642 (WGS84 / UTM 42N)", "geometry_crs": "EPSG:4326", "geometry_simplification": "maxAllowableOffset 0.00003 deg (~3 m)", "legal_document_defining_name": "Presidium of Supreme Soviet Decree No. 579-XII", "legal_document_date": "1992-05-08", "legal_document_url": "https://lex.uz/ru/docs/281121", "last_verified_date": "2026-09-18", "confidence": "A", "notes": "Area recomputed geodesically. The service attribute st_area_sh is a Web-Mercator area and overstates true area by ~1.772x (1/cos^2(41.3deg)) - do not use it."}, "geometry": {"type": "Polygon", "coordinates": [[[69.19694, 41.3483], [69.19419, 41.34875], [69.1895, 41.3499], [69.18881, 41.35002], [69.18771, 41.3501], [69.18658, 41.35002], [69.18465, 41.34969], [69.18216, 41.3494], [69.17889, 41.34932], [69.1782, 41.34925], [69.17495, 41.34859], [69.17323, 41.3483], [69.16515, 41.34836], [69.16473, 41.34615], [69.16448, 41.34436], [69.16401, 41.33749], [69.16386, 41.3366], [69.16363, 41.33564], [69.16324, 41.33463], [69.16272, 41.3335], [69.16065, 41.3301], [69.15984, 41.32834], [69.16044, 41.32815], [69.16057, 41.32819], [69.16066, 41.3284], [69.16099, 41.3287], [69.1613, 41.32882], [69.16149, 41.32895], [69.16165, 41.32923], [69.16245, 41.32971], [69.16256, 41.32984], [69.16263, 41.33001], [69.16301, 41.33042], [69.16405, 41.33112], [69.16453, 41.33133], [69.1648, 41.33137], [69.16576, 41.33133], [69.16607, 41.33127], [69.16661, 41.331], [69.1668, 41.33097], [69.16759, 41.33106], [69.16767, 41.3303], [69.16743, 41.33002], [69.16736, 41.32977], [69.16732, 41.32923], [69.16804, 41.32921], [69.16802, 41.32812], [69.16964, 41.32819], [69.19114, 41.32676], [69.19419, 41.3265], [69.1939, 41.32624], [69.19321, 41.32537], [69.19309, 41.32506], [69.19306, 41.32476], [69.19343, 41.31308], [69.19385, 41.30296], [69.19714, 41.30184], [69.1973, 41.30224], [69.19738, 41.30226], [69.19749, 41.30249], [69.19839, 41.30229], [69.20075, 41.30104], [69.20056, 41.30068], [69.20083, 41.30063], [69.20123, 41.30058], [69.20204, 41.30058], [69.21901, 41.30102], [69.21955, 41.30108], [69.22044, 41.30132], [69.22192, 41.30212], [69.22239, 41.30226], [69.22286, 41.30231], [69.22379, 41.30221], [69.23143, 41.29966], [69.23377, 41.30216], [69.2401, 41.31018], [69.24033, 41.31107], [69.24041, 41.31159], [69.24047, 41.31175], [69.24064, 41.31185], [69.25999, 41.31109], [69.26009, 41.31148], [69.26033, 41.31184], [69.26057, 41.31201], [69.26086, 41.31213], [69.26306, 41.31228], [69.26323, 41.31234], [69.26333, 41.31245], [69.26337, 41.31275], [69.26348, 41.31293], [69.26399, 41.31328], [69.26412, 41.3134], [69.2643, 41.31372], [69.26532, 41.31652], [69.26562, 41.31718], [69.26579, 41.3174], [69.26659, 41.31816], [69.26806, 41.3218], [69.26834, 41.32211], [69.26923, 41.32289], [69.26934, 41.32305], [69.26978, 41.32467], [69.26995, 41.32506], [69.27081, 41.32588], [69.27085, 41.32604], [69.27084, 41.32631], [69.27065, 41.32693], [69.27084, 41.32696], [69.27083, 41.327], [69.27113, 41.32704], [69.27092, 41.32761], [69.2709, 41.32755], [69.27048, 41.32748], [69.27046, 41.32797], [69.27105, 41.32894], [69.27126, 41.32914], [69.27238, 41.32969], [69.27276, 41.32995], [69.27295, 41.33021], [69.27301, 41.33144], [69.2732, 41.33203], [69.27293, 41.33259], [69.27287, 41.33282], [69.27301, 41.33374], [69.2738, 41.33478], [69.27426, 41.33633], [69.27457, 41.33706], [69.27491, 41.33743], [69.26729, 41.34169], [69.26301, 41.34414], [69.2628, 41.34394], [69.26055, 41.34058], [69.25844, 41.33869], [69.25789, 41.33829], [69.25739, 41.33804], [69.25685, 41.33787], [69.25628, 41.33722], [69.24765, 41.32845], [69.24708, 41.32876], [69.24297, 41.32804], [69.24037, 41.32713], [69.23952, 41.32848], [69.23892, 41.32886], [69.23836, 41.32905], [69.23637, 41.32927], [69.23612, 41.32927], [69.23569, 41.32909], [69.23171, 41.32514], [69.205, 41.34031], [69.20481, 41.34061], [69.20482, 41.34085], [69.20691, 41.34468], [69.20697, 41.34485], [69.20695, 41.34501], [69.20682, 41.34519], [69.20652, 41.34534], [69.20008, 41.34729], [69.19897, 41.34766], [69.19795, 41.3481], [69.19694, 41.3483]]]}}, {"type": "Feature", "properties": {"district_id": "1726280", "soato_code": "1726280", "cadastre_prefix": "1008", "district_name_uz_latin": "Olmazor tumani", "district_name_uz_cyrillic": "Олмазор тумани", "district_name_ru": "Алмазарский район", "district_name_en": "Almazar District", "official_name": "Olmazor tumani", "former_names": "Sobir Rahimov tumani (1981-2010)", "parent_city": "Toshkent shahri (Tashkent City)", "parent_soato": "1726", "area_km2_geodesic": 33.786, "population_latest": 419600, "population_latest_reference_date": "2026-01-01", "population_prev": 416800, "population_prev_reference_date": "2025-10-01", "number_of_mahallas_official": 64, "mahallas_with_official_polygon": 32, "district_center": "Kichik Halqa yoʻli 1, 100095", "latitude_centroid": 41.35791, "longitude_centroid": 69.22324, "official_boundary_available": "YES", "boundary_source": "Kadastr agentligi / Davlat kadastr palatasi - Milliy geoaxborot portali (open.ngis.uz), service Hosted/TUMAN_BORDER", "boundary_source_url": "https://db.ngis.uz/db/rest/services/Hosted/TUMAN_BORDER/FeatureServer/2", "geometry_status": "OFFICIAL", "geometry_source_crs": "EPSG:32642 (WGS84 / UTM 42N)", "geometry_crs": "EPSG:4326", "geometry_simplification": "maxAllowableOffset 0.00003 deg (~3 m)", "legal_document_defining_name": "Legislative Chamber Res. No. 182-II + Senate Res. No. 133-II", "legal_document_date": "2010-12-04", "legal_document_url": "https://lex.uz/ru/docs/2949066", "last_verified_date": "2026-09-18", "confidence": "A", "notes": "Area recomputed geodesically. The service attribute st_area_sh is a Web-Mercator area and overstates true area by ~1.772x (1/cos^2(41.3deg)) - do not use it."}, "geometry": {"type": "Polygon", "coordinates": [[[69.23106, 41.39182], [69.22812, 41.3951], [69.21524, 41.38702], [69.21479, 41.38692], [69.21272, 41.38671], [69.2121, 41.38678], [69.2115, 41.38703], [69.21125, 41.38689], [69.21138, 41.3866], [69.21143, 41.38634], [69.21137, 41.38593], [69.21064, 41.38429], [69.21047, 41.38403], [69.17824, 41.36371], [69.17291, 41.36025], [69.17197, 41.35958], [69.17108, 41.35885], [69.16973, 41.35761], [69.16905, 41.35686], [69.16818, 41.35574], [69.16683, 41.35361], [69.16644, 41.35281], [69.1658, 41.35112], [69.16549, 41.34992], [69.16515, 41.34836], [69.17323, 41.3483], [69.17495, 41.34859], [69.1782, 41.34925], [69.17889, 41.34932], [69.18216, 41.3494], [69.18465, 41.34969], [69.18658, 41.35002], [69.18771, 41.3501], [69.18881, 41.35002], [69.1895, 41.3499], [69.19419, 41.34875], [69.19775, 41.34815], [69.19807, 41.34805], [69.19897, 41.34766], [69.20008, 41.34729], [69.20652, 41.34534], [69.20682, 41.34519], [69.20695, 41.34501], [69.20697, 41.34485], [69.20691, 41.34468], [69.20482, 41.34085], [69.20481, 41.34061], [69.205, 41.34031], [69.23171, 41.32514], [69.23569, 41.32909], [69.23612, 41.32927], [69.23637, 41.32927], [69.23836, 41.32905], [69.23892, 41.32886], [69.23952, 41.32848], [69.24037, 41.32713], [69.24297, 41.32804], [69.24708, 41.32876], [69.24765, 41.32845], [69.25628, 41.33722], [69.25685, 41.33787], [69.25739, 41.33804], [69.25789, 41.33829], [69.25844, 41.33869], [69.26055, 41.34058], [69.2628, 41.34394], [69.26372, 41.34488], [69.26414, 41.3454], [69.26432, 41.34599], [69.26477, 41.34651], [69.266, 41.34747], [69.26308, 41.34921], [69.26434, 41.35041], [69.26534, 41.35155], [69.26734, 41.35352], [69.26971, 41.35568], [69.26676, 41.35838], [69.26438, 41.36075], [69.26208, 41.36289], [69.2614, 41.36346], [69.25686, 41.36658], [69.25479, 41.36781], [69.25246, 41.36959], [69.24819, 41.37349], [69.24733, 41.37418], [69.24428, 41.37644], [69.24353, 41.37695], [69.24154, 41.37807], [69.24072, 41.3787], [69.23858, 41.38095], [69.23799, 41.38181], [69.23779, 41.38221], [69.23757, 41.38284], [69.23698, 41.38478], [69.23685, 41.38508], [69.23631, 41.38591], [69.23106, 41.39182]]]}}, {"type": "Feature", "properties": {"district_id": "1726283", "soato_code": "1726283", "cadastre_prefix": "1006", "district_name_uz_latin": "Sergeli tumani", "district_name_uz_cyrillic": "Сергели тумани", "district_name_ru": "Сергелийский район", "district_name_en": "Sergeli District", "official_name": "Sergeli tumani", "former_names": "NULL (classifier variant: Sirgʻali tumani)", "parent_city": "Toshkent shahri (Tashkent City)", "parent_soato": "1726", "area_km2_geodesic": 52.206, "population_latest": 180400, "population_latest_reference_date": "2026-01-01", "population_prev": 177700, "population_prev_reference_date": "2025-10-01", "number_of_mahallas_official": 46, "mahallas_with_official_polygon": 39, "district_center": "Soʻgʻdiyona koʻchasi 1, 100085", "latitude_centroid": 41.23555, "longitude_centroid": 69.25676, "official_boundary_available": "YES", "boundary_source": "Kadastr agentligi / Davlat kadastr palatasi - Milliy geoaxborot portali (open.ngis.uz), service Hosted/TUMAN_BORDER", "boundary_source_url": "https://db.ngis.uz/db/rest/services/Hosted/TUMAN_BORDER/FeatureServer/2", "geometry_status": "OFFICIAL", "geometry_source_crs": "EPSG:32642 (WGS84 / UTM 42N)", "geometry_crs": "EPSG:4326", "geometry_simplification": "maxAllowableOffset 0.00003 deg (~3 m)", "legal_document_defining_name": "NULL", "legal_document_date": "NULL", "legal_document_url": "NULL", "last_verified_date": "2026-09-18", "confidence": "A", "notes": "Area recomputed geodesically. The service attribute st_area_sh is a Web-Mercator area and overstates true area by ~1.772x (1/cos^2(41.3deg)) - do not use it."}, "geometry": {"type": "Polygon", "coordinates": [[[69.2453, 41.21264], [69.24535, 41.21128], [69.24662, 41.20256], [69.2474, 41.19977], [69.24799, 41.19845], [69.24831, 41.19794], [69.24918, 41.19685], [69.25041, 41.19545], [69.25109, 41.19481], [69.25235, 41.19392], [69.2564, 41.19141], [69.2567, 41.19165], [69.25818, 41.19238], [69.26263, 41.19564], [69.2637, 41.19631], [69.26534, 41.19715], [69.26888, 41.19874], [69.26978, 41.19921], [69.27267, 41.20048], [69.2757, 41.20229], [69.27907, 41.20422], [69.28041, 41.20505], [69.27935, 41.20614], [69.28161, 41.20772], [69.28259, 41.20884], [69.28322, 41.20942], [69.28396, 41.21056], [69.28409, 41.21119], [69.28421, 41.21247], [69.28453, 41.21297], [69.28501, 41.2135], [69.28598, 41.21413], [69.28642, 41.21447], [69.28723, 41.21531], [69.28816, 41.21649], [69.2888, 41.21715], [69.28993, 41.21879], [69.29033, 41.21956], [69.2907, 41.22056], [69.2911, 41.22102], [69.29139, 41.22128], [69.29196, 41.22166], [69.29421, 41.22279], [69.29317, 41.22344], [69.29376, 41.22456], [69.29426, 41.22492], [69.29473, 41.22511], [69.2951, 41.22514], [69.29538, 41.22526], [69.29563, 41.2255], [69.29616, 41.22617], [69.29707, 41.22661], [69.29814, 41.22743], [69.29884, 41.22777], [69.29945, 41.22796], [69.30046, 41.22812], [69.30713, 41.23057], [69.30839, 41.23156], [69.30833, 41.23188], [69.30856, 41.23198], [69.30926, 41.23215], [69.31152, 41.23251], [69.31225, 41.23282], [69.31751, 41.23718], [69.31809, 41.2373], [69.32172, 41.23761], [69.32144, 41.23775], [69.31925, 41.2395], [69.31567, 41.24262], [69.31483, 41.24318], [69.31337, 41.24375], [69.31234, 41.24402], [69.31136, 41.24412], [69.30174, 41.24416], [69.30183, 41.25266], [69.30107, 41.25372], [69.30077, 41.25426], [69.30077, 41.25444], [69.30095, 41.25487], [69.30095, 41.25503], [69.30085, 41.25532], [69.3011, 41.25562], [69.30076, 41.25613], [69.30079, 41.25619], [69.30474, 41.25787], [69.31125, 41.26057], [69.30847, 41.26452], [69.30821, 41.26466], [69.30794, 41.26472], [69.30763, 41.26466], [69.30671, 41.26419], [69.30485, 41.26314], [69.30379, 41.26267], [69.3027, 41.2621], [69.3025, 41.26214], [69.30074, 41.2631], [69.29984, 41.26313], [69.29808, 41.26309], [69.29775, 41.26326], [69.29767, 41.26338], [69.29758, 41.26433], [69.29763, 41.26443], [69.29639, 41.26442], [69.29519, 41.26457], [69.29413, 41.26488], [69.29312, 41.26534], [69.29226, 41.26594], [69.2874, 41.26997], [69.28641, 41.27061], [69.28558, 41.27098], [69.28457, 41.27127], [69.28359, 41.27142], [69.28258, 41.27144], [69.28173, 41.27135], [69.28086, 41.27117], [69.27723, 41.27009], [69.26672, 41.26815], [69.26581, 41.26794], [69.26476, 41.26783], [69.26328, 41.26755], [69.2624, 41.26727], [69.26145, 41.26714], [69.26057, 41.26696], [69.25969, 41.26665], [69.25965, 41.26672], [69.25834, 41.26617], [69.25777, 41.26575], [69.25726, 41.26521], [69.25685, 41.26544], [69.25486, 41.26501], [69.25483, 41.26509], [69.25251, 41.26465], [69.25253, 41.2645], [69.2519, 41.26445], [69.24785, 41.26376], [69.24719, 41.26373], [69.2463, 41.26377], [69.24557, 41.26386], [69.24551, 41.26374], [69.24519, 41.26379], [69.2451, 41.26385], [69.24461, 41.26392], [69.24431, 41.26389], [69.24428, 41.26384], [69.24311, 41.26375], [69.24199, 41.26352], [69.24192, 41.26366], [69.24055, 41.26333], [69.23497, 41.2622], [69.23356, 41.26172], [69.23289, 41.26142], [69.22942, 41.2598], [69.22945, 41.25975], [69.22921, 41.25958], [69.22834, 41.2592], [69.22837, 41.25917], [69.22822, 41.25909], [69.22703, 41.25853], [69.22678, 41.25846], [69.22679, 41.25843], [69.22538, 41.25778], [69.22526, 41.25781], [69.22411, 41.25732], [69.21674, 41.2539], [69.21653, 41.25372], [69.21188, 41.25114], [69.20904, 41.24949], [69.19462, 41.24043], [69.19494, 41.23997], [69.19522, 41.23921], [69.19543, 41.23885], [69.19649, 41.23734], [69.20061, 41.23183], [69.20435, 41.22661], [69.20627, 41.22403], [69.20908, 41.22007], [69.20989, 41.21903], [69.2176, 41.20838], [69.21995, 41.20497], [69.24493, 41.21529], [69.2453, 41.21264]]]}}, {"type": "Feature", "properties": {"district_id": "1726287", "soato_code": "1726287", "cadastre_prefix": "1005", "district_name_uz_latin": "Yakkasaroy tumani", "district_name_uz_cyrillic": "Яккасарой тумани", "district_name_ru": "Яккасарайский район", "district_name_en": "Yakkasaray District", "official_name": "Yakkasaroy tumani", "former_names": "Frunze tumani (1936-1992)", "parent_city": "Toshkent shahri (Tashkent City)", "parent_soato": "1726", "area_km2_geodesic": 14.253, "population_latest": 146000, "population_latest_reference_date": "2026-01-01", "population_prev": 143800, "population_prev_reference_date": "2025-10-01", "number_of_mahallas_official": 21, "mahallas_with_official_polygon": 16, "district_center": "Bobur koʻchasi 4, 100100", "latitude_centroid": 41.28084, "longitude_centroid": 69.24801, "official_boundary_available": "YES", "boundary_source": "Kadastr agentligi / Davlat kadastr palatasi - Milliy geoaxborot portali (open.ngis.uz), service Hosted/TUMAN_BORDER", "boundary_source_url": "https://db.ngis.uz/db/rest/services/Hosted/TUMAN_BORDER/FeatureServer/2", "geometry_status": "OFFICIAL", "geometry_source_crs": "EPSG:32642 (WGS84 / UTM 42N)", "geometry_crs": "EPSG:4326", "geometry_simplification": "maxAllowableOffset 0.00003 deg (~3 m)", "legal_document_defining_name": "Presidium of Supreme Soviet Decree No. 579-XII", "legal_document_date": "1992-05-08", "legal_document_url": "https://lex.uz/ru/docs/281121", "last_verified_date": "2026-09-18", "confidence": "A", "notes": "Area recomputed geodesically. The service attribute st_area_sh is a Web-Mercator area and overstates true area by ~1.772x (1/cos^2(41.3deg)) - do not use it."}, "geometry": {"type": "Polygon", "coordinates": [[[69.26733, 41.30493], [69.26903, 41.30906], [69.26761, 41.3094], [69.26493, 41.31047], [69.26401, 41.31075], [69.26344, 41.31085], [69.25999, 41.31109], [69.25976, 41.3105], [69.259, 41.31012], [69.25887, 41.31], [69.25835, 41.30906], [69.2552, 41.30587], [69.25531, 41.30579], [69.25378, 41.30425], [69.25369, 41.30425], [69.25352, 41.30339], [69.25328, 41.30317], [69.25302, 41.30302], [69.2525, 41.30242], [69.25223, 41.30232], [69.25173, 41.3023], [69.25147, 41.30221], [69.25104, 41.30176], [69.2508, 41.30157], [69.25024, 41.30127], [69.24948, 41.30104], [69.24922, 41.30089], [69.24838, 41.30015], [69.24355, 41.29779], [69.24248, 41.29741], [69.24201, 41.29735], [69.24205, 41.29661], [69.24201, 41.2963], [69.24206, 41.29607], [69.24161, 41.29514], [69.24123, 41.29493], [69.24072, 41.29488], [69.24057, 41.29482], [69.2402, 41.29396], [69.2401, 41.29382], [69.23953, 41.29354], [69.23875, 41.29284], [69.23834, 41.29237], [69.23795, 41.29202], [69.23773, 41.29173], [69.23766, 41.29133], [69.23769, 41.29084], [69.23776, 41.29037], [69.23797, 41.28962], [69.23771, 41.28895], [69.23746, 41.28815], [69.23723, 41.28787], [69.23684, 41.28723], [69.23667, 41.28704], [69.23576, 41.28668], [69.23533, 41.28639], [69.23513, 41.28613], [69.23501, 41.28569], [69.23496, 41.28523], [69.23479, 41.2851], [69.23474, 41.28428], [69.23489, 41.28426], [69.23478, 41.28315], [69.2348, 41.28241], [69.23461, 41.28182], [69.23462, 41.28135], [69.23456, 41.28116], [69.23324, 41.28042], [69.23288, 41.28015], [69.23194, 41.28006], [69.23171, 41.27995], [69.2313, 41.27953], [69.23002, 41.27916], [69.2297, 41.27889], [69.22941, 41.27843], [69.22922, 41.27824], [69.2286, 41.27782], [69.22785, 41.27716], [69.22598, 41.27564], [69.22586, 41.27546], [69.22549, 41.27443], [69.22474, 41.27342], [69.22445, 41.27289], [69.22388, 41.27246], [69.22337, 41.27189], [69.22329, 41.27177], [69.22306, 41.27111], [69.22277, 41.27053], [69.22252, 41.2703], [69.22222, 41.26987], [69.22189, 41.26967], [69.2217, 41.26947], [69.22177, 41.26906], [69.22139, 41.26876], [69.22129, 41.26862], [69.22119, 41.26841], [69.22095, 41.26727], [69.22062, 41.26674], [69.22029, 41.26642], [69.21971, 41.26601], [69.21898, 41.26527], [69.21838, 41.26476], [69.21852, 41.2645], [69.21848, 41.26412], [69.21857, 41.26382], [69.21846, 41.26285], [69.21832, 41.26243], [69.2182, 41.26219], [69.2175, 41.26145], [69.21727, 41.26127], [69.21646, 41.26015], [69.21575, 41.25891], [69.21553, 41.25815], [69.21515, 41.25735], [69.21432, 41.25633], [69.21407, 41.25578], [69.21403, 41.2555], [69.21407, 41.25514], [69.21435, 41.2543], [69.21452, 41.25401], [69.2151, 41.25353], [69.21539, 41.25307], [69.21653, 41.25372], [69.21674, 41.2539], [69.21748, 41.25428], [69.22411, 41.25732], [69.22526, 41.25781], [69.22538, 41.25778], [69.22679, 41.25843], [69.22678, 41.25846], [69.22703, 41.25853], [69.22822, 41.25909], [69.22837, 41.25917], [69.22834, 41.2592], [69.22921, 41.25958], [69.22945, 41.25975], [69.22942, 41.2598], [69.23356, 41.26172], [69.23465, 41.26212], [69.24055, 41.26333], [69.24192, 41.26366], [69.24199, 41.26352], [69.24311, 41.26375], [69.24428, 41.26384], [69.24431, 41.26389], [69.24461, 41.26392], [69.2451, 41.26385], [69.24519, 41.26379], [69.24551, 41.26374], [69.24557, 41.26386], [69.2463, 41.26377], [69.24719, 41.26373], [69.24785, 41.26376], [69.2519, 41.26445], [69.25253, 41.2645], [69.25251, 41.26465], [69.25483, 41.26509], [69.25486, 41.26501], [69.25685, 41.26544], [69.25726, 41.26521], [69.25777, 41.26575], [69.25816, 41.26606], [69.25965, 41.26672], [69.25969, 41.26665], [69.26057, 41.26696], [69.2626, 41.26732], [69.26235, 41.26761], [69.26352, 41.26812], [69.26413, 41.26848], [69.26509, 41.2692], [69.26598, 41.27002], [69.26735, 41.27143], [69.273, 41.27775], [69.269, 41.28023], [69.2678, 41.28178], [69.26562, 41.28479], [69.26521, 41.28521], [69.2664, 41.28553], [69.2661, 41.28647], [69.26575, 41.28738], [69.2664, 41.28754], [69.26765, 41.28866], [69.26859, 41.28923], [69.26915, 41.28949], [69.26914, 41.29065], [69.26953, 41.29093], [69.27002, 41.29147], [69.26997, 41.29165], [69.27002, 41.29176], [69.27148, 41.29265], [69.27, 41.29409], [69.26881, 41.29561], [69.26742, 41.30061], [69.26716, 41.30108], [69.26653, 41.30187], [69.2671, 41.30423], [69.26733, 41.30493]]]}}, {"type": "Feature", "properties": {"district_id": "1726290", "soato_code": "1726290", "cadastre_prefix": "1004", "district_name_uz_latin": "Yashnobod tumani", "district_name_uz_cyrillic": "Яшнобод тумани", "district_name_ru": "Яшнободский район", "district_name_en": "Yashnobod District", "official_name": "Yashnobod tumani", "former_names": "Hamza tumani (-2014)", "parent_city": "Toshkent shahri (Tashkent City)", "parent_soato": "1726", "area_km2_geodesic": 58.89, "population_latest": 319800, "population_latest_reference_date": "2026-01-01", "population_prev": 315800, "population_prev_reference_date": "2025-10-01", "number_of_mahallas_official": 67, "mahallas_with_official_polygon": 55, "district_center": "NULL", "latitude_centroid": 41.2901, "longitude_centroid": 69.3577, "official_boundary_available": "YES", "boundary_source": "Kadastr agentligi / Davlat kadastr palatasi - Milliy geoaxborot portali (open.ngis.uz), service Hosted/TUMAN_BORDER", "boundary_source_url": "https://db.ngis.uz/db/rest/services/Hosted/TUMAN_BORDER/FeatureServer/2", "geometry_status": "OFFICIAL", "geometry_source_crs": "EPSG:32642 (WGS84 / UTM 42N)", "geometry_crs": "EPSG:4326", "geometry_simplification": "maxAllowableOffset 0.00003 deg (~3 m)", "legal_document_defining_name": "Senate of Oliy Majlis Resolution No. PS-441-II", "legal_document_date": "2014-08-29", "legal_document_url": "https://www.lex.uz/ru/docs/2466827", "last_verified_date": "2026-09-18", "confidence": "A", "notes": "Area recomputed geodesically. The service attribute st_area_sh is a Web-Mercator area and overstates true area by ~1.772x (1/cos^2(41.3deg)) - do not use it."}, "geometry": {"type": "Polygon", "coordinates": [[[69.42474, 41.30632], [69.42514, 41.30645], [69.42609, 41.30722], [69.42715, 41.30769], [69.4279, 41.30834], [69.42877, 41.30891], [69.42887, 41.30918], [69.42875, 41.30938], [69.42923, 41.31031], [69.43022, 41.31102], [69.43077, 41.3112], [69.43218, 41.31135], [69.43313, 41.31161], [69.43415, 41.31168], [69.43453, 41.31199], [69.43479, 41.3123], [69.43478, 41.31277], [69.43487, 41.31293], [69.43678, 41.31452], [69.43706, 41.31482], [69.43767, 41.31519], [69.43852, 41.3156], [69.43946, 41.31591], [69.4409, 41.31649], [69.44112, 41.31665], [69.44177, 41.31737], [69.44285, 41.31793], [69.4431, 41.31804], [69.44359, 41.31815], [69.44423, 41.31821], [69.44456, 41.31844], [69.44595, 41.31908], [69.44685, 41.31959], [69.4483, 41.32077], [69.43734, 41.32463], [69.4357, 41.32509], [69.43353, 41.32555], [69.43212, 41.32576], [69.43075, 41.3259], [69.42823, 41.32601], [69.42542, 41.32589], [69.4216, 41.3254], [69.4144, 41.32437], [69.39197, 41.32064], [69.3899, 41.32028], [69.38815, 41.3199], [69.3852, 41.31909], [69.38228, 41.31805], [69.37485, 41.3148], [69.37103, 41.31329], [69.35918, 41.3092], [69.35723, 41.30857], [69.35469, 41.30791], [69.35179, 41.30734], [69.34944, 41.30701], [69.34296, 41.30629], [69.34298, 41.30675], [69.34148, 41.30661], [69.34118, 41.30669], [69.34106, 41.30679], [69.34097, 41.30694], [69.34106, 41.30718], [69.3407, 41.30742], [69.34026, 41.30709], [69.33983, 41.30695], [69.33931, 41.30697], [69.33873, 41.30724], [69.33636, 41.30941], [69.33589, 41.30978], [69.33319, 41.31181], [69.33215, 41.31247], [69.32947, 41.31448], [69.3289, 41.3148], [69.32836, 41.31492], [69.32142, 41.31564], [69.3205, 41.31579], [69.3196, 41.31606], [69.31624, 41.31729], [69.31372, 41.31836], [69.31238, 41.31879], [69.31209, 41.31796], [69.31176, 41.31735], [69.31005, 41.31486], [69.30847, 41.31269], [69.30774, 41.31299], [69.30782, 41.31395], [69.30808, 41.31426], [69.30694, 41.31476], [69.30629, 41.31519], [69.3056, 41.31545], [69.30516, 41.31556], [69.3052, 41.31471], [69.30555, 41.31369], [69.30585, 41.31317], [69.30587, 41.31271], [69.30572, 41.31242], [69.30485, 41.31199], [69.30365, 41.31178], [69.30297, 41.31184], [69.30281, 41.31191], [69.30248, 41.31216], [69.30236, 41.31232], [69.30229, 41.31256], [69.30215, 41.31257], [69.3018, 41.31244], [69.30151, 41.3119], [69.30137, 41.31178], [69.30122, 41.31173], [69.30098, 41.31174], [69.3006, 41.31203], [69.30036, 41.31208], [69.30015, 41.31201], [69.29984, 41.31165], [69.29938, 41.31094], [69.29921, 41.31078], [69.29884, 41.31056], [69.2984, 41.31043], [69.2977, 41.31045], [69.29774, 41.30999], [69.29835, 41.30913], [69.29822, 41.30839], [69.29837, 41.30757], [69.2962, 41.30711], [69.29516, 41.30709], [69.29435, 41.30717], [69.2934, 41.30741], [69.29324, 41.3075], [69.29291, 41.30759], [69.29249, 41.30765], [69.29202, 41.30783], [69.28834, 41.3089], [69.28177, 41.31071], [69.28134, 41.31016], [69.28085, 41.30985], [69.28151, 41.30926], [69.28254, 41.30818], [69.28803, 41.3027], [69.29019, 41.3004], [69.2915, 41.29935], [69.29168, 41.2991], [69.29177, 41.29881], [69.29175, 41.29768], [69.2919, 41.29736], [69.29206, 41.29715], [69.29236, 41.29692], [69.29279, 41.29674], [69.29314, 41.29667], [69.29413, 41.29659], [69.29441, 41.29649], [69.29473, 41.29627], [69.29642, 41.29443], [69.29814, 41.2927], [69.30022, 41.29043], [69.30179, 41.28851], [69.30277, 41.28717], [69.30387, 41.28552], [69.30446, 41.28453], [69.30573, 41.2822], [69.30607, 41.27951], [69.30621, 41.27928], [69.30747, 41.27822], [69.30795, 41.27769], [69.31464, 41.26572], [69.31708, 41.26162], [69.32101, 41.25461], [69.32191, 41.25313], [69.32307, 41.25093], [69.32785, 41.24243], [69.32832, 41.24168], [69.32893, 41.24089], [69.3294, 41.24103], [69.33055, 41.23901], [69.33159, 41.23813], [69.33297, 41.2386], [69.33383, 41.23911], [69.3343, 41.23951], [69.33772, 41.24289], [69.33865, 41.24353], [69.33954, 41.24396], [69.34019, 41.24419], [69.34694, 41.246], [69.34824, 41.24647], [69.35239, 41.24872], [69.35334, 41.24936], [69.35494, 41.25063], [69.35562, 41.25131], [69.35657, 41.25242], [69.36653, 41.26699], [69.36663, 41.26705], [69.36699, 41.26723], [69.36763, 41.26732], [69.36774, 41.26726], [69.3741, 41.26226], [69.37478, 41.26228], [69.37569, 41.26287], [69.37703, 41.26418], [69.3781, 41.26556], [69.37907, 41.2674], [69.37939, 41.26823], [69.37971, 41.26937], [69.38017, 41.26993], [69.3803, 41.27001], [69.38076, 41.27015], [69.38114, 41.27016], [69.38146, 41.27007], [69.38193, 41.27019], [69.38245, 41.27061], [69.38307, 41.27083], [69.38368, 41.27112], [69.38396, 41.27138], [69.38406, 41.27198], [69.38444, 41.27279], [69.38458, 41.273], [69.38496, 41.27331], [69.3854, 41.27357], [69.38638, 41.27428], [69.3876, 41.275], [69.38843, 41.27531], [69.38909, 41.27549], [69.38984, 41.27599], [69.39028, 41.27647], [69.39138, 41.27787], [69.3922, 41.27836], [69.39252, 41.27862], [69.39391, 41.2794], [69.39417, 41.27985], [69.39471, 41.28045], [69.39571, 41.28118], [69.39718, 41.28258], [69.39733, 41.28286], [69.39779, 41.28319], [69.39874, 41.28405], [69.39956, 41.28491], [69.39991, 41.28514], [69.40184, 41.28673], [69.40237, 41.28703], [69.40272, 41.2874], [69.40321, 41.28779], [69.40371, 41.28815], [69.40398, 41.28825], [69.4046, 41.28866], [69.40483, 41.28915], [69.40504, 41.28941], [69.40559, 41.28992], [69.40635, 41.29046], [69.40698, 41.29106], [69.4074, 41.29157], [69.40788, 41.29201], [69.4084, 41.29262], [69.40904, 41.29314], [69.40962, 41.29379], [69.40997, 41.29403], [69.41017, 41.2943], [69.41097, 41.29487], [69.41138, 41.29508], [69.41175, 41.29545], [69.41415, 41.29699], [69.41537, 41.29769], [69.41734, 41.29918], [69.41827, 41.29967], [69.41872, 41.30027], [69.41932, 41.30119], [69.41982, 41.30174], [69.42028, 41.3021], [69.42042, 41.30245], [69.42064, 41.30274], [69.42189, 41.30349], [69.42236, 41.30408], [69.42412, 41.30595], [69.42474, 41.30632]]]}}, {"type": "Feature", "properties": {"district_id": "1726292", "soato_code": "1726292", "cadastre_prefix": "1012", "district_name_uz_latin": "Yangihayot tumani", "district_name_uz_cyrillic": "Янгиҳаёт тумани", "district_name_ru": "Янгихаётский район", "district_name_en": "Yangihayot District", "official_name": "Yangihayot tumani", "former_names": "NULL (district created 2020)", "parent_city": "Toshkent shahri (Tashkent City)", "parent_soato": "1726", "area_km2_geodesic": 44.253, "population_latest": 203000, "population_latest_reference_date": "2026-01-01", "population_prev": 198400, "population_prev_reference_date": "2025-10-01", "number_of_mahallas_official": 30, "mahallas_with_official_polygon": 29, "district_center": "Sputnik C-1 1A, 100102", "latitude_centroid": 41.19275, "longitude_centroid": 69.23852, "official_boundary_available": "YES", "boundary_source": "Kadastr agentligi / Davlat kadastr palatasi - Milliy geoaxborot portali (open.ngis.uz), service Hosted/TUMAN_BORDER", "boundary_source_url": "https://db.ngis.uz/db/rest/services/Hosted/TUMAN_BORDER/FeatureServer/2", "geometry_status": "OFFICIAL", "geometry_source_crs": "EPSG:32642 (WGS84 / UTM 42N)", "geometry_crs": "EPSG:4326", "geometry_simplification": "maxAllowableOffset 0.00003 deg (~3 m)", "legal_document_defining_name": "Legislative Chamber Res. No. 443-IV (Senate res. number NOT FOUND)", "legal_document_date": "2020-09-08", "legal_document_url": "https://lex.uz/docs/5187492", "last_verified_date": "2026-09-18", "confidence": "A", "notes": "Area recomputed geodesically. The service attribute st_area_sh is a Web-Mercator area and overstates true area by ~1.772x (1/cos^2(41.3deg)) - do not use it."}, "geometry": {"type": "Polygon", "coordinates": [[[69.20908, 41.22007], [69.20714, 41.22282], [69.20435, 41.22661], [69.20061, 41.23183], [69.19649, 41.23734], [69.19543, 41.23885], [69.19522, 41.23921], [69.19494, 41.23997], [69.19466, 41.2404], [69.18948, 41.23717], [69.18872, 41.23665], [69.18789, 41.236], [69.18671, 41.23489], [69.17831, 41.22651], [69.17585, 41.22401], [69.17537, 41.22347], [69.17483, 41.22274], [69.17437, 41.22198], [69.17404, 41.22131], [69.17292, 41.21867], [69.17324, 41.21889], [69.1735, 41.21942], [69.1738, 41.21967], [69.17406, 41.21981], [69.17431, 41.21988], [69.17468, 41.21982], [69.17485, 41.21969], [69.17478, 41.21946], [69.17568, 41.21938], [69.17584, 41.21951], [69.17604, 41.21981], [69.17731, 41.21943], [69.17752, 41.21931], [69.17762, 41.21923], [69.17756, 41.21918], [69.17776, 41.21902], [69.17781, 41.21905], [69.17821, 41.21875], [69.17833, 41.21887], [69.1799, 41.21808], [69.18065, 41.21902], [69.18401, 41.21683], [69.18283, 41.2157], [69.18144, 41.21455], [69.18521, 41.21182], [69.18528, 41.21168], [69.18517, 41.21144], [69.18519, 41.21116], [69.1851, 41.211], [69.18492, 41.21091], [69.18479, 41.21078], [69.18479, 41.21064], [69.18487, 41.21049], [69.18439, 41.21032], [69.1841, 41.21015], [69.18404, 41.20998], [69.18373, 41.20951], [69.18339, 41.20875], [69.18275, 41.20836], [69.18272, 41.20821], [69.18289, 41.20766], [69.18291, 41.20745], [69.18288, 41.20729], [69.18281, 41.20721], [69.18271, 41.20712], [69.18143, 41.20665], [69.18287, 41.20596], [69.18372, 41.20561], [69.18566, 41.20498], [69.18526, 41.20403], [69.18499, 41.20311], [69.1848, 41.20201], [69.18475, 41.20117], [69.18479, 41.20036], [69.18496, 41.19928], [69.1853, 41.19815], [69.18569, 41.19724], [69.18633, 41.19614], [69.18721, 41.195], [69.20122, 41.17928], [69.20239, 41.17808], [69.20287, 41.17765], [69.20421, 41.17663], [69.20562, 41.17573], [69.20692, 41.17505], [69.20909, 41.17415], [69.22586, 41.16899], [69.2284, 41.16813], [69.2309, 41.16738], [69.23371, 41.16662], [69.23528, 41.16631], [69.23734, 41.16604], [69.23902, 41.16596], [69.24495, 41.16603], [69.24656, 41.16597], [69.25809, 41.1647], [69.26981, 41.16351], [69.27194, 41.16346], [69.27347, 41.16353], [69.27513, 41.16371], [69.27696, 41.16405], [69.27879, 41.16453], [69.28044, 41.16511], [69.28222, 41.1659], [69.28396, 41.16688], [69.30315, 41.17936], [69.31422, 41.18776], [69.28849, 41.20576], [69.28679, 41.20498], [69.28605, 41.20499], [69.28309, 41.20481], [69.28244, 41.20467], [69.28134, 41.20451], [69.28112, 41.20473], [69.28101, 41.20478], [69.28062, 41.20483], [69.28041, 41.20505], [69.27907, 41.20422], [69.2757, 41.20229], [69.27267, 41.20048], [69.26978, 41.19921], [69.26888, 41.19874], [69.26534, 41.19715], [69.2637, 41.19631], [69.26263, 41.19564], [69.25818, 41.19238], [69.2567, 41.19165], [69.2564, 41.19141], [69.25235, 41.19392], [69.25109, 41.19481], [69.25041, 41.19545], [69.24918, 41.19685], [69.24831, 41.19794], [69.24799, 41.19845], [69.2474, 41.19977], [69.24662, 41.20256], [69.2454, 41.21087], [69.24532, 41.21163], [69.24532, 41.21255], [69.24493, 41.21529], [69.21995, 41.20497], [69.2176, 41.20838], [69.20989, 41.21903], [69.20908, 41.22007]]]}}, {"type": "Feature", "properties": {"district_id": "1726294", "soato_code": "1726294", "cadastre_prefix": "1003", "district_name_uz_latin": "Chilonzor tumani", "district_name_uz_cyrillic": "Чилонзор тумани", "district_name_ru": "Чиланзарский район", "district_name_en": "Chilanzar District", "official_name": "Chilonzor tumani", "former_names": "NULL", "parent_city": "Toshkent shahri (Tashkent City)", "parent_soato": "1726", "area_km2_geodesic": 30.479, "population_latest": 277800, "population_latest_reference_date": "2026-01-01", "population_prev": 277000, "population_prev_reference_date": "2025-10-01", "number_of_mahallas_official": 55, "mahallas_with_official_polygon": 32, "district_center": "Bunyodkor shoh koʻchasi 50, 100135", "latitude_centroid": 41.27004, "longitude_centroid": 69.20038, "official_boundary_available": "YES", "boundary_source": "Kadastr agentligi / Davlat kadastr palatasi - Milliy geoaxborot portali (open.ngis.uz), service Hosted/TUMAN_BORDER", "boundary_source_url": "https://db.ngis.uz/db/rest/services/Hosted/TUMAN_BORDER/FeatureServer/2", "geometry_status": "OFFICIAL", "geometry_source_crs": "EPSG:32642 (WGS84 / UTM 42N)", "geometry_crs": "EPSG:4326", "geometry_simplification": "maxAllowableOffset 0.00003 deg (~3 m)", "legal_document_defining_name": "NULL", "legal_document_date": "NULL", "legal_document_url": "NULL", "last_verified_date": "2026-09-18", "confidence": "A", "notes": "Area recomputed geodesically. The service attribute st_area_sh is a Web-Mercator area and overstates true area by ~1.772x (1/cos^2(41.3deg)) - do not use it."}, "geometry": {"type": "Polygon", "coordinates": [[[69.2538, 41.30428], [69.25531, 41.30579], [69.2552, 41.30587], [69.25835, 41.30906], [69.25887, 41.31], [69.259, 41.31012], [69.25976, 41.3105], [69.25999, 41.31109], [69.24064, 41.31185], [69.24047, 41.31175], [69.24041, 41.31159], [69.24033, 41.31107], [69.2401, 41.31018], [69.23377, 41.30216], [69.23143, 41.29966], [69.22379, 41.30221], [69.22341, 41.30229], [69.22286, 41.30231], [69.22239, 41.30226], [69.22192, 41.30212], [69.22044, 41.30132], [69.21955, 41.30108], [69.21901, 41.30102], [69.20123, 41.30058], [69.20056, 41.30068], [69.20075, 41.30104], [69.19839, 41.30229], [69.19749, 41.30249], [69.19738, 41.30226], [69.1973, 41.30224], [69.19714, 41.30184], [69.19385, 41.30296], [69.19422, 41.29233], [69.19473, 41.28085], [69.19799, 41.2787], [69.19596, 41.27663], [69.1936, 41.27535], [69.1929, 41.27514], [69.18432, 41.27309], [69.17727, 41.2715], [69.17611, 41.27119], [69.17562, 41.27097], [69.17223, 41.26887], [69.17117, 41.26983], [69.16804, 41.26802], [69.16787, 41.26778], [69.16714, 41.26789], [69.16651, 41.26807], [69.16579, 41.2682], [69.16404, 41.26872], [69.16382, 41.26856], [69.16262, 41.26701], [69.1619, 41.26637], [69.16154, 41.26613], [69.16031, 41.26547], [69.15791, 41.26423], [69.15449, 41.26297], [69.14869, 41.26101], [69.14933, 41.26031], [69.15016, 41.25955], [69.15454, 41.25634], [69.15795, 41.25426], [69.15995, 41.2531], [69.16103, 41.25236], [69.16212, 41.25147], [69.16301, 41.25051], [69.16335, 41.25006], [69.16381, 41.24926], [69.16414, 41.24854], [69.16627, 41.24209], [69.16628, 41.24193], [69.16665, 41.24098], [69.16677, 41.24018], [69.16674, 41.23988], [69.16663, 41.23963], [69.16587, 41.23883], [69.16566, 41.23847], [69.16546, 41.23679], [69.16519, 41.23641], [69.16473, 41.236], [69.1651, 41.23566], [69.16566, 41.23567], [69.16697, 41.23529], [69.16805, 41.23515], [69.16848, 41.23501], [69.16886, 41.23479], [69.16908, 41.23459], [69.17214, 41.23085], [69.17226, 41.2307], [69.17218, 41.23065], [69.17373, 41.22888], [69.17384, 41.22874], [69.17381, 41.22865], [69.17415, 41.22832], [69.17387, 41.22736], [69.17392, 41.22718], [69.17238, 41.2265], [69.17224, 41.22637], [69.17261, 41.22616], [69.17284, 41.22594], [69.17295, 41.22576], [69.17193, 41.22518], [69.17205, 41.22505], [69.17227, 41.22499], [69.17294, 41.22415], [69.17393, 41.2231], [69.17432, 41.22275], [69.1747, 41.22255], [69.1755, 41.22362], [69.17685, 41.22504], [69.18716, 41.23533], [69.18789, 41.236], [69.18872, 41.23665], [69.18963, 41.23726], [69.19466, 41.2404], [69.19462, 41.24043], [69.20771, 41.24868], [69.21188, 41.25114], [69.21539, 41.25307], [69.2151, 41.25353], [69.21452, 41.25401], [69.21435, 41.2543], [69.21407, 41.25514], [69.21403, 41.2555], [69.21407, 41.25578], [69.21432, 41.25633], [69.21515, 41.25735], [69.21553, 41.25815], [69.21575, 41.25891], [69.21646, 41.26015], [69.21727, 41.26127], [69.2175, 41.26145], [69.2182, 41.26219], [69.21832, 41.26243], [69.21846, 41.26285], [69.21857, 41.26382], [69.21848, 41.26412], [69.21852, 41.2645], [69.21838, 41.26476], [69.21898, 41.26527], [69.21971, 41.26601], [69.22029, 41.26642], [69.22062, 41.26674], [69.22095, 41.26727], [69.22119, 41.26841], [69.22129, 41.26862], [69.22139, 41.26876], [69.22177, 41.26906], [69.2217, 41.26947], [69.22189, 41.26967], [69.22222, 41.26987], [69.22252, 41.2703], [69.22277, 41.27053], [69.22306, 41.27111], [69.22329, 41.27177], [69.22337, 41.27189], [69.22388, 41.27246], [69.22445, 41.27289], [69.22474, 41.27342], [69.22549, 41.27443], [69.22586, 41.27546], [69.22598, 41.27564], [69.22785, 41.27716], [69.2286, 41.27782], [69.22922, 41.27824], [69.22941, 41.27843], [69.2297, 41.27889], [69.23002, 41.27916], [69.2313, 41.27953], [69.23171, 41.27995], [69.23194, 41.28006], [69.23288, 41.28015], [69.23324, 41.28042], [69.23456, 41.28116], [69.23462, 41.28135], [69.23461, 41.28182], [69.2348, 41.28241], [69.23478, 41.28315], [69.23489, 41.28426], [69.23474, 41.28428], [69.23479, 41.2851], [69.23496, 41.28523], [69.23501, 41.28569], [69.23513, 41.28613], [69.23522, 41.28629], [69.23576, 41.28668], [69.23667, 41.28704], [69.23684, 41.28723], [69.23723, 41.28787], [69.23746, 41.28815], [69.23771, 41.28895], [69.23797, 41.28962], [69.23776, 41.29037], [69.23766, 41.29133], [69.23768, 41.29163], [69.23782, 41.29188], [69.23834, 41.29237], [69.23875, 41.29284], [69.23953, 41.29354], [69.2401, 41.29382], [69.2402, 41.29396], [69.24057, 41.29482], [69.24072, 41.29488], [69.24123, 41.29493], [69.24161, 41.29514], [69.24206, 41.29607], [69.24201, 41.2963], [69.24205, 41.29661], [69.24201, 41.29735], [69.24248, 41.29741], [69.24355, 41.29779], [69.24838, 41.30015], [69.24922, 41.30089], [69.24948, 41.30104], [69.25024, 41.30127], [69.2508, 41.30157], [69.25104, 41.30176], [69.25147, 41.30221], [69.25173, 41.3023], [69.25223, 41.30232], [69.2525, 41.30242], [69.25302, 41.30302], [69.25328, 41.30317], [69.25352, 41.30339], [69.25369, 41.30425], [69.2538, 41.30428]]]}}]}