{"type":"FeatureCollection","meta":{"source":"Toshkent shahar chegarasi (2024)","derivedFrom":"os/data/tashkent_districts.geojson","simplification":"Douglas-Peucker tolerance 8e-05 deg (~9 m), coordinates rounded to 5 dp","maxAreaDriftPct":0.076},"features":[{"type":"Feature","properties":{"name":"Yangihayot","name_ru":"Янгихаёт","tuman":"Янгиҳаёт","area_ha":4423.58,"source":"Toshkent shahar chegarasi (2024)"},"geometry":{"type":"MultiPolygon","coordinates":[[[[69.24827,41.19808],[69.24911,41.19688],[69.25102,41.19486],[69.2564,41.19141],[69.25818,41.19238],[69.26263,41.19564],[69.2637,41.19631],[69.27267,41.20048],[69.28041,41.20505],[69.28133,41.2045],[69.28309,41.20481],[69.28679,41.20498],[69.28849,41.20576],[69.31422,41.18776],[69.30315,41.17936],[69.28467,41.16733],[69.28163,41.16562],[69.27952,41.16477],[69.2779,41.16428],[69.27406,41.16358],[69.27193,41.16346],[69.26981,41.16351],[69.24714,41.16593],[69.24495,41.16603],[69.23845,41.16597],[69.23668,41.16611],[69.23418,41.16651],[69.2284,41.16813],[69.20909,41.17415],[69.20562,41.17573],[69.20287,41.17765],[69.20122,41.17928],[69.18721,41.195],[69.18633,41.19613],[69.18569,41.19724],[69.18496,41.19928],[69.18475,41.20117],[69.18499,41.20311],[69.18566,41.20498],[69.18372,41.20561],[69.18143,41.20665],[69.18281,41.20721],[69.18291,41.20742],[69.18275,41.20836],[69.18339,41.20875],[69.1841,41.21015],[69.18487,41.21049],[69.18479,41.21078],[69.18519,41.21116],[69.18518,41.21146],[69.18533,41.21173],[69.18144,41.21455],[69.18401,41.21683],[69.18065,41.21902],[69.17989,41.21807],[69.1783,41.21888],[69.17817,41.21875],[69.17737,41.21938],[69.17603,41.21979],[69.17568,41.21938],[69.17477,41.21946],[69.17485,41.21969],[69.17456,41.21987],[69.17406,41.21981],[69.1735,41.21942],[69.17324,41.21889],[69.17292,41.21867],[69.17404,41.22131],[69.17482,41.22274],[69.17585,41.22401],[69.17831,41.22651],[69.18789,41.236],[69.18948,41.23717],[69.19466,41.2404],[69.19543,41.23885],[69.19649,41.23734],[69.20061,41.23183],[69.2176,41.20838],[69.22002,41.20487],[69.24494,41.21519],[69.24531,41.21192],[69.24675,41.20204],[69.24767,41.19917],[69.24827,41.19808]]]]}},{"type":"Feature","properties":{"name":"Sergeli","name_ru":"Сергели","tuman":"Сергели","area_ha":5207.31,"source":"Toshkent shahar chegarasi (2024)"},"geometry":{"type":"MultiPolygon","coordinates":[[[[69.24827,41.19808],[69.24767,41.19917],[69.24675,41.20204],[69.24531,41.21192],[69.24494,41.21519],[69.22002,41.20487],[69.2176,41.20838],[69.20061,41.23183],[69.19649,41.23734],[69.19543,41.23885],[69.19462,41.24043],[69.20904,41.24949],[69.21674,41.2539],[69.22407,41.25731],[69.22537,41.25778],[69.22832,41.25914],[69.22916,41.25955],[69.22938,41.25978],[69.23342,41.26166],[69.23497,41.2622],[69.24192,41.26366],[69.24198,41.26351],[69.24461,41.26392],[69.24551,41.26374],[69.24557,41.26386],[69.24784,41.26376],[69.25253,41.2645],[69.2525,41.26465],[69.25685,41.26544],[69.25726,41.26521],[69.25834,41.26617],[69.25964,41.26671],[69.25969,41.26663],[69.26058,41.26695],[69.26476,41.26783],[69.27757,41.27012],[69.28122,41.27119],[69.28288,41.27141],[69.28467,41.27124],[69.28641,41.27061],[69.2874,41.26997],[69.29312,41.26534],[69.29413,41.26488],[69.29519,41.26457],[69.29639,41.26442],[69.29763,41.26443],[69.29767,41.26338],[69.29805,41.2631],[69.30074,41.2631],[69.30269,41.2621],[69.30763,41.26466],[69.30794,41.26472],[69.30847,41.26452],[69.31125,41.26057],[69.30074,41.25615],[69.30105,41.25566],[69.30086,41.25531],[69.30092,41.25485],[69.30074,41.25435],[69.30101,41.25374],[69.30183,41.25266],[69.3017,41.24401],[69.31101,41.24399],[69.31328,41.24362],[69.31458,41.24312],[69.31537,41.24264],[69.31993,41.23883],[69.32112,41.23791],[69.32172,41.23761],[69.31751,41.23718],[69.31225,41.23282],[69.31152,41.23251],[69.30856,41.23198],[69.30833,41.23188],[69.30839,41.23156],[69.30713,41.23056],[69.30046,41.22812],[69.29884,41.22777],[69.29814,41.22743],[69.29707,41.22661],[69.29616,41.22617],[69.29544,41.2253],[69.29381,41.22488],[69.29257,41.22411],[69.29219,41.22416],[69.29184,41.22371],[69.2891,41.22164],[69.28978,41.22085],[69.28989,41.21851],[69.28735,41.21561],[69.28418,41.21413],[69.28405,41.21151],[69.28359,41.21002],[69.28271,41.20896],[69.28085,41.20721],[69.27933,41.20614],[69.28041,41.20505],[69.27267,41.20048],[69.2637,41.19631],[69.26263,41.19564],[69.25818,41.19238],[69.2564,41.19141],[69.25102,41.19486],[69.24911,41.19688],[69.24827,41.19808]]]]}},{"type":"Feature","properties":{"name":"Yashnobod","name_ru":"Яшнабад","tuman":"Яшнобод","area_ha":5887.18,"source":"Toshkent shahar chegarasi (2024)"},"geometry":{"type":"MultiPolygon","coordinates":[[[[69.30516,41.315],[69.30514,41.31556],[69.30642,41.31513],[69.30694,41.31476],[69.30808,41.31426],[69.30782,41.31395],[69.30774,41.31299],[69.30847,41.31269],[69.31176,41.31735],[69.31238,41.31879],[69.3205,41.31579],[69.3289,41.3148],[69.33589,41.30978],[69.33873,41.30724],[69.33931,41.30697],[69.33983,41.30695],[69.34026,41.30709],[69.34076,41.30747],[69.34111,41.30723],[69.34097,41.30694],[69.34118,41.30669],[69.34148,41.30661],[69.34298,41.30675],[69.34296,41.30629],[69.35179,41.30734],[69.35469,41.3079],[69.35723,41.30857],[69.37103,41.31329],[69.37485,41.3148],[69.38228,41.31805],[69.3852,41.31909],[69.38815,41.3199],[69.39197,41.32064],[69.4144,41.32437],[69.4216,41.3254],[69.4249,41.32584],[69.42823,41.32601],[69.43075,41.3259],[69.43353,41.32555],[69.43716,41.32469],[69.44828,41.32075],[69.44685,41.31959],[69.44595,41.31908],[69.44423,41.31821],[69.44285,41.31793],[69.44177,41.31737],[69.4409,41.31649],[69.43852,41.3156],[69.43706,41.31482],[69.43487,41.31293],[69.43479,41.3123],[69.43415,41.31168],[69.43073,41.31119],[69.43022,41.31102],[69.42931,41.31041],[69.42878,41.30946],[69.42887,41.30918],[69.42877,41.30891],[69.42715,41.30769],[69.42609,41.30722],[69.42514,41.30645],[69.42412,41.30595],[69.42189,41.30349],[69.42063,41.30273],[69.42028,41.3021],[69.41931,41.30119],[69.41827,41.29967],[69.41734,41.29918],[69.41537,41.29769],[69.41175,41.29545],[69.41138,41.29508],[69.41017,41.2943],[69.4084,41.29262],[69.40698,41.29106],[69.40504,41.28941],[69.4046,41.28865],[69.40321,41.28779],[69.39956,41.28491],[69.39571,41.28118],[69.39471,41.28045],[69.39391,41.2794],[69.39138,41.27787],[69.38984,41.27599],[69.38909,41.27549],[69.3876,41.275],[69.38496,41.27331],[69.38444,41.2728],[69.38405,41.27195],[69.38396,41.27138],[69.38368,41.27112],[69.38245,41.27061],[69.38193,41.27019],[69.38146,41.27007],[69.38076,41.27015],[69.38017,41.26993],[69.37971,41.26937],[69.37906,41.2674],[69.37797,41.26536],[69.37703,41.26418],[69.37531,41.2626],[69.37478,41.26228],[69.37406,41.26229],[69.36773,41.26726],[69.36698,41.26723],[69.36663,41.26705],[69.35657,41.25242],[69.35494,41.25063],[69.35239,41.24872],[69.34824,41.24647],[69.34694,41.246],[69.34019,41.24419],[69.33865,41.24353],[69.33772,41.24289],[69.33383,41.23911],[69.33297,41.2386],[69.33159,41.23813],[69.33055,41.23901],[69.3294,41.24103],[69.32893,41.24089],[69.32785,41.24243],[69.32191,41.25313],[69.31058,41.27293],[69.30753,41.27845],[69.30522,41.28319],[69.30277,41.28717],[69.30022,41.29043],[69.29473,41.29627],[69.29413,41.29659],[69.29279,41.29673],[69.29206,41.29715],[69.29175,41.29768],[69.29177,41.29881],[69.2915,41.29935],[69.29019,41.3004],[69.28803,41.3027],[69.28085,41.30985],[69.28134,41.31016],[69.28177,41.31071],[69.29401,41.30724],[69.29516,41.30709],[69.29634,41.30713],[69.29837,41.30757],[69.29821,41.30839],[69.29835,41.30913],[69.29774,41.30999],[69.2977,41.31045],[69.2984,41.31043],[69.29921,41.31078],[69.30015,41.31201],[69.3006,41.31203],[69.30098,41.31174],[69.30122,41.31173],[69.30151,41.3119],[69.3018,41.31243],[69.30227,41.31258],[69.30248,41.31216],[69.30281,41.31191],[69.30365,41.31178],[69.30485,41.31199],[69.30572,41.31242],[69.30587,41.31271],[69.30584,41.31316],[69.30551,41.31373],[69.30516,41.315]]]]}},{"type":"Feature","properties":{"name":"Mirobod","name_ru":"Мирабад","tuman":"Миробод","area_ha":1653.14,"source":"Toshkent shahar chegarasi (2024)"},"geometry":{"type":"MultiPolygon","coordinates":[[[[69.26487,41.26902],[69.26713,41.27119],[69.273,41.27775],[69.269,41.28023],[69.26521,41.28521],[69.2664,41.28553],[69.26575,41.28738],[69.2664,41.28754],[69.26765,41.28866],[69.26915,41.28949],[69.26914,41.29065],[69.27115,41.29245],[69.26881,41.29561],[69.26742,41.30061],[69.26653,41.30187],[69.26733,41.30493],[69.27053,41.31242],[69.2795,41.30998],[69.28072,41.30996],[69.28803,41.3027],[69.29019,41.3004],[69.2915,41.29935],[69.29177,41.29881],[69.29175,41.29768],[69.29206,41.29715],[69.29279,41.29673],[69.29413,41.29659],[69.29473,41.29627],[69.30022,41.29043],[69.30277,41.28717],[69.30522,41.28319],[69.30753,41.27845],[69.31058,41.27293],[69.32191,41.25313],[69.32785,41.24243],[69.32893,41.24089],[69.3294,41.24103],[69.32517,41.23912],[69.32396,41.23784],[69.32192,41.23751],[69.32112,41.23791],[69.31993,41.23883],[69.31537,41.24264],[69.31458,41.24312],[69.31328,41.24362],[69.31101,41.24399],[69.3017,41.24401],[69.30183,41.25266],[69.30101,41.25374],[69.30074,41.25435],[69.30092,41.25485],[69.30086,41.25531],[69.30105,41.25566],[69.30074,41.25615],[69.31125,41.26057],[69.30847,41.26452],[69.30821,41.26466],[69.30778,41.2647],[69.30737,41.26454],[69.30275,41.26211],[69.3025,41.26214],[69.30074,41.2631],[69.29805,41.2631],[69.29767,41.26338],[69.29763,41.26443],[69.2956,41.2645],[69.29437,41.26479],[69.29344,41.26517],[69.29226,41.26594],[69.28699,41.27027],[69.28558,41.27098],[69.2838,41.27137],[69.2816,41.27127],[69.27757,41.27012],[69.26476,41.26783],[69.2626,41.26732],[69.26235,41.26761],[69.26372,41.26822],[69.26487,41.26902]]]]}},{"type":"Feature","properties":{"name":"Yunusobod","name_ru":"Юнусабад","tuman":"Юнусобод","area_ha":4107.61,"source":"Toshkent shahar chegarasi (2024)"},"geometry":{"type":"MultiPolygon","coordinates":[[[[69.29656,41.32948],[69.29647,41.32934],[69.29655,41.32864],[69.29738,41.32851],[69.29811,41.32777],[69.29785,41.32617],[69.29641,41.32526],[69.29475,41.32569],[69.29432,41.32509],[69.29387,41.32502],[69.29325,41.32399],[69.29313,41.3233],[69.29269,41.32323],[69.29303,41.32268],[69.293,41.32248],[69.29166,41.32261],[69.2911,41.31923],[69.29186,41.31853],[69.29149,41.31809],[69.29078,41.3177],[69.28616,41.3182],[69.28402,41.31567],[69.28265,41.31427],[69.2809,41.31497],[69.28078,41.3149],[69.28029,41.31262],[69.28142,41.31202],[69.28171,41.31173],[69.28182,41.31118],[69.28163,41.3105],[69.28085,41.30985],[69.28072,41.30996],[69.2795,41.30998],[69.27053,41.31242],[69.26903,41.30906],[69.2649,41.31007],[69.26412,41.31072],[69.25999,41.31109],[69.26033,41.31184],[69.26086,41.31213],[69.26323,41.31234],[69.26348,41.31293],[69.26425,41.31361],[69.26547,41.31691],[69.26579,41.3174],[69.26659,41.31816],[69.26806,41.3218],[69.26923,41.32289],[69.26995,41.32506],[69.2708,41.32588],[69.27084,41.32631],[69.27047,41.32751],[69.27046,41.32797],[69.27126,41.32914],[69.27238,41.32969],[69.27295,41.33021],[69.27301,41.33144],[69.2732,41.33203],[69.27287,41.33282],[69.27301,41.33374],[69.2738,41.33478],[69.27456,41.33706],[69.27491,41.33743],[69.26301,41.34414],[69.26414,41.3454],[69.26432,41.34599],[69.26477,41.34651],[69.266,41.34747],[69.2631,41.34922],[69.26734,41.35352],[69.26969,41.35569],[69.2614,41.36346],[69.25686,41.36658],[69.25479,41.36781],[69.25246,41.36959],[69.24733,41.37418],[69.24428,41.37644],[69.24154,41.37807],[69.24072,41.3787],[69.23858,41.38095],[69.23799,41.38181],[69.23698,41.38478],[69.23631,41.38591],[69.22812,41.3951],[69.23135,41.39708],[69.2341,41.39807],[69.23666,41.39852],[69.24313,41.39843],[69.25845,41.39785],[69.26096,41.39731],[69.26324,41.39649],[69.28039,41.38564],[69.28198,41.38484],[69.28454,41.38402],[69.28781,41.38372],[69.30086,41.384],[69.30602,41.38467],[69.31172,41.38518],[69.31492,41.38506],[69.3163,41.38477],[69.31722,41.38442],[69.31798,41.38391],[69.31898,41.38275],[69.32019,41.37972],[69.3241,41.37108],[69.32507,41.36976],[69.33828,41.35959],[69.34431,41.35592],[69.34309,41.35577],[69.34176,41.3554],[69.33672,41.35308],[69.33541,41.35228],[69.3336,41.35064],[69.33316,41.35088],[69.33258,41.35098],[69.32548,41.35106],[69.32573,41.35024],[69.3255,41.34978],[69.32534,41.3485],[69.32518,41.34811],[69.32462,41.34757],[69.32291,41.3475],[69.32215,41.34703],[69.32131,41.34536],[69.31917,41.34366],[69.31886,41.3432],[69.31885,41.34153],[69.3185,41.34099],[69.31705,41.34034],[69.31683,41.33943],[69.316,41.33919],[69.31554,41.33861],[69.31542,41.33738],[69.31567,41.33665],[69.31594,41.33633],[69.31679,41.33589],[69.31694,41.33523],[69.31689,41.33442],[69.31637,41.33346],[69.31597,41.33317],[69.31384,41.3323],[69.31304,41.3332],[69.31161,41.33539],[69.31073,41.33804],[69.30996,41.33946],[69.30934,41.33919],[69.30885,41.33945],[69.30822,41.33929],[69.30754,41.33926],[69.3075,41.33936],[69.30408,41.33833],[69.30417,41.33816],[69.30286,41.33768],[69.30466,41.33404],[69.30013,41.33324],[69.30022,41.33287],[69.30136,41.33222],[69.30143,41.33165],[69.30088,41.33155],[69.30056,41.33077],[69.29916,41.33005],[69.29855,41.33004],[69.29779,41.33048],[69.29709,41.33009],[69.29656,41.32948]]]]}},{"type":"Feature","properties":{"name":"Mirzo Ulugbek","name_ru":"Мирзо-Улугбек","tuman":"Мирзо Улуғбек","area_ha":5939.67,"source":"Toshkent shahar chegarasi (2024)"},"geometry":{"type":"MultiPolygon","coordinates":[[[[69.44426,41.40712],[69.44274,41.40854],[69.44179,41.40989],[69.44102,41.41172],[69.44082,41.41366],[69.44088,41.41446],[69.44141,41.41625],[69.44238,41.41798],[69.4438,41.41946],[69.44589,41.42084],[69.45002,41.42242],[69.45358,41.42245],[69.45552,41.4222],[69.45826,41.4215],[69.45986,41.42075],[69.46092,41.42001],[69.46305,41.41814],[69.46423,41.4162],[69.46475,41.41381],[69.46479,41.41303],[69.46456,41.41189],[69.46707,41.41352],[69.46839,41.41422],[69.46902,41.41368],[69.46987,41.41264],[69.46429,41.40932],[69.4662,41.40751],[69.46637,41.4076],[69.46652,41.40743],[69.46714,41.40769],[69.468,41.40696],[69.46819,41.40661],[69.46759,41.40639],[69.46679,41.40629],[69.46595,41.40553],[69.46371,41.40546],[69.46162,41.4039],[69.46052,41.40357],[69.4577,41.40236],[69.45675,41.40242],[69.45548,41.40183],[69.45383,41.40217],[69.45241,41.40214],[69.451,41.40155],[69.44896,41.40103],[69.44847,41.40205],[69.44602,41.40383],[69.44614,41.40398],[69.44498,41.40542],[69.44477,41.4055],[69.44358,41.40678],[69.44426,41.40712]]],[[[69.34558,41.3559],[69.34697,41.35567],[69.34968,41.35486],[69.35114,41.35457],[69.35294,41.35453],[69.35457,41.35479],[69.35611,41.35532],[69.35763,41.35625],[69.3585,41.35712],[69.36181,41.36121],[69.36249,41.36177],[69.36326,41.36214],[69.36417,41.36234],[69.365,41.36236],[69.37398,41.36118],[69.37541,41.36115],[69.37656,41.36127],[69.37791,41.36162],[69.3903,41.36579],[69.39158,41.36646],[69.39236,41.36722],[69.39252,41.36651],[69.39301,41.36589],[69.39484,41.36509],[69.39584,41.36421],[69.39886,41.36596],[69.3998,41.36479],[69.40049,41.36505],[69.40058,41.3648],[69.40096,41.36488],[69.40138,41.36329],[69.40118,41.36302],[69.40137,41.36291],[69.40202,41.36327],[69.40435,41.36402],[69.40446,41.36395],[69.4055,41.36505],[69.40709,41.36348],[69.40579,41.36274],[69.40691,41.36161],[69.40757,41.36035],[69.40768,41.36038],[69.40782,41.36011],[69.40771,41.36008],[69.40883,41.35801],[69.40947,41.35766],[69.41068,41.35801],[69.41123,41.35842],[69.41162,41.35905],[69.4122,41.35939],[69.41283,41.35955],[69.41288,41.3597],[69.41264,41.35994],[69.41262,41.36014],[69.41345,41.36094],[69.41375,41.36104],[69.41403,41.36077],[69.4142,41.36097],[69.415,41.36054],[69.4159,41.36069],[69.41797,41.36139],[69.41776,41.36172],[69.42069,41.36263],[69.42289,41.36104],[69.42397,41.35935],[69.42729,41.35806],[69.42632,41.35724],[69.42512,41.35671],[69.42549,41.35575],[69.42584,41.35578],[69.42695,41.35627],[69.42766,41.35527],[69.42686,41.35493],[69.42858,41.35261],[69.4263,41.35144],[69.42487,41.34958],[69.42712,41.34867],[69.42551,41.34654],[69.42716,41.34584],[69.42711,41.34577],[69.42786,41.34546],[69.42779,41.34533],[69.42889,41.34487],[69.43012,41.34645],[69.43262,41.34553],[69.43284,41.34586],[69.43566,41.34463],[69.43602,41.34464],[69.43617,41.34444],[69.45811,41.34511],[69.46252,41.34556],[69.46283,41.34442],[69.46291,41.34186],[69.4625,41.34179],[69.46258,41.34062],[69.46211,41.33994],[69.46304,41.33932],[69.46341,41.33958],[69.46501,41.33811],[69.46544,41.3385],[69.46902,41.33624],[69.46784,41.33518],[69.46548,41.33361],[69.4645,41.33314],[69.46277,41.33179],[69.46131,41.33085],[69.45937,41.32989],[69.45819,41.32948],[69.45528,41.32815],[69.45274,41.3258],[69.45249,41.32469],[69.45164,41.32335],[69.44828,41.32075],[69.43716,41.32469],[69.43353,41.32555],[69.43075,41.3259],[69.42823,41.32601],[69.4249,41.32584],[69.4216,41.3254],[69.4144,41.32437],[69.39197,41.32064],[69.38723,41.31967],[69.38228,41.31805],[69.37485,41.3148],[69.3715,41.31347],[69.35918,41.3092],[69.35469,41.3079],[69.35001,41.30708],[69.34296,41.30629],[69.34298,41.30675],[69.34148,41.30661],[69.34118,41.30669],[69.34097,41.30694],[69.34111,41.30723],[69.34076,41.30747],[69.34006,41.307],[69.33931,41.30697],[69.33873,41.30724],[69.33561,41.31001],[69.3289,41.3148],[69.3205,41.31579],[69.31238,41.31879],[69.31176,41.31735],[69.30847,41.31269],[69.30774,41.31299],[69.30782,41.31395],[69.30808,41.31426],[69.30694,41.31476],[69.30642,41.31513],[69.30514,41.31556],[69.3052,41.31462],[69.30587,41.31301],[69.30572,41.31242],[69.30485,41.31199],[69.30365,41.31178],[69.30281,41.31191],[69.30248,41.31216],[69.30227,41.31258],[69.3018,41.31243],[69.30151,41.3119],[69.30122,41.31173],[69.30098,41.31174],[69.3006,41.31203],[69.30015,41.31201],[69.29921,41.31078],[69.2984,41.31043],[69.2977,41.31045],[69.29774,41.30999],[69.29835,41.30913],[69.29821,41.30839],[69.29837,41.30757],[69.29634,41.30713],[69.29516,41.30709],[69.29401,41.30724],[69.28177,41.31071],[69.28171,41.31173],[69.28142,41.31202],[69.28029,41.31262],[69.28084,41.31496],[69.28265,41.31427],[69.28402,41.31567],[69.28616,41.3182],[69.29078,41.3177],[69.29149,41.31809],[69.29186,41.31853],[69.2911,41.31923],[69.29166,41.32261],[69.293,41.32248],[69.29303,41.32268],[69.29269,41.32323],[69.29313,41.3233],[69.29325,41.32399],[69.29387,41.32502],[69.29432,41.32509],[69.29475,41.32569],[69.29641,41.32526],[69.29785,41.32617],[69.29811,41.32777],[69.29738,41.32851],[69.29655,41.32864],[69.2965,41.32943],[69.29709,41.33009],[69.29779,41.33048],[69.29855,41.33004],[69.29916,41.33005],[69.30056,41.33077],[69.30088,41.33155],[69.30143,41.33165],[69.30136,41.33222],[69.30022,41.33287],[69.30013,41.33324],[69.30466,41.33404],[69.30355,41.33637],[69.3034,41.33647],[69.30286,41.33768],[69.30293,41.33777],[69.30417,41.33816],[69.30408,41.33833],[69.3075,41.33936],[69.30754,41.33926],[69.30822,41.33929],[69.30885,41.33945],[69.30934,41.33919],[69.30996,41.33946],[69.31073,41.33804],[69.31161,41.33539],[69.31329,41.33289],[69.31384,41.3323],[69.31548,41.33291],[69.31637,41.33346],[69.31689,41.33442],[69.31694,41.33523],[69.31679,41.33589],[69.31594,41.33633],[69.31567,41.33665],[69.31542,41.33738],[69.31554,41.33861],[69.316,41.33919],[69.31683,41.33943],[69.31705,41.34034],[69.3185,41.34099],[69.31885,41.34153],[69.31886,41.3432],[69.31917,41.34366],[69.32131,41.34536],[69.32215,41.34703],[69.32291,41.3475],[69.32462,41.34757],[69.32518,41.34811],[69.32534,41.3485],[69.3255,41.34978],[69.32573,41.35024],[69.32548,41.35106],[69.33258,41.35098],[69.33316,41.35088],[69.3336,41.35064],[69.33523,41.35212],[69.33616,41.35278],[69.34122,41.35518],[69.34331,41.35581],[69.34558,41.3559]]]]}},{"type":"Feature","properties":{"name":"Yakkasaroy","name_ru":"Яккасарай","tuman":"Яккасарой","area_ha":1422.8,"source":"Toshkent shahar chegarasi (2024)"},"geometry":{"type":"MultiPolygon","coordinates":[[[[69.24594,41.29874],[69.24608,41.29919],[69.2473,41.29926],[69.24922,41.30089],[69.2508,41.30157],[69.25147,41.30221],[69.2525,41.30242],[69.25352,41.30339],[69.2537,41.30429],[69.25388,41.30456],[69.25835,41.30906],[69.25887,41.31],[69.25976,41.3105],[69.25999,41.31109],[69.26412,41.31072],[69.2649,41.31007],[69.26903,41.30906],[69.26733,41.30493],[69.26653,41.30187],[69.26742,41.30061],[69.26881,41.29561],[69.27115,41.29245],[69.26914,41.29065],[69.26915,41.28949],[69.26765,41.28866],[69.2664,41.28754],[69.26575,41.28738],[69.2664,41.28553],[69.26521,41.28521],[69.269,41.28023],[69.273,41.27775],[69.26598,41.27002],[69.26413,41.26848],[69.26235,41.26761],[69.2626,41.26732],[69.26058,41.26695],[69.25923,41.26655],[69.25816,41.26606],[69.25726,41.26521],[69.25685,41.26544],[69.2525,41.26465],[69.25253,41.2645],[69.24784,41.26376],[69.24557,41.26386],[69.24551,41.26374],[69.24461,41.26392],[69.24198,41.26351],[69.24192,41.26366],[69.23465,41.26212],[69.23289,41.26142],[69.22938,41.25978],[69.22916,41.25955],[69.22832,41.25914],[69.21748,41.25428],[69.21539,41.25307],[69.21435,41.2543],[69.21407,41.25514],[69.21407,41.25578],[69.21432,41.25633],[69.21515,41.25735],[69.21575,41.25891],[69.21646,41.26015],[69.21727,41.26127],[69.21832,41.26243],[69.21857,41.26382],[69.21852,41.2645],[69.21838,41.26479],[69.22062,41.26674],[69.22095,41.26727],[69.22129,41.26862],[69.22177,41.26906],[69.2217,41.26947],[69.22222,41.26987],[69.22277,41.27053],[69.22337,41.27189],[69.22445,41.27289],[69.22549,41.27443],[69.22598,41.27564],[69.22922,41.27824],[69.23002,41.27916],[69.2313,41.27953],[69.23194,41.28006],[69.23288,41.28015],[69.23456,41.28116],[69.2348,41.28241],[69.23506,41.28589],[69.23522,41.28629],[69.23549,41.2865],[69.23667,41.28704],[69.23746,41.28815],[69.23797,41.28962],[69.23769,41.29084],[69.23777,41.29181],[69.23953,41.29354],[69.2401,41.29382],[69.24057,41.29482],[69.24123,41.29493],[69.24161,41.29514],[69.24205,41.29601],[69.24204,41.29708],[69.24343,41.29716],[69.24396,41.29775],[69.24555,41.29831],[69.24588,41.29851],[69.24594,41.29874]]]]}},{"type":"Feature","properties":{"name":"Uchtepa","name_ru":"Учтепа","tuman":"Учтепа","area_ha":2805.28,"source":"Toshkent shahar chegarasi (2024)"},"geometry":{"type":"MultiPolygon","coordinates":[[[[69.1465,41.27832],[69.14748,41.28128],[69.14718,41.28153],[69.14619,41.28145],[69.14533,41.28091],[69.14465,41.28067],[69.14343,41.27929],[69.14255,41.27858],[69.14153,41.27818],[69.14112,41.27824],[69.1407,41.27812],[69.14055,41.27769],[69.14069,41.27734],[69.14032,41.27647],[69.1398,41.27571],[69.13676,41.27329],[69.13625,41.27297],[69.13516,41.27267],[69.13403,41.27194],[69.13355,41.27138],[69.13212,41.27016],[69.13144,41.26934],[69.13103,41.26912],[69.12735,41.2682],[69.12509,41.26716],[69.1245,41.26744],[69.1233,41.26755],[69.12237,41.26691],[69.12236,41.26706],[69.12278,41.26744],[69.12304,41.2681],[69.12295,41.26981],[69.12507,41.26988],[69.12545,41.27005],[69.12584,41.27081],[69.12576,41.27197],[69.12688,41.27283],[69.12738,41.27345],[69.12838,41.27408],[69.1285,41.27439],[69.12848,41.27539],[69.12871,41.27581],[69.13055,41.27713],[69.13093,41.27802],[69.13163,41.27888],[69.13205,41.27897],[69.133,41.27867],[69.13354,41.27886],[69.1336,41.27909],[69.13317,41.27992],[69.13313,41.28045],[69.13402,41.28093],[69.13432,41.28124],[69.13455,41.28212],[69.13441,41.28264],[69.13465,41.28314],[69.13509,41.28361],[69.13511,41.28408],[69.13496,41.28435],[69.13412,41.28499],[69.13349,41.28589],[69.13219,41.28735],[69.13213,41.28753],[69.13229,41.28794],[69.13329,41.28855],[69.13405,41.28864],[69.1343,41.28908],[69.1339,41.28966],[69.13485,41.28994],[69.13523,41.29065],[69.13628,41.29078],[69.13691,41.29156],[69.13794,41.29205],[69.13839,41.29241],[69.13893,41.29385],[69.13893,41.2941],[69.13855,41.2945],[69.13868,41.29491],[69.13939,41.29505],[69.13994,41.29564],[69.14032,41.29578],[69.14042,41.29602],[69.14036,41.29651],[69.14077,41.2965],[69.14126,41.29671],[69.1422,41.29826],[69.14283,41.29859],[69.14312,41.2989],[69.1432,41.29926],[69.14307,41.29982],[69.14335,41.30002],[69.14409,41.30005],[69.14494,41.30051],[69.14516,41.30095],[69.14486,41.30161],[69.14546,41.30266],[69.1461,41.30298],[69.14663,41.30365],[69.14777,41.30394],[69.14879,41.30528],[69.14899,41.30607],[69.14888,41.30679],[69.14912,41.30712],[69.14906,41.30748],[69.14924,41.30834],[69.14866,41.30948],[69.14859,41.31],[69.14763,41.31009],[69.14751,41.31022],[69.14766,41.311],[69.14817,41.31125],[69.14834,41.31156],[69.14821,41.3119],[69.1477,41.31191],[69.14738,41.31284],[69.14837,41.31374],[69.14825,41.31388],[69.14823,41.31435],[69.14845,41.31478],[69.1498,41.31555],[69.14998,41.3161],[69.15194,41.31893],[69.15237,41.31991],[69.15268,41.32026],[69.15344,41.32075],[69.15377,41.32114],[69.1544,41.3215],[69.15474,41.32246],[69.15452,41.32286],[69.15375,41.32349],[69.15421,41.32434],[69.15411,41.32473],[69.15378,41.32515],[69.15487,41.3258],[69.15493,41.32603],[69.15463,41.32644],[69.15516,41.32727],[69.15647,41.32705],[69.15701,41.32718],[69.15796,41.32809],[69.15844,41.32811],[69.15886,41.32831],[69.15974,41.32812],[69.15984,41.32834],[69.16057,41.32819],[69.16098,41.3287],[69.16245,41.32971],[69.16301,41.33042],[69.16405,41.33112],[69.1648,41.33136],[69.16607,41.33127],[69.1668,41.33097],[69.16759,41.33106],[69.16767,41.3303],[69.16743,41.33002],[69.16732,41.32923],[69.16804,41.32921],[69.16803,41.32802],[69.19395,41.3263],[69.19321,41.32536],[69.19306,41.32476],[69.19473,41.28085],[69.19799,41.2787],[69.19596,41.27663],[69.1936,41.27535],[69.1929,41.27514],[69.17611,41.27119],[69.17223,41.26887],[69.17117,41.26983],[69.1677,41.26781],[69.16563,41.26824],[69.16404,41.26872],[69.16262,41.26701],[69.1619,41.26637],[69.15791,41.26423],[69.14869,41.26101],[69.14755,41.26275],[69.14714,41.26384],[69.14689,41.26495],[69.14624,41.27622],[69.1465,41.27832]]]]}},{"type":"Feature","properties":{"name":"Chilonzor","name_ru":"Чиланзар","tuman":"Чилонзор","area_ha":3052.94,"source":"Toshkent shahar chegarasi (2024)"},"geometry":{"type":"MultiPolygon","coordinates":[[[[69.24577,41.29842],[69.24396,41.29775],[69.24343,41.29716],[69.24204,41.29708],[69.24205,41.29601],[69.24161,41.29514],[69.24123,41.29493],[69.24057,41.29482],[69.2401,41.29382],[69.23953,41.29354],[69.23777,41.29181],[69.23769,41.29084],[69.23797,41.28962],[69.23746,41.28815],[69.23667,41.28704],[69.23549,41.2865],[69.23522,41.28629],[69.23506,41.28589],[69.2348,41.28241],[69.23456,41.28116],[69.23288,41.28015],[69.23194,41.28006],[69.2313,41.27953],[69.23002,41.27916],[69.22922,41.27824],[69.22598,41.27564],[69.22549,41.27443],[69.22445,41.27289],[69.22337,41.27189],[69.22277,41.27053],[69.22222,41.26987],[69.2217,41.26947],[69.22177,41.26906],[69.22129,41.26862],[69.22095,41.26727],[69.22062,41.26674],[69.21838,41.26479],[69.21852,41.2645],[69.21857,41.26382],[69.21832,41.26243],[69.21727,41.26127],[69.21646,41.26015],[69.21575,41.25891],[69.21515,41.25735],[69.21432,41.25633],[69.21407,41.25578],[69.21407,41.25514],[69.21435,41.2543],[69.21539,41.25307],[69.20771,41.24868],[69.18872,41.23665],[69.18715,41.23533],[69.17685,41.22504],[69.1755,41.22362],[69.1747,41.22255],[69.17393,41.2231],[69.17227,41.22499],[69.17193,41.22518],[69.17299,41.22578],[69.17224,41.22637],[69.17392,41.22718],[69.17387,41.22736],[69.17415,41.22832],[69.16886,41.23479],[69.16805,41.23515],[69.16697,41.23529],[69.16566,41.23567],[69.1651,41.23566],[69.16473,41.236],[69.16546,41.23679],[69.16566,41.23847],[69.16663,41.23963],[69.16677,41.24018],[69.16665,41.24097],[69.16414,41.24854],[69.16335,41.25006],[69.16212,41.25147],[69.16103,41.25236],[69.15447,41.25637],[69.15016,41.25955],[69.14869,41.26101],[69.15791,41.26423],[69.1619,41.26637],[69.16262,41.26701],[69.16404,41.26872],[69.16563,41.26824],[69.1677,41.26781],[69.17117,41.26983],[69.17223,41.26887],[69.17611,41.27119],[69.1929,41.27514],[69.1936,41.27535],[69.19596,41.27663],[69.19799,41.2787],[69.19473,41.28085],[69.19385,41.30296],[69.19998,41.30086],[69.20123,41.30058],[69.219,41.30102],[69.22044,41.30132],[69.22192,41.30212],[69.22239,41.30226],[69.22341,41.30228],[69.23127,41.29971],[69.23307,41.30162],[69.23632,41.30565],[69.23979,41.31027],[69.2408,41.31201],[69.25925,41.31132],[69.25999,41.31109],[69.25976,41.3105],[69.25887,41.31],[69.25835,41.30906],[69.25388,41.30456],[69.2537,41.30429],[69.25352,41.30339],[69.2525,41.30242],[69.25147,41.30221],[69.2508,41.30157],[69.24922,41.30089],[69.2473,41.29926],[69.24608,41.29919],[69.24577,41.29842]]]]}},{"type":"Feature","properties":{"name":"Bektemir","name_ru":"Бектемир","tuman":"Бектемир","area_ha":3260.43,"source":"Toshkent shahar chegarasi (2024)"},"geometry":{"type":"MultiPolygon","coordinates":[[[[69.31519,41.18849],[69.31422,41.18776],[69.28849,41.20576],[69.28679,41.20498],[69.28309,41.20481],[69.28133,41.2045],[69.28041,41.20505],[69.27933,41.20614],[69.28085,41.20721],[69.28271,41.20896],[69.28359,41.21002],[69.28405,41.21151],[69.28418,41.21413],[69.28735,41.21561],[69.28989,41.21851],[69.28978,41.22085],[69.2891,41.22164],[69.29184,41.22371],[69.29219,41.22416],[69.29257,41.22411],[69.29381,41.22488],[69.29544,41.2253],[69.29616,41.22617],[69.29707,41.22661],[69.29814,41.22743],[69.29884,41.22777],[69.30046,41.22812],[69.30713,41.23056],[69.30839,41.23156],[69.30833,41.23188],[69.30856,41.23198],[69.31152,41.23251],[69.31225,41.23282],[69.31763,41.23722],[69.32172,41.23761],[69.32192,41.23751],[69.32373,41.23776],[69.32415,41.23794],[69.32517,41.23912],[69.3294,41.24103],[69.33055,41.23901],[69.33159,41.23813],[69.33204,41.23826],[69.33315,41.23869],[69.33383,41.23911],[69.33772,41.24289],[69.33888,41.24365],[69.34045,41.24427],[69.34763,41.24623],[69.35187,41.24842],[69.35334,41.24936],[69.35494,41.25063],[69.35657,41.25242],[69.36653,41.26699],[69.36698,41.26723],[69.36773,41.26726],[69.37345,41.26273],[69.37423,41.26228],[69.39278,41.24766],[69.39235,41.24733],[69.39307,41.2462],[69.39344,41.24471],[69.39329,41.24368],[69.39268,41.24274],[69.39307,41.24243],[69.37727,41.2324],[69.35219,41.21623],[69.333,41.20201],[69.31519,41.18849]]]]}},{"type":"Feature","properties":{"name":"Olmazor","name_ru":"Алмазар","tuman":"Олмазор","area_ha":3381.29,"source":"Toshkent shahar chegarasi (2024)"},"geometry":{"type":"MultiPolygon","coordinates":[[[[69.24244,41.32777],[69.24112,41.32711],[69.24048,41.32701],[69.2391,41.32895],[69.23738,41.32896],[69.23631,41.32912],[69.23536,41.32952],[69.23542,41.3288],[69.23595,41.32749],[69.2336,41.32658],[69.23101,41.32584],[69.23079,41.32565],[69.205,41.34031],[69.20481,41.34061],[69.20482,41.34085],[69.20691,41.34468],[69.20695,41.34501],[69.20682,41.34519],[69.20008,41.34728],[69.19795,41.3481],[69.19419,41.34875],[69.1895,41.3499],[69.18771,41.3501],[69.18215,41.3494],[69.1782,41.34925],[69.17323,41.3483],[69.16515,41.34836],[69.16566,41.35065],[69.1666,41.35316],[69.16818,41.35574],[69.16973,41.35761],[69.1726,41.36004],[69.21047,41.38403],[69.21137,41.38593],[69.21143,41.38634],[69.21125,41.38689],[69.2115,41.38703],[69.2121,41.38678],[69.21269,41.38671],[69.21524,41.38702],[69.22812,41.3951],[69.23631,41.38591],[69.23698,41.38478],[69.23799,41.38181],[69.23858,41.38095],[69.24072,41.3787],[69.24154,41.37807],[69.24428,41.37644],[69.24733,41.37418],[69.25246,41.36959],[69.25479,41.36781],[69.25686,41.36658],[69.2614,41.36346],[69.26969,41.35569],[69.26734,41.35352],[69.2631,41.34922],[69.266,41.34747],[69.26477,41.34651],[69.26432,41.34599],[69.26414,41.3454],[69.26372,41.34488],[69.26238,41.34347],[69.26149,41.34274],[69.26081,41.34096],[69.26055,41.34058],[69.25843,41.33882],[69.25685,41.33787],[69.24794,41.32873],[69.24666,41.32863],[69.24565,41.32818],[69.2452,41.32814],[69.24454,41.32771],[69.24411,41.3276],[69.24342,41.32753],[69.24244,41.32777]]]]}},{"type":"Feature","properties":{"name":"Shayxontohur","name_ru":"Шайхантахур","tuman":"Шайҳонтохур","area_ha":2705.12,"source":"Toshkent shahar chegarasi (2024)"},"geometry":{"type":"MultiPolygon","coordinates":[[[[69.24244,41.32777],[69.24342,41.32753],[69.24411,41.3276],[69.24454,41.32771],[69.2452,41.32814],[69.24565,41.32818],[69.24666,41.32863],[69.24794,41.32873],[69.25685,41.33787],[69.25843,41.33882],[69.26055,41.34058],[69.26081,41.34096],[69.26149,41.34274],[69.26301,41.34414],[69.27491,41.33743],[69.27456,41.33706],[69.2738,41.33478],[69.27301,41.33374],[69.27287,41.33282],[69.2732,41.33203],[69.27301,41.33144],[69.27295,41.33021],[69.27238,41.32969],[69.27126,41.32914],[69.27046,41.32797],[69.27047,41.32751],[69.27084,41.32631],[69.2708,41.32588],[69.26995,41.32506],[69.26923,41.32289],[69.26806,41.3218],[69.26659,41.31816],[69.26562,41.31718],[69.2643,41.31372],[69.26399,41.31328],[69.26348,41.31293],[69.26323,41.31234],[69.26086,41.31213],[69.26033,41.31184],[69.25999,41.31109],[69.25925,41.31132],[69.2408,41.31201],[69.23979,41.31027],[69.23632,41.30565],[69.23307,41.30162],[69.23127,41.29971],[69.22341,41.30228],[69.22239,41.30226],[69.22192,41.30212],[69.22044,41.30132],[69.219,41.30102],[69.20123,41.30058],[69.19998,41.30086],[69.19385,41.30296],[69.19306,41.32476],[69.19321,41.32536],[69.19395,41.3263],[69.16803,41.32802],[69.16804,41.32921],[69.16732,41.32923],[69.16743,41.33002],[69.16767,41.3303],[69.16759,41.33106],[69.16661,41.331],[69.16576,41.33133],[69.1648,41.33136],[69.16405,41.33112],[69.16301,41.33042],[69.16245,41.32971],[69.16098,41.3287],[69.16057,41.32819],[69.15984,41.32834],[69.16065,41.33009],[69.16272,41.3335],[69.16363,41.33564],[69.16401,41.33749],[69.16448,41.34436],[69.16515,41.34836],[69.17323,41.3483],[69.1782,41.34925],[69.18216,41.3494],[69.18771,41.3501],[69.1895,41.3499],[69.19419,41.34875],[69.19775,41.34815],[69.20008,41.34728],[69.20669,41.34528],[69.20695,41.34501],[69.20691,41.34468],[69.20482,41.34085],[69.20481,41.34061],[69.205,41.34031],[69.23079,41.32565],[69.23101,41.32584],[69.2336,41.32658],[69.23595,41.32749],[69.23542,41.3288],[69.23536,41.32952],[69.23631,41.32912],[69.23738,41.32896],[69.2391,41.32895],[69.24048,41.32701],[69.24112,41.32711],[69.24244,41.32777]]]]}}]}